{
"type": "FeatureCollection",
"name": "strade_unexplored",
"crs": { "type": "name", "properties": { "name": "urn:ogc:def:crs:OGC:1.3:CRS84" } },
"features": [
{ "type": "Feature", "properties": { "name": "Via Cesine", "name_manual": "Via Cesine", "name_original": "Via Cesine", "highway": "service", "status": "unexplored", "description": "unexplored" }, "geometry": { "type": "LineString", "coordinates": [ [ 14.4189548, 40.6429993 ], [ 14.418914, 40.6430592 ], [ 14.4188824, 40.643095 ], [ 14.4188421, 40.6431316 ], [ 14.4187669, 40.6431544 ], [ 14.4186646, 40.6431854 ], [ 14.4184995, 40.6432415 ], [ 14.418415, 40.6432521 ], [ 14.4183264, 40.6432478 ], [ 14.4182809, 40.6432236 ], [ 14.4182663, 40.6431882 ], [ 14.4182911, 40.6430828 ], [ 14.4183999, 40.6429786 ], [ 14.4185927, 40.6428715 ], [ 14.4188147, 40.6427311 ], [ 14.4188838, 40.6426899 ], [ 14.4189991, 40.642637 ], [ 14.4191408, 40.6424967 ], [ 14.4191439, 40.6424711 ], [ 14.4191292, 40.6424131 ], [ 14.4190796, 40.6423795 ], [ 14.4190098, 40.6423515 ], [ 14.4188911, 40.6423591 ], [ 14.4187946, 40.6423464 ], [ 14.4187202, 40.64232 ], [ 14.4186061, 40.6422503 ], [ 14.4185705, 40.6422373 ], [ 14.4183989, 40.6421953 ], [ 14.4183071, 40.6421607 ], [ 14.418344, 40.6420722 ], [ 14.418354, 40.6419938 ], [ 14.4183507, 40.6419465 ], [ 14.418083, 40.6418409 ], [ 14.418126, 40.6417552 ], [ 14.4181696, 40.6416516 ], [ 14.4181341, 40.6416051 ], [ 14.418125, 40.641593 ], [ 14.4181181, 40.6415839 ], [ 14.4180969, 40.6415561 ] ] } },
{ "type": "Feature", "properties": { "name": "Via Tommaso Astarita", "name_manual": "Via Tommaso Astarita", "name_original": "Via Tommaso Astarita", "highway": "primary", "status": "unexplored", "description": "unexplored" }, "geometry": { "type": "LineString", "coordinates": [ [ 14.4268828, 40.6314026 ], [ 14.4267284, 40.6316005 ], [ 14.4266632, 40.6317047 ], [ 14.4265877, 40.6318401 ], [ 14.4265053, 40.6320198 ], [ 14.426471, 40.6323115 ], [ 14.4264401, 40.6326136 ], [ 14.4264264, 40.6328167 ], [ 14.4264504, 40.6329444 ], [ 14.4264813, 40.6330772 ], [ 14.4265259, 40.6331735 ], [ 14.4265568, 40.6332699 ], [ 14.4265602, 40.6333324 ], [ 14.426543, 40.6334236 ], [ 14.4264435, 40.6335173 ], [ 14.4263737, 40.633578 ], [ 14.42634, 40.6336104 ], [ 14.426304, 40.63366 ], [ 14.4262988, 40.6336937 ], [ 14.4263063, 40.6337491 ], [ 14.4263612, 40.6338246 ], [ 14.4264435, 40.6338689 ], [ 14.4265877, 40.6338689 ], [ 14.4266975, 40.6339028 ], [ 14.4267455, 40.6339965 ], [ 14.4267421, 40.634145 ], [ 14.4266666, 40.6341996 ], [ 14.4265739, 40.6342257 ], [ 14.4260788, 40.6343663 ], [ 14.4258292, 40.6344627 ], [ 14.4256542, 40.6345851 ], [ 14.4253419, 40.634783 ], [ 14.4251821, 40.6348731 ], [ 14.4251292, 40.6349419 ], [ 14.4250331, 40.6350617 ], [ 14.4249953, 40.6351112 ], [ 14.4248832, 40.6352646 ], [ 14.4248508, 40.6353089 ], [ 14.424813, 40.6353573 ], [ 14.4247055, 40.6354361 ], [ 14.4245069, 40.6354833 ], [ 14.4241828, 40.6355557 ], [ 14.4239513, 40.6356393 ], [ 14.4237563, 40.6357715 ], [ 14.4235865, 40.6359648 ], [ 14.4233438, 40.6362419 ], [ 14.4231178, 40.6365787 ], [ 14.4228386, 40.636933 ], [ 14.422745, 40.6370652 ], [ 14.4223517, 40.6376144 ], [ 14.4221809, 40.6378359 ], [ 14.4221549, 40.6378645 ], [ 14.4220886, 40.6379374 ], [ 14.4219654, 40.6379887 ], [ 14.4218293, 40.6380137 ], [ 14.4215988, 40.6380635 ], [ 14.4214992, 40.6380804 ], [ 14.4213926, 40.6381041 ] ] } },
{ "type": "Feature", "properties": { "name": "Strada Statale Sorrentina", "name_manual": "Strada Statale Sorrentina", "name_original": "Strada Statale Sorrentina", "highway": "primary", "status": "unexplored", "description": "unexplored" }, "geometry": { "type": "LineString", "coordinates": [ [ 14.4085919, 40.6524274 ], [ 14.4087852, 40.6522875 ], [ 14.4090546, 40.6520922 ], [ 14.4092553, 40.6519761 ], [ 14.4094271, 40.6518981 ], [ 14.4095041, 40.6518433 ], [ 14.4095563, 40.6517355 ], [ 14.4095459, 40.6516438 ], [ 14.4095351, 40.6515094 ], [ 14.4095575, 40.6513962 ], [ 14.4096418, 40.651274 ], [ 14.4097489, 40.6511837 ], [ 14.4099573, 40.651112 ], [ 14.4101079, 40.6510697 ], [ 14.4102495, 40.6509837 ], [ 14.4104634, 40.6508156 ], [ 14.4106501, 40.6507077 ], [ 14.4106961, 40.6506382 ], [ 14.4107182, 40.6505685 ], [ 14.4106753, 40.650459 ], [ 14.4106419, 40.6503375 ], [ 14.410646, 40.650235 ], [ 14.410666, 40.6501133 ], [ 14.4107527, 40.6499996 ], [ 14.4108324, 40.6498711 ], [ 14.410865, 40.649759 ], [ 14.4108815, 40.6496371 ], [ 14.4108819, 40.6495046 ], [ 14.4109199, 40.6493959 ], [ 14.4109914, 40.6492806 ], [ 14.4112254, 40.6490423 ], [ 14.41133, 40.6489469 ], [ 14.4114272, 40.6487892 ], [ 14.4115233, 40.6486728 ], [ 14.4117638, 40.6484597 ], [ 14.4119945, 40.6482398 ], [ 14.4121466, 40.6481385 ], [ 14.4122114, 40.6480408 ], [ 14.4121992, 40.6478884 ], [ 14.4122151, 40.6477835 ], [ 14.4122817, 40.647629 ], [ 14.4126903, 40.6471588 ], [ 14.4128383, 40.6469195 ], [ 14.4128675, 40.6468823 ], [ 14.4131627, 40.646605 ], [ 14.4133451, 40.6463745 ], [ 14.4135527, 40.6461327 ], [ 14.4138401, 40.6457282 ], [ 14.4143252, 40.6452443 ], [ 14.4144551, 40.645136 ], [ 14.4148472, 40.6449132 ], [ 14.4152847, 40.6445167 ], [ 14.4153904, 40.6444334 ] ] } },
{ "type": "Feature", "properties": { "name": "Via Municipio", "name_manual": "Via Municipio", "name_original": "Via Municipio", "highway": "residential", "status": "unexplored", "description": "unexplored" }, "geometry": { "type": "LineString", "coordinates": [ [ 14.4136986, 40.6439519 ], [ 14.4131808, 40.6437474 ], [ 14.4128703, 40.6436459 ], [ 14.4125953, 40.6435335 ], [ 14.4119577, 40.6432752 ], [ 14.4118075, 40.6432508 ], [ 14.4117256, 40.6432541 ], [ 14.4116363, 40.6432726 ] ] } },
{ "type": "Feature", "properties": { "name": "Via Angelo Cosenza", "name_manual": "Via Angelo Cosenza", "name_original": "Via Angelo Cosenza", "highway": "unclassified", "status": "unexplored", "description": "unexplored" }, "geometry": { "type": "LineString", "coordinates": [ [ 14.4110838, 40.6426665 ], [ 14.4108799, 40.6427598 ], [ 14.4106657, 40.6428899 ], [ 14.4105791, 40.6429425 ], [ 14.4102732, 40.6430473 ], [ 14.4097532, 40.6431259 ], [ 14.4095305, 40.6434366 ], [ 14.4093656, 40.6436968 ], [ 14.4088249, 40.6444518 ], [ 14.4087964, 40.6444343 ], [ 14.408733, 40.6445126 ], [ 14.4086695, 40.6445785 ], [ 14.4086007, 40.6446541 ], [ 14.4083783, 40.6448483 ], [ 14.4082569, 40.6449891 ], [ 14.4082059, 40.6450553 ], [ 14.4081568, 40.6451307 ], [ 14.4080004, 40.645374 ], [ 14.4079148, 40.6455386 ], [ 14.4078535, 40.6456628 ], [ 14.4078441, 40.6457457 ] ] } },
{ "type": "Feature", "properties": { "name": "Via Angelo Cosenza", "name_manual": "Via Angelo Cosenza", "name_original": "Via Angelo Cosenza", "highway": "unclassified", "status": "unexplored", "description": "unexplored" }, "geometry": { "type": "LineString", "coordinates": [ [ 14.4082752, 40.6517945 ], [ 14.4087627, 40.6513738 ], [ 14.4090173, 40.6510481 ], [ 14.4091648, 40.6507814 ], [ 14.409336, 40.6504533 ], [ 14.4094062, 40.6502971 ], [ 14.4094656, 40.649973 ], [ 14.4094669, 40.6499096 ], [ 14.4094571, 40.6498058 ], [ 14.4093552, 40.6493997 ], [ 14.4093368, 40.6491903 ], [ 14.4093354, 40.6491143 ], [ 14.4093123, 40.6489845 ], [ 14.4092717, 40.6488869 ], [ 14.4091859, 40.6487853 ] ] } },
{ "type": "Feature", "properties": { "name": "Via Caruso", "name_manual": "Via Caruso", "name_original": "Via Caruso", "highway": "unclassified", "status": "unexplored", "description": "unexplored" }, "geometry": { "type": "LineString", "coordinates": [ [ 14.4078441, 40.6457457 ], [ 14.4078575, 40.6459007 ], [ 14.4078997, 40.6460267 ], [ 14.4080633, 40.6466537 ], [ 14.4083407, 40.6475572 ], [ 14.4083472, 40.647602 ], [ 14.4083449, 40.6476297 ], [ 14.4082353, 40.6476658 ], [ 14.4081447, 40.6476102 ], [ 14.4081398, 40.6475534 ], [ 14.4081737, 40.6475066 ], [ 14.408188, 40.6474832 ], [ 14.4081755, 40.6474196 ], [ 14.4081549, 40.647353 ] ] } },
{ "type": "Feature", "properties": { "name": "Via Cristoforo Colombo", "name_manual": "Via Cristoforo Colombo", "name_original": "Via Cristoforo Colombo", "highway": "residential", "status": "unexplored", "description": "unexplored" }, "geometry": { "type": "LineString", "coordinates": [ [ 14.4114382, 40.6425043 ], [ 14.411678, 40.6423866 ], [ 14.4118135, 40.6423307 ], [ 14.4118953, 40.6422838 ], [ 14.4119631, 40.6421914 ], [ 14.4121501, 40.6418442 ], [ 14.4122037, 40.641776 ], [ 14.4123037, 40.6417203 ], [ 14.4128242, 40.6415678 ], [ 14.4131705, 40.6414739 ], [ 14.4134597, 40.6414191 ], [ 14.4136038, 40.6413649 ], [ 14.4137977, 40.6412613 ], [ 14.4138955, 40.6412237 ], [ 14.4140136, 40.6412176 ], [ 14.4142429, 40.6413041 ], [ 14.4144727, 40.6413464 ], [ 14.4145554, 40.6413509 ] ] } },
{ "type": "Feature", "properties": { "name": "Via Enrico De Martino", "name_manual": "Via Enrico De Martino", "name_original": "Via Enrico De Martino", "highway": "residential", "status": "unexplored", "description": "unexplored" }, "geometry": { "type": "LineString", "coordinates": [ [ 14.4168549, 40.641504 ], [ 14.4168035, 40.6414685 ], [ 14.4167681, 40.6414462 ], [ 14.4167036, 40.6414081 ], [ 14.41662, 40.6413635 ], [ 14.4165733, 40.6413386 ], [ 14.416521, 40.6413127 ], [ 14.4164667, 40.6412913 ], [ 14.4164124, 40.6412685 ], [ 14.4163601, 40.641244 ], [ 14.4162194, 40.6411632 ], [ 14.4160524, 40.6410269 ], [ 14.4159399, 40.6408951 ], [ 14.4158634, 40.6408046 ], [ 14.415781, 40.6407161 ], [ 14.4157342, 40.640677 ], [ 14.4157232, 40.640668 ], [ 14.4156873, 40.6406386 ] ] } },
{ "type": "Feature", "properties": { "name": "Via Guglielmo Marconi", "name_manual": "Via Guglielmo Marconi", "name_original": "Via Guglielmo Marconi", "highway": "residential", "status": "unexplored", "description": "unexplored" }, "geometry": { "type": "LineString", "coordinates": [ [ 14.4156873, 40.6406386 ], [ 14.4155607, 40.6407679 ], [ 14.4152072, 40.6412797 ], [ 14.4151618, 40.6413191 ], [ 14.4151037, 40.6413473 ], [ 14.4150375, 40.641362 ], [ 14.4149685, 40.6413621 ], [ 14.4148183, 40.641358 ], [ 14.4145554, 40.6413509 ] ] } },
{ "type": "Feature", "properties": { "name": "Via del Lauro", "name_manual": "Via del Lauro", "name_original": "Via del Lauro", "highway": "residential", "status": "unexplored", "description": "unexplored" }, "geometry": { "type": "LineString", "coordinates": [ [ 14.4149454, 40.6434902 ], [ 14.4147525, 40.6434395 ], [ 14.4145815, 40.6433971 ], [ 14.41443, 40.6433839 ], [ 14.4143874, 40.6434059 ], [ 14.414257, 40.6435884 ], [ 14.4139133, 40.6439375 ], [ 14.4138275, 40.644027 ], [ 14.4136986, 40.6439519 ] ] } },
{ "type": "Feature", "properties": { "name": "Via Casa Miccio", "name_manual": "Via Casa Miccio", "name_original": "Via Casa Miccio", "highway": "residential", "status": "unexplored", "description": "unexplored" }, "geometry": { "type": "LineString", "coordinates": [ [ 14.4168131, 40.6429472 ], [ 14.4165972, 40.6428364 ], [ 14.4165295, 40.6427942 ], [ 14.4164973, 40.6427662 ], [ 14.4164933, 40.642695 ], [ 14.4163618, 40.6426268 ], [ 14.41627, 40.6426665 ], [ 14.4162056, 40.6426716 ], [ 14.4159736, 40.6425734 ], [ 14.4159187, 40.6426141 ], [ 14.4157201, 40.6425108 ], [ 14.4156001, 40.6424314 ], [ 14.4155002, 40.6423943 ], [ 14.4152678, 40.6422961 ] ] } },
{ "type": "Feature", "properties": { "name": "Via Vocale", "name_manual": "Via Vocale", "name_original": "Via Vocale", "highway": "unclassified", "status": "unexplored", "description": "unexplored" }, "geometry": { "type": "LineString", "coordinates": [ [ 14.4112991, 40.6438261 ], [ 14.4117638, 40.6439456 ], [ 14.4119756, 40.6440378 ], [ 14.4122959, 40.6441878 ], [ 14.4126771, 40.6443292 ], [ 14.4129397, 40.6444177 ], [ 14.4132883, 40.6445373 ], [ 14.4137123, 40.6441442 ], [ 14.4138275, 40.644027 ] ] } },
{ "type": "Feature", "properties": { "name": "Via Rivolo", "name_manual": "Via Rivolo", "name_original": "Via Rivolo", "highway": "unclassified", "status": "unexplored", "description": "unexplored" }, "geometry": { "type": "LineString", "coordinates": [ [ 14.4094375, 40.6423144 ], [ 14.4099588, 40.6425764 ], [ 14.4100976, 40.6426304 ], [ 14.4101382, 40.6427588 ], [ 14.4097532, 40.6431259 ], [ 14.4093109, 40.6429146 ], [ 14.4089923, 40.6428029 ], [ 14.4086059, 40.6427156 ], [ 14.4080669, 40.6426136 ], [ 14.4074607, 40.6425908 ] ] } },
{ "type": "Feature", "properties": { "name": "Via Cassari", "name_manual": "Via Cassari", "name_original": "Via Cassari", "highway": "footway", "status": "unexplored", "description": "unexplored" }, "geometry": { "type": "LineString", "coordinates": [ [ 14.4164722, 40.6402546 ], [ 14.4165033, 40.6402343 ], [ 14.4169183, 40.6398981 ], [ 14.4170798, 40.6397295 ] ] } },
{ "type": "Feature", "properties": { "name": "Via Mariano Ruggiero", "name_manual": "Via Mariano Ruggiero", "name_original": "Via Mariano Ruggiero", "highway": "residential", "status": "unexplored", "description": "unexplored" }, "geometry": { "type": "LineString", "coordinates": [ [ 14.4195212, 40.6372581 ], [ 14.4199653, 40.6374872 ], [ 14.4200584, 40.6375645 ], [ 14.4200775, 40.6375803 ], [ 14.4202897, 40.6376788 ], [ 14.4203826, 40.6377001 ], [ 14.4204212, 40.6376921 ], [ 14.4204598, 40.6376602 ], [ 14.4205246, 40.6376229 ], [ 14.4205841, 40.6376282 ], [ 14.4206702, 40.6376735 ], [ 14.420728, 40.637728 ], [ 14.4207406, 40.6377443 ], [ 14.4207578, 40.6377666 ], [ 14.4207806, 40.6378012 ], [ 14.420846, 40.6378411 ], [ 14.4210222, 40.6379072 ], [ 14.4211717, 40.6379609 ], [ 14.4212488, 40.6379875 ], [ 14.4213219, 40.638018 ] ] } },
{ "type": "Feature", "properties": { "name": "Via Mariano Ruggiero", "name_manual": "Via Mariano Ruggiero", "name_original": "Via Mariano Ruggiero", "highway": "residential", "status": "unexplored", "description": "unexplored" }, "geometry": { "type": "LineString", "coordinates": [ [ 14.4213966, 40.6380086 ], [ 14.4217314, 40.6375878 ], [ 14.4218913, 40.6373841 ], [ 14.4220851, 40.6371315 ], [ 14.4221069, 40.6370753 ] ] } },
{ "type": "Feature", "properties": { "name": "Via Ponte Vecchio", "name_manual": "Via Ponte Vecchio", "name_original": "Via Ponte Vecchio", "highway": "residential", "status": "unexplored", "description": "unexplored" }, "geometry": { "type": "LineString", "coordinates": [ [ 14.4203926, 40.6361507 ], [ 14.4203972, 40.6359263 ], [ 14.4203807, 40.635819 ], [ 14.4203203, 40.6357097 ], [ 14.4202664, 40.6356758 ], [ 14.4201591, 40.6355885 ], [ 14.420112, 40.6355376 ], [ 14.4200918, 40.6354283 ], [ 14.420161, 40.6353366 ], [ 14.4203086, 40.6351041 ], [ 14.4203951, 40.6349528 ] ] } },
{ "type": "Feature", "properties": { "name": "Via Casa Starita", "name_manual": "Via Casa Starita", "name_original": "Via Casa Starita", "highway": "residential", "status": "unexplored", "description": "unexplored" }, "geometry": { "type": "LineString", "coordinates": [ [ 14.4203951, 40.6349528 ], [ 14.4204278, 40.6349307 ], [ 14.4204541, 40.6349156 ], [ 14.4204966, 40.6349062 ], [ 14.420538, 40.6349011 ], [ 14.420588, 40.6349194 ], [ 14.4206313, 40.6349497 ], [ 14.4208481, 40.6350498 ], [ 14.4209604, 40.6350432 ], [ 14.4211533, 40.634978 ], [ 14.4212881, 40.6349165 ] ] } },
{ "type": "Feature", "properties": { "name": "Via Gradelle", "name_manual": "Via Gradelle", "name_original": "Via Gradelle", "highway": "service", "status": "unexplored", "description": "unexplored" }, "geometry": { "type": "LineString", "coordinates": [ [ 14.4149454, 40.6434902 ], [ 14.4152105, 40.6436093 ], [ 14.4152468, 40.643635 ], [ 14.4152632, 40.6436587 ], [ 14.4150078, 40.6440139 ], [ 14.4148812, 40.6441079 ], [ 14.4148377, 40.6441496 ], [ 14.4148064, 40.6441651 ], [ 14.4147556, 40.6441828 ], [ 14.4146881, 40.6442102 ], [ 14.4146211, 40.6443206 ], [ 14.4145699, 40.6443604 ], [ 14.4145374, 40.6443792 ], [ 14.4142851, 40.6443408 ], [ 14.4141126, 40.6443049 ], [ 14.4138385, 40.644214 ], [ 14.4137693, 40.6441812 ], [ 14.4137123, 40.6441442 ] ] } },
{ "type": "Feature", "properties": { "name": "vico Cacace", "name_manual": "vico Cacace", "name_original": "vico Cacace", "highway": "path", "status": "unexplored", "description": "unexplored" }, "geometry": { "type": "LineString", "coordinates": [ [ 14.4152632, 40.6436587 ], [ 14.4153889, 40.6437212 ], [ 14.4156765, 40.6438596 ], [ 14.415824, 40.6438754 ], [ 14.415912, 40.6439017 ] ] } },
{ "type": "Feature", "properties": { "name": "Via Cristoforo Colombo", "name_manual": "Via Cristoforo Colombo", "name_original": "Via Cristoforo Colombo", "highway": "residential", "status": "unexplored", "description": "unexplored" }, "geometry": { "type": "LineString", "coordinates": [ [ 14.4128242, 40.6415678 ], [ 14.4124666, 40.6413322 ], [ 14.4124565, 40.6413069 ], [ 14.4124748, 40.641277 ], [ 14.4126946, 40.641083 ], [ 14.4130397, 40.6407765 ], [ 14.4132236, 40.640586 ], [ 14.4134972, 40.6403615 ], [ 14.4138047, 40.6401572 ], [ 14.4139592, 40.6400583 ], [ 14.4140021, 40.6400573 ], [ 14.4141832, 40.6401254 ], [ 14.4143495, 40.6401682 ], [ 14.4144117, 40.6401656 ], [ 14.4147036, 40.6400345 ] ] } },
{ "type": "Feature", "properties": { "name": "Via Meta", "name_manual": "Via Meta", "name_original": "Via Meta", "highway": "unclassified", "status": "unexplored", "description": "unexplored" }, "geometry": { "type": "LineString", "coordinates": [ [ 14.4109198, 40.644499 ], [ 14.4107909, 40.6444758 ], [ 14.4106327, 40.6444205 ], [ 14.4105273, 40.6443679 ], [ 14.4103653, 40.6442585 ], [ 14.4102135, 40.6441735 ], [ 14.4099816, 40.6440458 ], [ 14.4098058, 40.6439415 ], [ 14.4095966, 40.6438369 ], [ 14.4095683, 40.6438243 ], [ 14.4094109, 40.6437543 ], [ 14.4093656, 40.6436968 ] ] } },
{ "type": "Feature", "properties": { "name": "via Edoardo De Martino", "name_manual": "via Edoardo De Martino", "name_original": "via Edoardo De Martino", "highway": "unclassified", "status": "unexplored", "description": "unexplored" }, "geometry": { "type": "LineString", "coordinates": [ [ 14.4108038, 40.6455599 ], [ 14.4107419, 40.6455279 ], [ 14.4106135, 40.6455049 ], [ 14.4103861, 40.6454504 ], [ 14.4100162, 40.6453296 ], [ 14.4098874, 40.6455413 ], [ 14.4095281, 40.6455293 ], [ 14.4094189, 40.6455412 ], [ 14.409366, 40.645563 ], [ 14.4093369, 40.6456334 ], [ 14.4092654, 40.6456343 ], [ 14.4090265, 40.6456105 ], [ 14.4089854, 40.6455897 ], [ 14.4089442, 40.6455513 ], [ 14.4088107, 40.6455086 ], [ 14.4086674, 40.6454569 ], [ 14.4085854, 40.645416 ], [ 14.4085053, 40.6453732 ], [ 14.4081568, 40.6451307 ] ] } },
{ "type": "Feature", "properties": { "name": "via Olmo", "name_manual": "via Olmo", "name_original": "via Olmo", "highway": "unclassified", "status": "unexplored", "description": "unexplored" }, "geometry": { "type": "LineString", "coordinates": [ [ 14.4093369, 40.6456334 ], [ 14.4094315, 40.6457173 ], [ 14.4094047, 40.6458476 ], [ 14.4092466, 40.6461171 ], [ 14.4090867, 40.646494 ] ] } },
{ "type": "Feature", "properties": { "name": "Via Lamma", "name_manual": "Via Lamma", "name_original": "Via Lamma", "highway": "unclassified", "status": "unexplored", "description": "unexplored" }, "geometry": { "type": "LineString", "coordinates": [ [ 14.4093465, 40.6466202 ], [ 14.4090681, 40.6472588 ], [ 14.4090306, 40.6473033 ], [ 14.4086862, 40.6477049 ], [ 14.4085825, 40.6478436 ], [ 14.4084366, 40.6476678 ], [ 14.4083829, 40.6475162 ], [ 14.4082861, 40.6471418 ], [ 14.4080422, 40.6463193 ], [ 14.4080364, 40.64624 ], [ 14.4080399, 40.6461768 ], [ 14.4081839, 40.6460032 ] ] } },
{ "type": "Feature", "properties": { "name": "Via Cassari", "name_manual": "Via Cassari", "name_original": "Via Cassari", "highway": "service", "status": "unexplored", "description": "unexplored" }, "geometry": { "type": "LineString", "coordinates": [ [ 14.4170798, 40.6397295 ], [ 14.4170753, 40.6396962 ], [ 14.417066, 40.6396654 ], [ 14.4172846, 40.6395407 ], [ 14.4173907, 40.6396247 ], [ 14.4174674, 40.6396702 ], [ 14.4175409, 40.6396717 ], [ 14.417879, 40.639362 ], [ 14.4179435, 40.6392377 ], [ 14.4180585, 40.6391047 ], [ 14.4183193, 40.6387455 ], [ 14.4184799, 40.6385628 ], [ 14.4185939, 40.6384574 ], [ 14.418677, 40.6383779 ], [ 14.4187375, 40.6383231 ] ] } },
{ "type": "Feature", "properties": { "name": "V. Santa Lucia", "name_manual": "V. Santa Lucia", "name_original": "V. Santa Lucia", "highway": "unclassified", "status": "unexplored", "description": "unexplored" }, "geometry": { "type": "LineString", "coordinates": [ [ 14.4081839, 40.6460032 ], [ 14.408198, 40.6461103 ], [ 14.4082682, 40.6461697 ], [ 14.4086941, 40.6463084 ], [ 14.408855, 40.6463725 ], [ 14.4088924, 40.6463837 ], [ 14.4090664, 40.646481 ], [ 14.4090867, 40.646494 ], [ 14.4091241, 40.6465175 ], [ 14.4093465, 40.6466202 ] ] } },
{ "type": "Feature", "properties": { "name": "via Alberi", "name_manual": "via Alberi", "name_original": "via Alberi", "highway": "residential", "status": "unexplored", "description": "unexplored" }, "geometry": { "type": "LineString", "coordinates": [ [ 14.4223586, 40.6457017 ], [ 14.4223358, 40.6455656 ], [ 14.4223306, 40.6455305 ], [ 14.4224057, 40.6453972 ], [ 14.4224823, 40.645294 ], [ 14.4226437, 40.6449795 ], [ 14.4227342, 40.6448071 ], [ 14.422785, 40.6446253 ], [ 14.4227878, 40.6444552 ], [ 14.4227425, 40.6440956 ], [ 14.4226982, 40.6438892 ], [ 14.422632, 40.6434016 ], [ 14.4226583, 40.643084 ], [ 14.4227733, 40.6426956 ], [ 14.4228695, 40.6423573 ], [ 14.4230039, 40.6419004 ], [ 14.4231068, 40.6414646 ], [ 14.4231108, 40.6412818 ], [ 14.4230709, 40.6410262 ], [ 14.4231389, 40.6408146 ], [ 14.4233414, 40.6404602 ], [ 14.4235549, 40.6402527 ], [ 14.4237533, 40.6400691 ], [ 14.4239494, 40.6398972 ], [ 14.4241629, 40.6397091 ], [ 14.424253, 40.6395738 ], [ 14.4242998, 40.639461 ], [ 14.4243302, 40.6393451 ], [ 14.4243011, 40.639277 ], [ 14.4242443, 40.6392495 ], [ 14.4241823, 40.6392928 ], [ 14.42413, 40.6394108 ], [ 14.4240392, 40.6396081 ], [ 14.4239587, 40.6396989 ], [ 14.4238454, 40.6397933 ], [ 14.4236988, 40.6398838 ], [ 14.4232444, 40.640171 ], [ 14.4228798, 40.6405185 ], [ 14.4226775, 40.6407926 ], [ 14.4224508, 40.6412223 ], [ 14.4223217, 40.6415122 ], [ 14.4220464, 40.6420163 ], [ 14.4220289, 40.6420484 ], [ 14.4219713, 40.6420662 ] ] } },
{ "type": "Feature", "properties": { "name": "Via Piazza Seiano", "name_manual": "Via Piazza Seiano", "name_original": "Via Piazza Seiano", "highway": "residential", "status": "unexplored", "description": "unexplored" }, "geometry": { "type": "LineString", "coordinates": [ [ 14.4219315, 40.6382183 ], [ 14.4219046, 40.6381959 ], [ 14.4218764, 40.6381849 ], [ 14.4217703, 40.638161 ], [ 14.4217048, 40.6381323 ], [ 14.4216704, 40.6381142 ], [ 14.4215988, 40.6380635 ] ] } },
{ "type": "Feature", "properties": { "name": "Via dei Cafiero", "name_manual": "Via dei Cafiero", "name_original": "Via dei Cafiero", "highway": "unclassified", "status": "unexplored", "description": "unexplored" }, "geometry": { "type": "LineString", "coordinates": [ [ 14.4095014, 40.6485222 ], [ 14.4094592, 40.6485144 ], [ 14.4093437, 40.6484535 ], [ 14.4093224, 40.6484279 ], [ 14.4093057, 40.6483505 ], [ 14.4091715, 40.6482702 ], [ 14.4091219, 40.6482387 ], [ 14.4089076, 40.648056 ], [ 14.4086334, 40.6478839 ], [ 14.4085825, 40.6478436 ] ] } },
{ "type": "Feature", "properties": { "name": "Via Cafiero", "name_manual": "Via Cafiero", "name_original": "Via Cafiero", "highway": "unclassified", "status": "unexplored", "description": "unexplored" }, "geometry": { "type": "LineString", "coordinates": [ [ 14.4085692, 40.6480545 ], [ 14.4084894, 40.6479458 ], [ 14.4083813, 40.6477565 ], [ 14.4083449, 40.6476297 ] ] } },
{ "type": "Feature", "properties": { "name": "Via Angelo Cosenza", "name_manual": "Via Angelo Cosenza", "name_original": "Via Angelo Cosenza", "highway": "unclassified", "status": "unexplored", "description": "unexplored" }, "geometry": { "type": "LineString", "coordinates": [ [ 14.4091859, 40.6487853 ], [ 14.4090924, 40.6486894 ], [ 14.4088536, 40.6485307 ], [ 14.4088249, 40.6484143 ], [ 14.408792, 40.6482926 ], [ 14.4087296, 40.6482117 ], [ 14.4085692, 40.6480545 ] ] } },
{ "type": "Feature", "properties": { "name": "via Alberi", "name_manual": "via Alberi", "name_original": "via Alberi", "highway": "residential", "status": "unexplored", "description": "unexplored" }, "geometry": { "type": "LineString", "coordinates": [ [ 14.4179679, 40.6527541 ], [ 14.4181202, 40.6526652 ], [ 14.4185272, 40.6525814 ], [ 14.4186397, 40.6525445 ], [ 14.4191269, 40.6522737 ], [ 14.4194194, 40.6520559 ], [ 14.4195443, 40.6520013 ], [ 14.4196723, 40.6519453 ], [ 14.4199577, 40.6519275 ], [ 14.4207872, 40.651924 ], [ 14.4211912, 40.6518269 ], [ 14.4214195, 40.6517857 ], [ 14.4215209, 40.651729 ], [ 14.4215553, 40.6517097 ], [ 14.4215973, 40.6516862 ], [ 14.421747, 40.6514989 ], [ 14.4218307, 40.6513983 ], [ 14.4219227, 40.6512607 ], [ 14.4219831, 40.6508842 ], [ 14.4220071, 40.650719 ], [ 14.4220143, 40.6502581 ], [ 14.4219924, 40.6499298 ], [ 14.4220394, 40.6497365 ], [ 14.4221898, 40.6492379 ], [ 14.42222, 40.6490141 ], [ 14.4222033, 40.6486397 ], [ 14.4221755, 40.6481778 ], [ 14.4221735, 40.6480184 ], [ 14.4221765, 40.6477711 ], [ 14.4221829, 40.6476689 ], [ 14.42222, 40.6474518 ], [ 14.4222861, 40.6470804 ], [ 14.4224867, 40.6463354 ], [ 14.4225196, 40.6461277 ], [ 14.4225242, 40.6460642 ], [ 14.4224878, 40.6459464 ], [ 14.4223936, 40.645768 ], [ 14.4223586, 40.6457017 ], [ 14.422317, 40.6456765 ], [ 14.422258, 40.645533 ], [ 14.4222392, 40.6454567 ], [ 14.4222306, 40.6454221 ] ] } },
{ "type": "Feature", "properties": { "name": "Corso Italia", "name_manual": "Corso Italia", "name_original": "Corso Italia", "highway": "primary", "status": "unexplored", "description": "unexplored" }, "geometry": { "type": "LineString", "coordinates": [ [ 14.4185219, 40.641154 ], [ 14.418654, 40.6409038 ], [ 14.4187711, 40.6407249 ], [ 14.4189356, 40.6404864 ], [ 14.4190091, 40.6403156 ], [ 14.4189973, 40.6401801 ], [ 14.4189872, 40.6401656 ], [ 14.4189916, 40.6401574 ], [ 14.4189469, 40.6399789 ], [ 14.4189038, 40.6397203 ], [ 14.4188009, 40.6391151 ], [ 14.4187508, 40.6387906 ], [ 14.4187269, 40.6385695 ], [ 14.4187231, 40.6385238 ], [ 14.4187182, 40.6384642 ], [ 14.4187375, 40.6383231 ], [ 14.418793, 40.6381892 ], [ 14.419034, 40.6378689 ], [ 14.4193394, 40.6375188 ], [ 14.4194539, 40.63736 ] ] } },
{ "type": "Feature", "properties": { "name": "Corso Italia", "name_manual": "Corso Italia", "name_original": "Corso Italia", "highway": "primary", "status": "unexplored", "description": "unexplored" }, "geometry": { "type": "LineString", "coordinates": [ [ 14.4153904, 40.6444334 ], [ 14.41574, 40.644089 ], [ 14.415912, 40.6439017 ], [ 14.416076, 40.6437497 ], [ 14.4163505, 40.6435905 ], [ 14.4168302, 40.6433524 ], [ 14.4169881, 40.6432572 ], [ 14.4171449, 40.643136 ], [ 14.4173736, 40.6428759 ], [ 14.4176049, 40.6425983 ], [ 14.4176258, 40.6425637 ], [ 14.4176353, 40.6424891 ], [ 14.4176136, 40.6423812 ], [ 14.4175961, 40.6422501 ], [ 14.4175933, 40.6421812 ], [ 14.4175936, 40.6421454 ], [ 14.4175992, 40.6421079 ], [ 14.4176055, 40.6420761 ], [ 14.4176266, 40.6420102 ], [ 14.4177355, 40.6418303 ], [ 14.417802, 40.6417424 ], [ 14.4180969, 40.6415561 ], [ 14.4181571, 40.6415139 ], [ 14.41826, 40.6414422 ], [ 14.4183294, 40.6413753 ] ] } },
{ "type": "Feature", "properties": { "name": "Corso Italia", "name_manual": "Corso Italia", "name_original": "Corso Italia", "highway": "primary", "status": "unexplored", "description": "unexplored" }, "geometry": { "type": "LineString", "coordinates": [ [ 14.41829, 40.6358609 ], [ 14.4181545, 40.6356207 ] ] } },
{ "type": "Feature", "properties": { "name": "Corso Italia", "name_manual": "Corso Italia", "name_original": "Corso Italia", "highway": "primary", "status": "unexplored", "description": "unexplored" }, "geometry": { "type": "LineString", "coordinates": [ [ 14.4196074, 40.636987 ], [ 14.4195959, 40.636935 ], [ 14.4195799, 40.636903 ], [ 14.4195631, 40.63687 ], [ 14.4195013, 40.6367976 ], [ 14.4191706, 40.6364881 ], [ 14.4190389, 40.6363703 ], [ 14.4189953, 40.6363321 ], [ 14.4188274, 40.6362023 ], [ 14.4186657, 40.6360885 ], [ 14.4183431, 40.6359016 ], [ 14.41829, 40.6358609 ] ] } },
{ "type": "Feature", "properties": { "name": "vicoletto del Mulino", "name_manual": "vicoletto del Mulino", "name_original": "vicoletto del Mulino", "highway": "service", "status": "unexplored", "description": "unexplored" }, "geometry": { "type": "LineString", "coordinates": [ [ 14.4195799, 40.636903 ], [ 14.4194518, 40.6368782 ], [ 14.418737, 40.636684 ] ] } },
{ "type": "Feature", "properties": { "name": "Via Flavio Gioia", "name_manual": "Via Flavio Gioia", "name_original": "Via Flavio Gioia", "highway": "residential", "status": "unexplored", "description": "unexplored" }, "geometry": { "type": "LineString", "coordinates": [ [ 14.418145, 40.6412356 ], [ 14.4181837, 40.6412307 ], [ 14.4182337, 40.6412253 ], [ 14.41831, 40.6412094 ], [ 14.4184147, 40.6411913 ], [ 14.4185219, 40.641154 ] ] } },
{ "type": "Feature", "properties": { "name": "Via Tommaso Astarita", "name_manual": "Via Tommaso Astarita", "name_original": "Via Tommaso Astarita", "highway": "primary", "status": "unexplored", "description": "unexplored" }, "geometry": { "type": "LineString", "coordinates": [ [ 14.4213926, 40.6381041 ], [ 14.4212396, 40.6381431 ], [ 14.4210586, 40.6382152 ], [ 14.4208124, 40.6383869 ], [ 14.4206545, 40.638579 ], [ 14.4202359, 40.6392714 ], [ 14.4201572, 40.6394108 ], [ 14.420142, 40.6394282 ], [ 14.4198346, 40.6397796 ], [ 14.41962, 40.6399941 ], [ 14.4194034, 40.6402343 ], [ 14.4193778, 40.6402641 ], [ 14.4192767, 40.6403804 ], [ 14.4187047, 40.6410111 ], [ 14.4186274, 40.6410998 ], [ 14.4185791, 40.6411338 ], [ 14.4185219, 40.641154 ] ] } },
{ "type": "Feature", "properties": { "name": "Via Ponte Vecchio", "name_manual": "Via Ponte Vecchio", "name_original": "Via Ponte Vecchio", "highway": "residential", "status": "unexplored", "description": "unexplored" }, "geometry": { "type": "LineString", "coordinates": [ [ 14.4203926, 40.6361507 ], [ 14.420326, 40.6362031 ], [ 14.4198124, 40.6368852 ], [ 14.4197287, 40.6369519 ], [ 14.4196723, 40.6369762 ], [ 14.4196074, 40.636987 ] ] } },
{ "type": "Feature", "properties": { "name": "Via Meta Amalfi", "name_manual": "Via Meta Amalfi", "name_original": "Via Meta Amalfi", "highway": "primary", "status": "unexplored", "description": "unexplored" }, "geometry": { "type": "LineString", "coordinates": [ [ 14.4238026, 40.6289777 ], [ 14.4238495, 40.6291147 ], [ 14.4238938, 40.629256 ], [ 14.4239207, 40.6293215 ], [ 14.4239635, 40.6294068 ], [ 14.4240765, 40.6295596 ], [ 14.4241726, 40.6296716 ], [ 14.4242101, 40.6297441 ], [ 14.4242147, 40.6297547 ], [ 14.424307, 40.6298456 ], [ 14.4243453, 40.6299154 ], [ 14.4243948, 40.6300218 ], [ 14.4244372, 40.6301238 ], [ 14.4244797, 40.6301796 ], [ 14.4245108, 40.6302033 ], [ 14.424559, 40.6302204 ], [ 14.4249113, 40.6302173 ], [ 14.4249674, 40.6302168 ], [ 14.4252973, 40.6301967 ], [ 14.4256318, 40.6301697 ], [ 14.4257949, 40.6301472 ], [ 14.4259166, 40.6300966 ], [ 14.4259992, 40.6300841 ], [ 14.4260935, 40.6300847 ], [ 14.4262754, 40.6300977 ], [ 14.4264675, 40.6301472 ], [ 14.4266837, 40.6302149 ], [ 14.4269343, 40.6303347 ], [ 14.426996, 40.6303816 ], [ 14.4270281, 40.6304636 ], [ 14.4270475, 40.6305795 ], [ 14.4270428, 40.6306862 ], [ 14.4270368, 40.6308217 ], [ 14.4270269, 40.6310744 ], [ 14.4269789, 40.6312359 ], [ 14.4268828, 40.6314026 ] ] } },
{ "type": "Feature", "properties": { "name": "Via Casa Starita", "name_manual": "Via Casa Starita", "name_original": "Via Casa Starita", "highway": "steps", "status": "unexplored", "description": "unexplored" }, "geometry": { "type": "LineString", "coordinates": [ [ 14.4251404, 40.6348577 ], [ 14.4251821, 40.6348731 ] ] } },
{ "type": "Feature", "properties": { "name": "Via Casa Starita", "name_manual": "Via Casa Starita", "name_original": "Via Casa Starita", "highway": "service", "status": "unexplored", "description": "unexplored" }, "geometry": { "type": "LineString", "coordinates": [ [ 14.4216056, 40.6348206 ], [ 14.4218727, 40.6347405 ], [ 14.4220043, 40.6346877 ], [ 14.4221011, 40.6346403 ], [ 14.4222023, 40.6345938 ], [ 14.4223136, 40.6345623 ], [ 14.4223957, 40.6345426 ], [ 14.4224844, 40.634535 ], [ 14.4226527, 40.6345336 ], [ 14.4227537, 40.6345417 ], [ 14.4228575, 40.6345654 ], [ 14.4229402, 40.6346002 ], [ 14.4230368, 40.6346201 ], [ 14.4230923, 40.6346252 ], [ 14.4231546, 40.6346192 ], [ 14.4232734, 40.6345999 ], [ 14.4234233, 40.6345673 ], [ 14.4235906, 40.6345559 ], [ 14.4240104, 40.634503 ], [ 14.4244584, 40.6345065 ], [ 14.4245544, 40.6345125 ], [ 14.4246505, 40.6345321 ], [ 14.4247398, 40.6345647 ], [ 14.4248286, 40.6346123 ], [ 14.4249412, 40.6346991 ], [ 14.425043, 40.6347983 ], [ 14.4251404, 40.6348577 ], [ 14.4250948, 40.6349207 ], [ 14.4249752, 40.6350589 ], [ 14.4249541, 40.6350867 ], [ 14.4249953, 40.6351112 ] ] } },
{ "type": "Feature", "properties": { "name": "Via Trarivi", "name_manual": "Via Trarivi", "name_original": "Via Trarivi", "highway": "service", "status": "unexplored", "description": "unexplored" }, "geometry": { "type": "LineString", "coordinates": [ [ 14.4277585, 40.6330325 ], [ 14.4278046, 40.6330159 ], [ 14.4279017, 40.6330049 ], [ 14.4279866, 40.6329938 ], [ 14.4280667, 40.632992 ], [ 14.4281274, 40.6329883 ], [ 14.4281735, 40.6329846 ], [ 14.4282317, 40.6330049 ], [ 14.4282609, 40.6330362 ], [ 14.4282803, 40.6330509 ] ] } },
{ "type": "Feature", "properties": { "name": "Via Trarivi", "name_manual": "Via Trarivi", "name_original": "Via Trarivi", "highway": "service", "status": "unexplored", "description": "unexplored" }, "geometry": { "type": "LineString", "coordinates": [ [ 14.4269019, 40.6335684 ], [ 14.4269772, 40.6335647 ], [ 14.427033, 40.6335555 ], [ 14.427147, 40.6335334 ], [ 14.4272684, 40.6335095 ], [ 14.4273484, 40.6335021 ], [ 14.4274237, 40.6334818 ], [ 14.4274552, 40.6334745 ], [ 14.4275086, 40.6334726 ], [ 14.4275668, 40.6334689 ], [ 14.4276032, 40.6334487 ], [ 14.4276542, 40.6334247 ], [ 14.4276979, 40.6333953 ] ] } },
{ "type": "Feature", "properties": { "name": "Via Trarivi", "name_manual": "Via Trarivi", "name_original": "Via Trarivi", "highway": "service", "status": "unexplored", "description": "unexplored" }, "geometry": { "type": "LineString", "coordinates": [ [ 14.4276979, 40.6333953 ], [ 14.4277027, 40.63334 ], [ 14.4277003, 40.6332811 ], [ 14.4276809, 40.633213 ], [ 14.4276469, 40.6331006 ] ] } },
{ "type": "Feature", "properties": { "name": "Via Trarivi", "name_manual": "Via Trarivi", "name_original": "Via Trarivi", "highway": "service", "status": "unexplored", "description": "unexplored" }, "geometry": { "type": "LineString", "coordinates": [ [ 14.42634, 40.6336104 ], [ 14.4264894, 40.6336052 ], [ 14.4265986, 40.6336052 ], [ 14.4267321, 40.633596 ], [ 14.4269019, 40.6335684 ], [ 14.4269019, 40.6334008 ], [ 14.4269019, 40.6333474 ], [ 14.4269408, 40.6333087 ], [ 14.4269941, 40.6332756 ], [ 14.4270524, 40.6332498 ], [ 14.4271252, 40.6332295 ], [ 14.4272465, 40.6331909 ], [ 14.4274091, 40.6331448 ], [ 14.4275596, 40.6331098 ], [ 14.4275984, 40.6331025 ], [ 14.4276469, 40.6331006 ], [ 14.4276785, 40.6330785 ], [ 14.4277221, 40.6330509 ], [ 14.4277585, 40.6330325 ], [ 14.4277658, 40.6330049 ], [ 14.4277731, 40.632957 ], [ 14.4277634, 40.632887 ], [ 14.4277513, 40.6328354 ], [ 14.4277391, 40.6328078 ], [ 14.427727, 40.6326347 ], [ 14.4277318, 40.6324984 ], [ 14.4277343, 40.6324598 ], [ 14.4277367, 40.6324358 ], [ 14.4277513, 40.6324119 ], [ 14.4277974, 40.6323916 ], [ 14.4278933, 40.632381 ], [ 14.4279815, 40.6323692 ] ] } },
{ "type": "Feature", "properties": { "name": "Via Casa Lauro", "name_manual": "Via Casa Lauro", "name_original": "Via Casa Lauro", "highway": "service", "status": "unexplored", "description": "unexplored" }, "geometry": { "type": "LineString", "coordinates": [ [ 14.4214576, 40.6366281 ], [ 14.4211548, 40.6364865 ], [ 14.4209043, 40.6363849 ], [ 14.4206613, 40.6362626 ], [ 14.420515, 40.6362005 ], [ 14.4203926, 40.6361507 ] ] } },
{ "type": "Feature", "properties": { "name": "Via Tommaso Astarita", "name_manual": "Via Tommaso Astarita", "name_original": "Via Tommaso Astarita", "highway": "unclassified", "status": "unexplored", "description": "unexplored" }, "geometry": { "type": "LineString", "coordinates": [ [ 14.4213445, 40.6380073 ], [ 14.4213707, 40.638004 ], [ 14.4213966, 40.6380086 ], [ 14.4214183, 40.6380204 ], [ 14.4214323, 40.6380375 ], [ 14.4214367, 40.6380574 ], [ 14.4214307, 40.6380771 ], [ 14.4214152, 40.6380935 ], [ 14.4213926, 40.6381041 ], [ 14.4213664, 40.6381074 ], [ 14.4213405, 40.6381029 ], [ 14.4213188, 40.6380911 ], [ 14.4213048, 40.638074 ], [ 14.4213004, 40.6380541 ], [ 14.4213064, 40.6380344 ], [ 14.4213219, 40.638018 ], [ 14.4213445, 40.6380073 ] ] } },
{ "type": "Feature", "properties": { "name": "Via Flavio Gioia", "name_manual": "Via Flavio Gioia", "name_original": "Via Flavio Gioia", "highway": "residential", "status": "unexplored", "description": "unexplored" }, "geometry": { "type": "LineString", "coordinates": [ [ 14.4169114, 40.6413597 ], [ 14.4168937, 40.6413935 ], [ 14.4168794, 40.6414103 ], [ 14.41686, 40.6414397 ], [ 14.4168466, 40.641453 ], [ 14.4168035, 40.6414685 ] ] } },
{ "type": "Feature", "properties": { "name": "Via Flavio Gioia", "name_manual": "Via Flavio Gioia", "name_original": "Via Flavio Gioia", "highway": "residential", "status": "unexplored", "description": "unexplored" }, "geometry": { "type": "LineString", "coordinates": [ [ 14.418145, 40.6412356 ], [ 14.4181829, 40.6412404 ], [ 14.4182552, 40.6412526 ], [ 14.4182974, 40.641271 ], [ 14.4183351, 40.6412848 ], [ 14.4183732, 40.641333 ] ] } },
{ "type": "Feature", "properties": { "name": "Via Casa Lauro", "name_manual": "Via Casa Lauro", "name_original": "Via Casa Lauro", "highway": "steps", "status": "unexplored", "description": "unexplored" }, "geometry": { "type": "LineString", "coordinates": [ [ 14.4227011, 40.6369112 ], [ 14.4228386, 40.636933 ] ] } },
{ "type": "Feature", "properties": { "name": "Via Casa Lauro", "name_manual": "Via Casa Lauro", "name_original": "Via Casa Lauro", "highway": "service", "status": "unexplored", "description": "unexplored" }, "geometry": { "type": "LineString", "coordinates": [ [ 14.4223233, 40.6368463 ], [ 14.4223811, 40.6368571 ], [ 14.4227011, 40.6369112 ] ] } },
{ "type": "Feature", "properties": { "name": "Via Casa Lauro", "name_manual": "Via Casa Lauro", "name_original": "Via Casa Lauro", "highway": "service", "status": "unexplored", "description": "unexplored" }, "geometry": { "type": "LineString", "coordinates": [ [ 14.4221069, 40.6370753 ], [ 14.4221934, 40.6372427 ], [ 14.4222432, 40.6373033 ], [ 14.4222632, 40.6373376 ], [ 14.4222773, 40.6373612 ], [ 14.4223055, 40.6375447 ], [ 14.4222936, 40.6376415 ], [ 14.4221246, 40.6378519 ], [ 14.4221549, 40.6378645 ] ] } },
{ "type": "Feature", "properties": { "name": "Rampa Privata", "name_manual": "Rampa Privata", "name_original": "Rampa Privata", "highway": "steps", "status": "unexplored", "description": "unexplored" }, "geometry": { "type": "LineString", "coordinates": [ [ 14.4194034, 40.6402343 ], [ 14.4189872, 40.6401656 ] ] } },
{ "type": "Feature", "properties": { "name": "Via Casa Iaccarino", "name_manual": "Via Casa Iaccarino", "name_original": "Via Casa Iaccarino", "highway": "service", "status": "unexplored", "description": "unexplored" }, "geometry": { "type": "LineString", "coordinates": [ [ 14.4187231, 40.6385238 ], [ 14.4188385, 40.6385549 ], [ 14.4189404, 40.6385965 ], [ 14.419037, 40.6386814 ], [ 14.4190786, 40.6387149 ], [ 14.419176, 40.6387813 ], [ 14.4192885, 40.638875 ], [ 14.4194444, 40.6389378 ], [ 14.4196857, 40.6389872 ], [ 14.4198838, 40.6390639 ], [ 14.4200358, 40.639136 ], [ 14.4201076, 40.6391661 ], [ 14.4201396, 40.639184 ], [ 14.4201666, 40.6392181 ], [ 14.4201898, 40.639247 ], [ 14.4202359, 40.6392714 ] ] } },
{ "type": "Feature", "properties": { "name": "Via Caruso", "name_manual": "Via Caruso", "name_original": "Via Caruso", "highway": "unclassified", "status": "unexplored", "description": "unexplored" }, "geometry": { "type": "LineString", "coordinates": [ [ 14.4074496, 40.6450104 ], [ 14.4074032, 40.6449847 ], [ 14.407351, 40.6450403 ] ] } },
{ "type": "Feature", "properties": { "name": "Via Caruso", "name_manual": "Via Caruso", "name_original": "Via Caruso", "highway": "unclassified", "status": "unexplored", "description": "unexplored" }, "geometry": { "type": "LineString", "coordinates": [ [ 14.4078185, 40.6460408 ], [ 14.4077445, 40.645895 ], [ 14.4076784, 40.6455665 ], [ 14.4074496, 40.6450104 ] ] } },
{ "type": "Feature", "properties": { "name": "Vico Ruggiero", "name_manual": "Vico Ruggiero", "name_original": "Vico Ruggiero", "highway": "steps", "status": "unexplored", "description": "unexplored" }, "geometry": { "type": "LineString", "coordinates": [ [ 14.4108238, 40.6458515 ], [ 14.4108747, 40.6458429 ], [ 14.4109283, 40.6458515 ], [ 14.411145, 40.6459286 ], [ 14.4112737, 40.645824 ], [ 14.4113542, 40.6457731 ] ] } },
{ "type": "Feature", "properties": { "name": "Via Caracciolo", "name_manual": "Via Caracciolo", "name_original": "Via Caracciolo", "highway": "unclassified", "status": "unexplored", "description": "unexplored" }, "geometry": { "type": "LineString", "coordinates": [ [ 14.4114382, 40.6425043 ], [ 14.4114725, 40.6425485 ], [ 14.4115549, 40.6426241 ], [ 14.4115908, 40.6426929 ], [ 14.4116083, 40.6428252 ], [ 14.4116124, 40.6429272 ], [ 14.4115982, 40.6431753 ], [ 14.4116133, 40.6432457 ], [ 14.4116363, 40.6432726 ] ] } },
{ "type": "Feature", "properties": { "name": "Via Caracciolo", "name_manual": "Via Caracciolo", "name_original": "Via Caracciolo", "highway": "unclassified", "status": "unexplored", "description": "unexplored" }, "geometry": { "type": "LineString", "coordinates": [ [ 14.4116363, 40.6432726 ], [ 14.4114822, 40.6434378 ], [ 14.4114427, 40.6435016 ], [ 14.4113615, 40.6436729 ], [ 14.4112991, 40.6438261 ], [ 14.4112452, 40.6439323 ], [ 14.4111011, 40.6441994 ], [ 14.4109198, 40.644499 ], [ 14.4107146, 40.6448984 ], [ 14.4107057, 40.644953 ], [ 14.4107242, 40.6450016 ], [ 14.4107842, 40.6451362 ], [ 14.4108024, 40.6451857 ], [ 14.410813, 40.6453738 ], [ 14.410821, 40.6455005 ], [ 14.4108038, 40.6455599 ], [ 14.4108151, 40.6457333 ], [ 14.4108198, 40.6458196 ], [ 14.4108238, 40.6458515 ], [ 14.4108197, 40.6459472 ], [ 14.4107404, 40.6462048 ], [ 14.4104456, 40.6464821 ], [ 14.4102411, 40.6468082 ], [ 14.4102181, 40.6469585 ], [ 14.4101615, 40.6473106 ], [ 14.4099778, 40.6477912 ], [ 14.4099123, 40.6479363 ], [ 14.4098548, 40.6479578 ], [ 14.4097864, 40.648111 ], [ 14.4097656, 40.648143 ], [ 14.4096208, 40.6483023 ], [ 14.4095202, 40.6484656 ], [ 14.4095014, 40.6485222 ] ] } },
{ "type": "Feature", "properties": { "name": "Via Lamma", "name_manual": "Via Lamma", "name_original": "Via Lamma", "highway": "unclassified", "status": "unexplored", "description": "unexplored" }, "geometry": { "type": "LineString", "coordinates": [ [ 14.4081839, 40.6460032 ], [ 14.40814, 40.6459522 ], [ 14.4081022, 40.6459304 ], [ 14.4080158, 40.6459186 ], [ 14.4078575, 40.6459007 ] ] } },
{ "type": "Feature", "properties": { "name": "V. Santa Lucia", "name_manual": "V. Santa Lucia", "name_original": "V. Santa Lucia", "highway": "unclassified", "status": "unexplored", "description": "unexplored" }, "geometry": { "type": "LineString", "coordinates": [ [ 14.4093465, 40.6466202 ], [ 14.4100484, 40.6467705 ], [ 14.4102411, 40.6468082 ] ] } },
{ "type": "Feature", "properties": { "name": "Via del Lauro", "name_manual": "Via del Lauro", "name_original": "Via del Lauro", "highway": "service", "status": "unexplored", "description": "unexplored" }, "geometry": { "type": "LineString", "coordinates": [ [ 14.4177355, 40.6418303 ], [ 14.4176198, 40.6418727 ], [ 14.4175774, 40.6419043 ], [ 14.4175134, 40.6419687 ], [ 14.4174089, 40.6421299 ], [ 14.4172759, 40.6423351 ], [ 14.4172259, 40.6424161 ], [ 14.4170153, 40.6426904 ], [ 14.4168131, 40.6429472 ], [ 14.4167193, 40.643074 ], [ 14.4166669, 40.6431107 ], [ 14.4165662, 40.6431469 ], [ 14.4164132, 40.6431676 ], [ 14.4161097, 40.6431671 ], [ 14.4159052, 40.6432058 ], [ 14.4158144, 40.6432022 ], [ 14.415583, 40.6431076 ], [ 14.4155142, 40.6430898 ], [ 14.4154489, 40.6430918 ], [ 14.4153617, 40.6431152 ], [ 14.4149454, 40.6434902 ] ] } },
{ "type": "Feature", "properties": { "name": "Via Cristoforo Colombo", "name_manual": "Via Cristoforo Colombo", "name_original": "Via Cristoforo Colombo", "highway": "residential", "status": "unexplored", "description": "unexplored" }, "geometry": { "type": "LineString", "coordinates": [ [ 14.4190389, 40.6363703 ], [ 14.4190087, 40.6363969 ], [ 14.418737, 40.636684 ], [ 14.418489, 40.6368507 ], [ 14.4182944, 40.636991 ], [ 14.4181044, 40.6371554 ], [ 14.4179939, 40.6372546 ], [ 14.4179497, 40.6373101 ], [ 14.4177322, 40.6376185 ], [ 14.4176929, 40.6376591 ], [ 14.4174917, 40.6378184 ], [ 14.4172676, 40.6380302 ], [ 14.4171269, 40.6381573 ], [ 14.4168332, 40.6384931 ], [ 14.4164964, 40.6388657 ], [ 14.4159385, 40.6393216 ], [ 14.4157269, 40.6394849 ] ] } },
{ "type": "Feature", "properties": { "name": "Via Caracciolo", "name_manual": "Via Caracciolo", "name_original": "Via Caracciolo", "highway": "unclassified", "status": "unexplored", "description": "unexplored" }, "geometry": { "type": "LineString", "coordinates": [ [ 14.4088383, 40.641437 ], [ 14.4092709, 40.6415396 ], [ 14.4097177, 40.6416344 ], [ 14.4103122, 40.6418447 ], [ 14.4108419, 40.6421192 ], [ 14.4112865, 40.6423638 ], [ 14.4114382, 40.6425043 ] ] } },
{ "type": "Feature", "properties": { "name": "Via Cassari", "name_manual": "Via Cassari", "name_original": "Via Cassari", "highway": "service", "status": "unexplored", "description": "unexplored" }, "geometry": { "type": "LineString", "coordinates": [ [ 14.417879, 40.639362 ], [ 14.4176473, 40.6391904 ], [ 14.4175225, 40.6391332 ], [ 14.4174568, 40.6390834 ], [ 14.4174517, 40.6390078 ], [ 14.4173332, 40.6389296 ], [ 14.417389, 40.6388498 ], [ 14.4172344, 40.6387565 ], [ 14.4172225, 40.6387143 ], [ 14.4171364, 40.6386708 ], [ 14.4170467, 40.6387551 ] ] } },
{ "type": "Feature", "properties": { "name": "Via Cavataccio", "name_manual": "Via Cavataccio", "name_original": "Via Cavataccio", "highway": "residential", "status": "unexplored", "description": "unexplored" }, "geometry": { "type": "LineString", "coordinates": [ [ 14.4173736, 40.6428759 ], [ 14.4174837, 40.6429301 ], [ 14.4175768, 40.6429854 ], [ 14.4176653, 40.6430715 ], [ 14.4177029, 40.6431285 ], [ 14.4177009, 40.643158 ], [ 14.4176842, 40.6431946 ], [ 14.4176245, 40.6432435 ], [ 14.4176265, 40.6432592 ], [ 14.4177894, 40.6433656 ], [ 14.4179161, 40.6433613 ], [ 14.4180748, 40.6432821 ], [ 14.4182663, 40.6431882 ] ] } },
{ "type": "Feature", "properties": { "name": "via Grottelle", "name_manual": "via Grottelle", "name_original": "via Grottelle", "highway": "footway", "status": "unexplored", "description": "unexplored" }, "geometry": { "type": "LineString", "coordinates": [ [ 14.4279449, 40.6350913 ], [ 14.4280103, 40.6350578 ], [ 14.4281695, 40.6349879 ], [ 14.428343, 40.6348778 ], [ 14.4284739, 40.6347677 ], [ 14.4285589, 40.6346871 ], [ 14.4286049, 40.6346334 ], [ 14.4287518, 40.6345328 ], [ 14.4289411, 40.6344576 ], [ 14.4291004, 40.6344293 ], [ 14.4292702, 40.6344158 ], [ 14.4294153, 40.6344239 ], [ 14.4296596, 40.6344669 ], [ 14.4298011, 40.6344964 ], [ 14.4299922, 40.6345474 ], [ 14.430155, 40.6345931 ], [ 14.4302718, 40.6346522 ], [ 14.4303851, 40.6347193 ], [ 14.4305833, 40.6347731 ], [ 14.4307036, 40.6348026 ], [ 14.430831, 40.6348187 ], [ 14.4309549, 40.6348375 ], [ 14.4310788, 40.6348402 ], [ 14.4312345, 40.6348751 ], [ 14.4313301, 40.634902 ], [ 14.4314716, 40.6348536 ], [ 14.4315955, 40.6348348 ], [ 14.4317866, 40.6348778 ], [ 14.4318468, 40.6348778 ], [ 14.4319777, 40.6348483 ], [ 14.4320379, 40.6348456 ], [ 14.4320451, 40.6348547 ], [ 14.4320382, 40.6348647 ], [ 14.4318233, 40.6349364 ], [ 14.4318208, 40.6349473 ], [ 14.4318318, 40.6349531 ], [ 14.4320737, 40.6349431 ], [ 14.4320833, 40.6349537 ], [ 14.432074, 40.6349662 ], [ 14.4318449, 40.6350003 ], [ 14.4318382, 40.6350082 ], [ 14.4318461, 40.6350183 ], [ 14.4320787, 40.6350162 ], [ 14.4320852, 40.6350283 ], [ 14.4320795, 40.6350422 ], [ 14.4318619, 40.6350624 ], [ 14.431858, 40.6350714 ], [ 14.431864, 40.6350825 ], [ 14.4320418, 40.6351097 ], [ 14.4321724, 40.635133 ], [ 14.4322573, 40.6351518 ], [ 14.4324449, 40.6352108 ], [ 14.4326254, 40.6352323 ], [ 14.432774, 40.635227 ], [ 14.4329545, 40.6352162 ], [ 14.4330253, 40.6351625 ], [ 14.4330395, 40.6350927 ], [ 14.4330218, 40.6349664 ], [ 14.4330501, 40.6348778 ], [ 14.4331032, 40.6347757 ], [ 14.4331775, 40.634671 ], [ 14.4332448, 40.6345824 ], [ 14.4332978, 40.6345072 ], [ 14.4333226, 40.6343997 ], [ 14.4333439, 40.6343084 ], [ 14.4333899, 40.6342386 ], [ 14.4334996, 40.6341419 ], [ 14.4335845, 40.6340747 ], [ 14.4337155, 40.6339888 ], [ 14.433896, 40.6340157 ], [ 14.4341649, 40.6340559 ], [ 14.4343384, 40.6340747 ], [ 14.4346215, 40.6341285 ], [ 14.4347349, 40.6342162 ] ] } },
{ "type": "Feature", "properties": { "name": "via Olivari", "name_manual": "via Olivari", "name_original": "via Olivari", "highway": "living_street", "status": "unexplored", "description": "unexplored" }, "geometry": { "type": "LineString", "coordinates": [ [ 14.4108024, 40.6451857 ], [ 14.410862, 40.6452094 ], [ 14.411159, 40.6453636 ], [ 14.4112103, 40.645402 ], [ 14.4113385, 40.6454749 ], [ 14.4114253, 40.6455286 ], [ 14.4115593, 40.6455361 ], [ 14.4117456, 40.6455762 ], [ 14.411845, 40.6456083 ], [ 14.4119049, 40.6456614 ], [ 14.4119521, 40.6457703 ], [ 14.411944, 40.6458782 ], [ 14.4119784, 40.6459634 ], [ 14.4120188, 40.646016 ], [ 14.4121006, 40.6461443 ] ] } },
{ "type": "Feature", "properties": { "name": "via Olivari", "name_manual": "via Olivari", "name_original": "via Olivari", "highway": "pedestrian", "status": "unexplored", "description": "unexplored" }, "geometry": { "type": "LineString", "coordinates": [ [ 14.4121006, 40.6461443 ], [ 14.4121669, 40.646255 ], [ 14.4123216, 40.6463833 ], [ 14.4123319, 40.6464653 ], [ 14.4123015, 40.6465543 ], [ 14.4123008, 40.6466458 ], [ 14.4123499, 40.6466493 ], [ 14.4124526, 40.6465661 ], [ 14.4124981, 40.6465485 ], [ 14.4125274, 40.6465646 ], [ 14.4125782, 40.6468515 ], [ 14.4125538, 40.6470211 ], [ 14.4124379, 40.6471923 ], [ 14.4126696, 40.6470797 ], [ 14.4128675, 40.6468823 ] ] } },
{ "type": "Feature", "properties": { "name": "via San Cristoforo", "name_manual": "via San Cristoforo", "name_original": "via San Cristoforo", "highway": "pedestrian", "status": "unexplored", "description": "unexplored" }, "geometry": { "type": "LineString", "coordinates": [ [ 14.4090306, 40.6473033 ], [ 14.4092131, 40.6473987 ], [ 14.4094679, 40.6475513 ], [ 14.4094652, 40.647582 ], [ 14.4094313, 40.6476949 ], [ 14.4095262, 40.6477243 ], [ 14.4096274, 40.647746 ], [ 14.4096457, 40.6477094 ], [ 14.4099778, 40.6477912 ] ] } },
{ "type": "Feature", "properties": { "name": "vico Langella", "name_manual": "vico Langella", "name_original": "vico Langella", "highway": "unclassified", "status": "unexplored", "description": "unexplored" }, "geometry": { "type": "LineString", "coordinates": [ [ 14.4095014, 40.6485222 ], [ 14.4096749, 40.6486049 ], [ 14.4096596, 40.6486693 ] ] } },
{ "type": "Feature", "properties": { "name": "Gradini Alimuri", "name_manual": "Gradini Alimuri", "name_original": "Gradini Alimuri", "highway": "steps", "status": "unexplored", "description": "unexplored" }, "geometry": { "type": "LineString", "coordinates": [ [ 14.4095014, 40.6485222 ], [ 14.4096006, 40.6486101 ], [ 14.4095832, 40.6486772 ], [ 14.4095194, 40.6487017 ], [ 14.4094281, 40.6486429 ], [ 14.4093928, 40.6486533 ], [ 14.4092385, 40.6487464 ], [ 14.4093888, 40.6488948 ], [ 14.4094317, 40.648925 ], [ 14.4095981, 40.6490201 ], [ 14.4095996, 40.6490393 ], [ 14.40958, 40.6490464 ], [ 14.4094047, 40.6489428 ], [ 14.4093729, 40.6489491 ], [ 14.4093806, 40.6489746 ], [ 14.4095647, 40.6490654 ], [ 14.4095672, 40.6490828 ], [ 14.4095188, 40.6491412 ], [ 14.4094802, 40.6491639 ], [ 14.4094071, 40.6491247 ], [ 14.4093354, 40.6491143 ] ] } },
{ "type": "Feature", "properties": { "name": "I traversa Alimuri", "name_manual": "I traversa Alimuri", "name_original": "I traversa Alimuri", "highway": "steps", "status": "unexplored", "description": "unexplored" }, "geometry": { "type": "LineString", "coordinates": [ [ 14.4092717, 40.6488869 ], [ 14.4091532, 40.648916 ], [ 14.4091399, 40.6490013 ], [ 14.4091518, 40.6490563 ], [ 14.4091599, 40.6490929 ], [ 14.4088506, 40.6490973 ], [ 14.4087975, 40.6488959 ], [ 14.4087261, 40.6488963 ] ] } },
{ "type": "Feature", "properties": { "name": "II traversa Alimuri", "name_manual": "II traversa Alimuri", "name_original": "II traversa Alimuri", "highway": "steps", "status": "unexplored", "description": "unexplored" }, "geometry": { "type": "LineString", "coordinates": [ [ 14.4094656, 40.649973 ], [ 14.4091557, 40.6499909 ] ] } },
{ "type": "Feature", "properties": { "name": "via dei Naviganti Metesi", "name_manual": "via dei Naviganti Metesi", "name_original": "via dei Naviganti Metesi", "highway": "pedestrian", "status": "unexplored", "description": "unexplored" }, "geometry": { "type": "LineString", "coordinates": [ [ 14.4087261, 40.6488963 ], [ 14.4085838, 40.6488835 ], [ 14.4082957, 40.6481472 ], [ 14.4080632, 40.6477512 ], [ 14.4080095, 40.6476183 ], [ 14.4080422, 40.6474748 ], [ 14.4080165, 40.647264 ], [ 14.4078881, 40.6467395 ], [ 14.4077947, 40.6464596 ], [ 14.4077548, 40.6464681 ] ] } },
{ "type": "Feature", "properties": { "name": "I vico Scarpati", "name_manual": "I vico Scarpati", "name_original": "I vico Scarpati", "highway": "living_street", "status": "unexplored", "description": "unexplored" }, "geometry": { "type": "LineString", "coordinates": [ [ 14.4132883, 40.6445373 ], [ 14.4132168, 40.6446184 ], [ 14.4130913, 40.6447454 ], [ 14.4132241, 40.644819 ], [ 14.4132511, 40.6448385 ], [ 14.4132527, 40.6448618 ], [ 14.4131435, 40.6450085 ], [ 14.4133743, 40.6451344 ] ] } },
{ "type": "Feature", "properties": { "name": "II vico Scarpati", "name_manual": "II vico Scarpati", "name_original": "II vico Scarpati", "highway": "living_street", "status": "unexplored", "description": "unexplored" }, "geometry": { "type": "LineString", "coordinates": [ [ 14.4132168, 40.6446184 ], [ 14.4134738, 40.6447607 ], [ 14.4135689, 40.6448046 ] ] } },
{ "type": "Feature", "properties": { "name": "vico Casa Miccio", "name_manual": "vico Casa Miccio", "name_original": "vico Casa Miccio", "highway": "service", "status": "unexplored", "description": "unexplored" }, "geometry": { "type": "LineString", "coordinates": [ [ 14.4149877, 40.642581 ], [ 14.4149129, 40.6425494 ], [ 14.414835, 40.6425193 ], [ 14.4147373, 40.6424792 ], [ 14.4146994, 40.6424642 ], [ 14.4146569, 40.6425482 ], [ 14.4146103, 40.6426408 ], [ 14.4143113, 40.6425858 ], [ 14.4141457, 40.6425648 ] ] } },
{ "type": "Feature", "properties": { "name": "Vico San Cataldo", "name_manual": "Vico San Cataldo", "name_original": "Vico San Cataldo", "highway": "service", "status": "unexplored", "description": "unexplored" }, "geometry": { "type": "LineString", "coordinates": [ [ 14.4196857, 40.6389872 ], [ 14.4197188, 40.6389321 ], [ 14.4197496, 40.6388762 ], [ 14.4198455, 40.6387241 ], [ 14.4199245, 40.6385939 ], [ 14.4199171, 40.6385542 ], [ 14.4198775, 40.6385068 ], [ 14.4198574, 40.6384951 ], [ 14.4198093, 40.6385032 ], [ 14.4197126, 40.6384361 ], [ 14.4196913, 40.6384086 ], [ 14.4196846, 40.6383485 ], [ 14.4198066, 40.6380758 ], [ 14.4199622, 40.6378407 ], [ 14.4199783, 40.6377654 ], [ 14.4199541, 40.6377104 ], [ 14.419989, 40.637627 ], [ 14.4200584, 40.6375645 ] ] } },
{ "type": "Feature", "properties": { "name": "via Casa Lauro", "name_manual": "via Casa Lauro", "name_original": "via Casa Lauro", "highway": "service", "status": "unexplored", "description": "unexplored" }, "geometry": { "type": "LineString", "coordinates": [ [ 14.4233438, 40.6362419 ], [ 14.4235668, 40.6362868 ], [ 14.4236554, 40.6363013 ], [ 14.4237881, 40.6363 ], [ 14.4238874, 40.6362868 ], [ 14.4240164, 40.6362109 ], [ 14.4241558, 40.6361515 ], [ 14.4242667, 40.6361182 ], [ 14.4243835, 40.6361158 ], [ 14.4245137, 40.636006 ], [ 14.4245473, 40.6358796 ], [ 14.4245961, 40.6358155 ], [ 14.4246179, 40.6357664 ], [ 14.424605, 40.6357418 ], [ 14.4247417, 40.6355336 ], [ 14.4248262, 40.6354176 ], [ 14.4248832, 40.6352646 ] ] } },
{ "type": "Feature", "properties": { "name": "Via Gradelle", "name_manual": "Via Gradelle", "name_original": "Via Gradelle", "highway": "steps", "status": "unexplored", "description": "unexplored" }, "geometry": { "type": "LineString", "coordinates": [ [ 14.4153904, 40.6444334 ], [ 14.4152708, 40.6443623 ], [ 14.4151166, 40.6442789 ], [ 14.4150422, 40.6442712 ], [ 14.4148064, 40.6441651 ] ] } },
{ "type": "Feature", "properties": { "name": "Via Caracciolo", "name_manual": "Via Caracciolo", "name_original": "Via Caracciolo", "highway": "unclassified", "status": "unexplored", "description": "unexplored" }, "geometry": { "type": "LineString", "coordinates": [ [ 14.4084264, 40.6413049 ], [ 14.4087611, 40.6414143 ] ] } },
{ "type": "Feature", "properties": { "name": "Via Caracciolo", "name_manual": "Via Caracciolo", "name_original": "Via Caracciolo", "highway": "unclassified", "status": "unexplored", "description": "unexplored" }, "geometry": { "type": "LineString", "coordinates": [ [ 14.4087611, 40.6414143 ], [ 14.4088383, 40.641437 ] ] } },
{ "type": "Feature", "properties": { "name": "Via Caruso", "name_manual": "Via Caruso", "name_original": "Via Caruso", "highway": "unclassified", "status": "unexplored", "description": "unexplored" }, "geometry": { "type": "LineString", "coordinates": [ [ 14.4081549, 40.647353 ], [ 14.4080912, 40.6471471 ], [ 14.4078185, 40.6460408 ] ] } },
{ "type": "Feature", "properties": { "name": "Via Angelo Cosenza", "name_manual": "Via Angelo Cosenza", "name_original": "Via Angelo Cosenza", "highway": "unclassified", "status": "unexplored", "description": "unexplored" }, "geometry": { "type": "LineString", "coordinates": [ [ 14.4114382, 40.6425043 ], [ 14.4110838, 40.6426665 ] ] } },
{ "type": "Feature", "properties": { "name": "Corso Italia", "name_manual": "Corso Italia", "name_original": "Corso Italia", "highway": "primary", "status": "unexplored", "description": "unexplored" }, "geometry": { "type": "LineString", "coordinates": [ [ 14.4194539, 40.63736 ], [ 14.419485, 40.6373168 ], [ 14.4195212, 40.6372581 ], [ 14.4195839, 40.6371323 ], [ 14.4196127, 40.6370536 ], [ 14.4196074, 40.636987 ] ] } },
{ "type": "Feature", "properties": { "name": "Via Flavio Gioia", "name_manual": "Via Flavio Gioia", "name_original": "Via Flavio Gioia", "highway": "residential", "status": "unexplored", "description": "unexplored" }, "geometry": { "type": "LineString", "coordinates": [ [ 14.4183294, 40.6413753 ], [ 14.4182818, 40.6413468 ], [ 14.4182449, 40.641326 ], [ 14.4181773, 40.641314 ], [ 14.4181454, 40.6413119 ], [ 14.4180524, 40.6413182 ], [ 14.4180107, 40.6413275 ], [ 14.4179715, 40.6413401 ], [ 14.4179197, 40.6413642 ], [ 14.4178615, 40.6413922 ], [ 14.4177811, 40.64144 ], [ 14.4177428, 40.6414695 ], [ 14.4177003, 40.6415093 ], [ 14.4176548, 40.6415619 ], [ 14.4176151, 40.6416183 ], [ 14.4175772, 40.6416609 ], [ 14.4175274, 40.6416927 ], [ 14.4174993, 40.641703 ], [ 14.4174193, 40.6417211 ], [ 14.4173675, 40.6417252 ], [ 14.4173201, 40.6417254 ], [ 14.4172726, 40.64172 ], [ 14.4172332, 40.641711 ], [ 14.4172186, 40.6417076 ], [ 14.4171971, 40.6417012 ], [ 14.4171251, 40.6416741 ], [ 14.4170599, 40.6416382 ], [ 14.4170134, 40.6416078 ], [ 14.4169347, 40.6415562 ], [ 14.4168549, 40.641504 ] ] } },
{ "type": "Feature", "properties": { "name": "Via Guglielmo Marconi", "name_manual": "Via Guglielmo Marconi", "name_original": "Via Guglielmo Marconi", "highway": "residential", "status": "unexplored", "description": "unexplored" }, "geometry": { "type": "LineString", "coordinates": [ [ 14.4145554, 40.6413509 ], [ 14.4143763, 40.6414178 ], [ 14.4141463, 40.641533 ], [ 14.4139318, 40.6417773 ], [ 14.4136237, 40.6425857 ], [ 14.4131808, 40.6437474 ] ] } },
{ "type": "Feature", "properties": { "name": "Corso Italia", "name_manual": "Corso Italia", "name_original": "Corso Italia", "highway": "primary", "status": "unexplored", "description": "unexplored" }, "geometry": { "type": "LineString", "coordinates": [ [ 14.4183294, 40.6413753 ], [ 14.4183732, 40.641333 ], [ 14.4185219, 40.641154 ] ] } },
{ "type": "Feature", "properties": { "name": "Via Cristoforo Colombo", "name_manual": "Via Cristoforo Colombo", "name_original": "Via Cristoforo Colombo", "highway": "residential", "status": "unexplored", "description": "unexplored" }, "geometry": { "type": "LineString", "coordinates": [ [ 14.4147036, 40.6400345 ], [ 14.41501, 40.6398594 ], [ 14.4157269, 40.6394849 ] ] } },
{ "type": "Feature", "properties": { "name": "Via Flavio Gioia", "name_manual": "Via Flavio Gioia", "name_original": "Via Flavio Gioia", "highway": "residential", "status": "unexplored", "description": "unexplored" }, "geometry": { "type": "LineString", "coordinates": [ [ 14.4169114, 40.6413597 ], [ 14.4169323, 40.6414128 ], [ 14.4169573, 40.6414689 ], [ 14.4169844, 40.6414965 ], [ 14.4170156, 40.6415257 ], [ 14.4170705, 40.6415635 ], [ 14.4171128, 40.6415916 ], [ 14.4171388, 40.6416052 ], [ 14.4171688, 40.6416184 ], [ 14.4172306, 40.641644 ], [ 14.4172476, 40.641649 ], [ 14.4172901, 40.6416581 ], [ 14.4173264, 40.6416623 ], [ 14.4173629, 40.6416621 ], [ 14.4174035, 40.6416601 ], [ 14.4174364, 40.6416554 ], [ 14.417467, 40.6416474 ], [ 14.4174828, 40.6416398 ], [ 14.4175171, 40.6416136 ], [ 14.4175461, 40.6415832 ], [ 14.417629, 40.641476 ], [ 14.4176748, 40.6414303 ], [ 14.4177261, 40.6413923 ], [ 14.4177653, 40.6413642 ], [ 14.4178052, 40.6413336 ], [ 14.4178597, 40.641296 ], [ 14.4178883, 40.6412808 ], [ 14.4179242, 40.6412656 ], [ 14.4179754, 40.6412509 ], [ 14.4180309, 40.6412407 ], [ 14.4180886, 40.6412381 ], [ 14.418145, 40.6412356 ] ] } },
{ "type": "Feature", "properties": { "name": "via Casini", "name_manual": "via Casini", "name_original": "via Casini", "highway": "service", "status": "unexplored", "description": "unexplored" }, "geometry": { "type": "LineString", "coordinates": [ [ 14.4221755, 40.6481778 ], [ 14.4217745, 40.6487951 ], [ 14.4216202, 40.6492005 ], [ 14.4215697, 40.6492706 ], [ 14.4215444, 40.6493173 ] ] } },
{ "type": "Feature", "properties": { "name": "via Alberi", "name_manual": "via Alberi", "name_original": "via Alberi", "highway": "service", "status": "unexplored", "description": "unexplored" }, "geometry": { "type": "LineString", "coordinates": [ [ 14.4222306, 40.6454221 ], [ 14.422249, 40.6452049 ], [ 14.4222352, 40.6451189 ], [ 14.4221598, 40.6448875 ], [ 14.4221587, 40.6447627 ], [ 14.4221896, 40.644662 ], [ 14.4221976, 40.6445785 ], [ 14.4221755, 40.644528 ], [ 14.4221292, 40.6444839 ], [ 14.4218919, 40.6442163 ], [ 14.4217913, 40.6441684 ], [ 14.42175, 40.6441556 ], [ 14.4217685, 40.6439155 ], [ 14.421807, 40.6437291 ], [ 14.4217886, 40.6436261 ], [ 14.4216652, 40.6434368 ], [ 14.4216204, 40.6433845 ], [ 14.4215495, 40.6433018 ], [ 14.4215121, 40.6432581 ], [ 14.4214597, 40.6431892 ], [ 14.4214681, 40.6431135 ], [ 14.4215135, 40.6430241 ], [ 14.421587, 40.6429347 ], [ 14.4217084, 40.6428188 ], [ 14.4218676, 40.6427537 ], [ 14.4219409, 40.6426729 ], [ 14.4219398, 40.6424612 ], [ 14.4219433, 40.6422272 ], [ 14.4219419, 40.6421901 ], [ 14.4219504, 40.6421297 ], [ 14.4219713, 40.6420662 ], [ 14.4219375, 40.6420528 ], [ 14.4219257, 40.6420117 ], [ 14.4219267, 40.6419124 ], [ 14.4219911, 40.6416417 ], [ 14.4219992, 40.641428 ], [ 14.4219804, 40.6411797 ], [ 14.4219972, 40.6408793 ], [ 14.4219791, 40.6404387 ], [ 14.4220634, 40.6400573 ], [ 14.4221011, 40.6397591 ], [ 14.4221005, 40.6397306 ], [ 14.422093, 40.6393683 ], [ 14.4220982, 40.6391243 ], [ 14.4221976, 40.6389144 ], [ 14.4221902, 40.6388517 ], [ 14.4221663, 40.6387971 ], [ 14.4219713, 40.6383511 ], [ 14.4219315, 40.6382183 ] ] } },
{ "type": "Feature", "properties": { "name": "via Gennaro Iaccarino", "name_manual": "via Gennaro Iaccarino", "name_original": "via Gennaro Iaccarino", "highway": "tertiary", "status": "unexplored", "description": "unexplored" }, "geometry": { "type": "LineString", "coordinates": [ [ 14.4228861, 40.6459007 ], [ 14.4228417, 40.6456031 ], [ 14.4228174, 40.6454398 ], [ 14.4224823, 40.645294 ] ] } },
{ "type": "Feature", "properties": { "name": "Via Geremia Porzio", "name_manual": "Via Geremia Porzio", "name_original": "Via Geremia Porzio", "highway": "steps", "status": "unexplored", "description": "unexplored" }, "geometry": { "type": "LineString", "coordinates": [ [ 14.4223936, 40.645768 ], [ 14.4221788, 40.6458258 ] ] } },
{ "type": "Feature", "properties": { "name": "via Grottelle", "name_manual": "via Grottelle", "name_original": "via Grottelle", "highway": "service", "status": "unexplored", "description": "unexplored" }, "geometry": { "type": "LineString", "coordinates": [ [ 14.4251821, 40.6348731 ], [ 14.4252426, 40.6348966 ], [ 14.4253523, 40.6348617 ], [ 14.4254975, 40.6348321 ], [ 14.425726, 40.6348124 ], [ 14.4258975, 40.6348924 ], [ 14.4260456, 40.634968 ], [ 14.4261212, 40.635009 ], [ 14.4262459, 40.6350548 ], [ 14.4263115, 40.6349852 ], [ 14.4263929, 40.6348939 ], [ 14.426492, 40.6348402 ], [ 14.4266229, 40.6348187 ], [ 14.4266886, 40.6348278 ], [ 14.4268017, 40.6348803 ], [ 14.4268848, 40.6349047 ], [ 14.4270759, 40.6349047 ], [ 14.4272033, 40.6348939 ], [ 14.4272926, 40.6349232 ], [ 14.427314, 40.6349434 ], [ 14.4273722, 40.634998 ], [ 14.4274711, 40.6350242 ], [ 14.427732, 40.6350754 ], [ 14.4278688, 40.6350825 ], [ 14.4279449, 40.6350913 ] ] } },
{ "type": "Feature", "properties": { "name": "II traversa Alimuri", "name_manual": "II traversa Alimuri", "name_original": "II traversa Alimuri", "highway": "steps", "status": "unexplored", "description": "unexplored" }, "geometry": { "type": "LineString", "coordinates": [ [ 14.4090924, 40.6499971 ], [ 14.4090198, 40.650004 ] ] } },
{ "type": "Feature", "properties": { "name": "II traversa Alimuri", "name_manual": "II traversa Alimuri", "name_original": "II traversa Alimuri", "highway": "steps", "status": "unexplored", "description": "unexplored" }, "geometry": { "type": "LineString", "coordinates": [ [ 14.4091557, 40.6499909 ], [ 14.4090924, 40.6499971 ] ] } },
{ "type": "Feature", "properties": { "name": "Via Flavio Gioia", "name_manual": "Via Flavio Gioia", "name_original": "Via Flavio Gioia", "highway": "residential", "status": "unexplored", "description": "unexplored" }, "geometry": { "type": "LineString", "coordinates": [ [ 14.4157269, 40.6394849 ], [ 14.4157722, 40.6395693 ], [ 14.4157959, 40.6396239 ], [ 14.4158276, 40.6396865 ], [ 14.4158538, 40.6397278 ], [ 14.415953, 40.6398788 ], [ 14.4160373, 40.6399874 ], [ 14.4161048, 40.6400679 ], [ 14.4161531, 40.6401113 ], [ 14.4161905, 40.640148 ], [ 14.4163038, 40.6402202 ], [ 14.4163936, 40.6403011 ], [ 14.4164467, 40.6403789 ], [ 14.4165342, 40.640572 ], [ 14.4165501, 40.6405974 ], [ 14.4165709, 40.6406205 ], [ 14.4166579, 40.6407606 ], [ 14.4167641, 40.6409138 ], [ 14.416813, 40.6409945 ], [ 14.4168345, 40.6410298 ], [ 14.4168594, 40.6410886 ], [ 14.4168739, 40.6411374 ], [ 14.4168893, 40.6412189 ], [ 14.4168953, 40.6412506 ], [ 14.4169091, 40.6413201 ], [ 14.4169114, 40.6413597 ] ] } },
{ "type": "Feature", "properties": { "name": "Via Casa Iaccarino", "name_manual": "Via Casa Iaccarino", "name_original": "Via Casa Iaccarino", "highway": "path", "status": "unexplored", "description": "unexplored" }, "geometry": { "type": "LineString", "coordinates": [ [ 14.4215982, 40.6396212 ], [ 14.421808, 40.6397174 ], [ 14.4218671, 40.6397606 ], [ 14.4219086, 40.6397906 ], [ 14.4219355, 40.6397998 ], [ 14.4219529, 40.6398013 ], [ 14.4220025, 40.6397738 ], [ 14.4220374, 40.6397494 ], [ 14.4220796, 40.6397311 ], [ 14.4221005, 40.6397306 ] ] } },
{ "type": "Feature", "properties": { "name": "Via Casa Iaccarino", "name_manual": "Via Casa Iaccarino", "name_original": "Via Casa Iaccarino", "highway": "service", "status": "unexplored", "description": "unexplored" }, "geometry": { "type": "LineString", "coordinates": [ [ 14.420142, 40.6394282 ], [ 14.4201585, 40.6394731 ], [ 14.4201779, 40.6395815 ], [ 14.4201853, 40.639641 ], [ 14.4204576, 40.6397413 ], [ 14.4206259, 40.6397886 ], [ 14.4207311, 40.6398145 ], [ 14.4208156, 40.6398609 ], [ 14.4208259, 40.6398667 ], [ 14.4208371, 40.639867 ], [ 14.420846, 40.6398612 ], [ 14.4209008, 40.6397917 ], [ 14.4209336, 40.6397866 ], [ 14.4209638, 40.6397688 ], [ 14.4210155, 40.6397769 ], [ 14.4210698, 40.6397672 ], [ 14.4210932, 40.6397469 ], [ 14.4211938, 40.6395174 ], [ 14.42134, 40.6395525 ], [ 14.4214238, 40.6395927 ], [ 14.4215546, 40.6396171 ], [ 14.4215982, 40.6396212 ] ] } },
{ "type": "Feature", "properties": { "name": "Via Casa Starita", "name_manual": "Via Casa Starita", "name_original": "Via Casa Starita", "highway": "residential", "status": "unexplored", "description": "unexplored" }, "geometry": { "type": "LineString", "coordinates": [ [ 14.4212881, 40.6349165 ], [ 14.4214678, 40.6348566 ], [ 14.4216056, 40.6348206 ] ] } },
{ "type": "Feature", "properties": { "name": "vico Casa Miccio", "name_manual": "vico Casa Miccio", "name_original": "vico Casa Miccio", "highway": "service", "status": "unexplored", "description": "unexplored" }, "geometry": { "type": "LineString", "coordinates": [ [ 14.4141457, 40.6425648 ], [ 14.4141286, 40.6426041 ], [ 14.4140924, 40.6426873 ], [ 14.4139414, 40.6426568 ], [ 14.413784, 40.642617 ], [ 14.4136237, 40.6425857 ] ] } },
{ "type": "Feature", "properties": { "name": "Via Casa Lauro", "name_manual": "Via Casa Lauro", "name_original": "Via Casa Lauro", "highway": "service", "status": "unexplored", "description": "unexplored" }, "geometry": { "type": "LineString", "coordinates": [ [ 14.4220836, 40.6370046 ], [ 14.4221809, 40.6368722 ], [ 14.4222169, 40.6368564 ], [ 14.4222558, 40.6368387 ], [ 14.4223233, 40.6368463 ] ] } },
{ "type": "Feature", "properties": { "name": "Via Trarivi", "name_manual": "Via Trarivi", "name_original": "Via Trarivi", "highway": "service", "status": "unexplored", "description": "unexplored" }, "geometry": { "type": "LineString", "coordinates": [ [ 14.4280716, 40.6310822 ], [ 14.428057, 40.6310583 ], [ 14.4280085, 40.6310288 ], [ 14.4279381, 40.6310104 ], [ 14.4279017, 40.6309938 ], [ 14.4278313, 40.6309791 ], [ 14.4277464, 40.6309736 ], [ 14.4276954, 40.6309773 ], [ 14.4276663, 40.6310104 ], [ 14.4276421, 40.6310307 ], [ 14.4276348, 40.6310859 ], [ 14.4276008, 40.6310841 ], [ 14.4275523, 40.6310951 ], [ 14.4275013, 40.6311099 ], [ 14.4274576, 40.6311136 ], [ 14.4273509, 40.6311172 ], [ 14.4272926, 40.6311043 ], [ 14.427232, 40.6310712 ], [ 14.4272077, 40.6310436 ], [ 14.4271543, 40.6309552 ], [ 14.4270985, 40.6308502 ], [ 14.4270428, 40.6306862 ] ] } },
{ "type": "Feature", "properties": { "name": "Via Trarivi", "name_manual": "Via Trarivi", "name_original": "Via Trarivi", "highway": "service", "status": "unexplored", "description": "unexplored" }, "geometry": { "type": "LineString", "coordinates": [ [ 14.4279815, 40.6323692 ], [ 14.4279886, 40.632332 ], [ 14.4279946, 40.6322979 ], [ 14.4280087, 40.6321955 ], [ 14.4280279, 40.6320841 ], [ 14.42804, 40.6319699 ], [ 14.4280522, 40.6318539 ], [ 14.4280667, 40.6317673 ], [ 14.428057, 40.6316679 ], [ 14.4280449, 40.6315426 ], [ 14.4280303, 40.6313972 ], [ 14.42804, 40.6312682 ], [ 14.428057, 40.6311467 ], [ 14.4280716, 40.6310822 ] ] } },
{ "type": "Feature", "properties": { "name": "Via Casa Lauro", "name_manual": "Via Casa Lauro", "name_original": "Via Casa Lauro", "highway": "residential", "status": "unexplored", "description": "unexplored" }, "geometry": { "type": "LineString", "coordinates": [ [ 14.4221069, 40.6370753 ], [ 14.422095, 40.637013 ], [ 14.4220836, 40.6370046 ], [ 14.4219466, 40.636903 ], [ 14.4218029, 40.6368009 ], [ 14.4216312, 40.6367121 ], [ 14.4215654, 40.636678 ], [ 14.4214949, 40.6366481 ], [ 14.4214576, 40.6366281 ] ] } }
]
}
