{
"type": "FeatureCollection",
"name": "strade_explored",
"crs": { "type": "name", "properties": { "name": "urn:ogc:def:crs:OGC:1.3:CRS84" } },
"features": [
{ "type": "Feature", "properties": { "name": "Via Casa Iaccarino", "name_manual": "Via Casa Iaccarino", "name_original": "Via Casa Iaccarino", "highway": "service", "status": "explored", "description": "explored" }, "geometry": { "type": "LineString", "coordinates": [ [ 14.4187231, 40.6385238 ], [ 14.4188385, 40.6385549 ], [ 14.4189404, 40.6385965 ], [ 14.419037, 40.6386814 ], [ 14.4190786, 40.6387149 ], [ 14.419176, 40.6387813 ], [ 14.4192885, 40.638875 ], [ 14.4194444, 40.6389378 ], [ 14.4196857, 40.6389872 ], [ 14.4198838, 40.6390639 ], [ 14.4200358, 40.639136 ], [ 14.4201076, 40.6391661 ], [ 14.4201396, 40.639184 ], [ 14.4201666, 40.6392181 ], [ 14.4201898, 40.639247 ], [ 14.4202359, 40.6392714 ] ] } },
{ "type": "Feature", "properties": { "name": "Via Casa Iaccarino", "name_manual": "Via Casa Iaccarino", "name_original": "Via Casa Iaccarino", "highway": "path", "status": "explored", "description": "explored" }, "geometry": { "type": "LineString", "coordinates": [ [ 14.4215982, 40.6396212 ], [ 14.421808, 40.6397174 ], [ 14.4218671, 40.6397606 ], [ 14.4219086, 40.6397906 ], [ 14.4219355, 40.6397998 ], [ 14.4219529, 40.6398013 ], [ 14.4220025, 40.6397738 ], [ 14.4220374, 40.6397494 ], [ 14.4220796, 40.6397311 ], [ 14.4221005, 40.6397306 ] ] } },
{ "type": "Feature", "properties": { "name": "Via Casa Iaccarino", "name_manual": "Via Casa Iaccarino", "name_original": "Via Casa Iaccarino", "highway": "service", "status": "explored", "description": "explored" }, "geometry": { "type": "LineString", "coordinates": [ [ 14.420142, 40.6394282 ], [ 14.4201585, 40.6394731 ], [ 14.4201779, 40.6395815 ], [ 14.4201853, 40.639641 ], [ 14.4204576, 40.6397413 ], [ 14.4206259, 40.6397886 ], [ 14.4207311, 40.6398145 ], [ 14.4208156, 40.6398609 ], [ 14.4208259, 40.6398667 ], [ 14.4208371, 40.639867 ], [ 14.420846, 40.6398612 ], [ 14.4209008, 40.6397917 ], [ 14.4209336, 40.6397866 ], [ 14.4209638, 40.6397688 ], [ 14.4210155, 40.6397769 ], [ 14.4210698, 40.6397672 ], [ 14.4210932, 40.6397469 ], [ 14.4211938, 40.6395174 ], [ 14.42134, 40.6395525 ], [ 14.4214238, 40.6395927 ], [ 14.4215546, 40.6396171 ], [ 14.4215982, 40.6396212 ] ] } }
]
}
