{
"type": "FeatureCollection",
"name": "strade_explored",
"crs": { "type": "name", "properties": { "name": "urn:ogc:def:crs:OGC:1.3:CRS84" } },
"features": [
{ "type": "Feature", "properties": { "name": "Via Tommaso Astarita", "name_manual": "Via Tommaso Astarita", "name_original": "Via Tommaso Astarita", "highway": "primary", "status": "explored", "description": "explored" }, "geometry": { "type": "LineString", "coordinates": [ [ 14.4268828, 40.6314026 ], [ 14.4267284, 40.6316005 ], [ 14.4266632, 40.6317047 ], [ 14.4265877, 40.6318401 ], [ 14.4265053, 40.6320198 ], [ 14.426471, 40.6323115 ], [ 14.4264401, 40.6326136 ], [ 14.4264264, 40.6328167 ], [ 14.4264504, 40.6329444 ], [ 14.4264813, 40.6330772 ], [ 14.4265259, 40.6331735 ], [ 14.4265568, 40.6332699 ], [ 14.4265602, 40.6333324 ], [ 14.426543, 40.6334236 ], [ 14.4264435, 40.6335173 ], [ 14.4263737, 40.633578 ], [ 14.42634, 40.6336104 ], [ 14.426304, 40.63366 ], [ 14.4262988, 40.6336937 ], [ 14.4263063, 40.6337491 ], [ 14.4263612, 40.6338246 ], [ 14.4264435, 40.6338689 ], [ 14.4265877, 40.6338689 ], [ 14.4266975, 40.6339028 ], [ 14.4267455, 40.6339965 ], [ 14.4267421, 40.634145 ], [ 14.4266666, 40.6341996 ], [ 14.4265739, 40.6342257 ], [ 14.4260788, 40.6343663 ], [ 14.4258292, 40.6344627 ], [ 14.4256542, 40.6345851 ], [ 14.4253419, 40.634783 ], [ 14.4251821, 40.6348731 ], [ 14.4251292, 40.6349419 ], [ 14.4250331, 40.6350617 ], [ 14.4249953, 40.6351112 ], [ 14.4248832, 40.6352646 ], [ 14.4248508, 40.6353089 ], [ 14.424813, 40.6353573 ], [ 14.4247055, 40.6354361 ], [ 14.4245069, 40.6354833 ], [ 14.4241828, 40.6355557 ], [ 14.4239513, 40.6356393 ], [ 14.4237563, 40.6357715 ], [ 14.4235865, 40.6359648 ], [ 14.4233438, 40.6362419 ], [ 14.4231178, 40.6365787 ], [ 14.4228386, 40.636933 ], [ 14.422745, 40.6370652 ], [ 14.4223517, 40.6376144 ], [ 14.4221809, 40.6378359 ], [ 14.4221549, 40.6378645 ], [ 14.4220886, 40.6379374 ], [ 14.4219654, 40.6379887 ], [ 14.4218293, 40.6380137 ], [ 14.4215988, 40.6380635 ], [ 14.4214992, 40.6380804 ], [ 14.4213926, 40.6381041 ] ] } },
{ "type": "Feature", "properties": { "name": "Via Cristoforo Colombo", "name_manual": "Via Cristoforo Colombo", "name_original": "Via Cristoforo Colombo", "highway": "residential", "status": "explored", "description": "explored" }, "geometry": { "type": "LineString", "coordinates": [ [ 14.4114382, 40.6425043 ], [ 14.411678, 40.6423866 ], [ 14.4118135, 40.6423307 ], [ 14.4118953, 40.6422838 ], [ 14.4119631, 40.6421914 ], [ 14.4121501, 40.6418442 ], [ 14.4122037, 40.641776 ], [ 14.4123037, 40.6417203 ], [ 14.4128242, 40.6415678 ], [ 14.4131705, 40.6414739 ], [ 14.4134597, 40.6414191 ], [ 14.4136038, 40.6413649 ], [ 14.4137977, 40.6412613 ], [ 14.4138955, 40.6412237 ], [ 14.4140136, 40.6412176 ], [ 14.4142429, 40.6413041 ], [ 14.4144727, 40.6413464 ], [ 14.4145554, 40.6413509 ] ] } },
{ "type": "Feature", "properties": { "name": "Via Casa Miccio", "name_manual": "Via Casa Miccio", "name_original": "Via Casa Miccio", "highway": "residential", "status": "explored", "description": "explored" }, "geometry": { "type": "LineString", "coordinates": [ [ 14.4168131, 40.6429472 ], [ 14.4165972, 40.6428364 ], [ 14.4165295, 40.6427942 ], [ 14.4164973, 40.6427662 ], [ 14.4164933, 40.642695 ], [ 14.4163618, 40.6426268 ], [ 14.41627, 40.6426665 ], [ 14.4162056, 40.6426716 ], [ 14.4159736, 40.6425734 ], [ 14.4159187, 40.6426141 ], [ 14.4157201, 40.6425108 ], [ 14.4156001, 40.6424314 ], [ 14.4155002, 40.6423943 ], [ 14.4152678, 40.6422961 ] ] } },
{ "type": "Feature", "properties": { "name": "Via Vocale", "name_manual": "Via Vocale", "name_original": "Via Vocale", "highway": "unclassified", "status": "explored", "description": "explored" }, "geometry": { "type": "LineString", "coordinates": [ [ 14.4112991, 40.6438261 ], [ 14.4117638, 40.6439456 ], [ 14.4119756, 40.6440378 ], [ 14.4122959, 40.6441878 ], [ 14.4126771, 40.6443292 ], [ 14.4129397, 40.6444177 ], [ 14.4132883, 40.6445373 ], [ 14.4137123, 40.6441442 ], [ 14.4138275, 40.644027 ] ] } },
{ "type": "Feature", "properties": { "name": "Via Rivolo", "name_manual": "Via Rivolo", "name_original": "Via Rivolo", "highway": "unclassified", "status": "explored", "description": "explored" }, "geometry": { "type": "LineString", "coordinates": [ [ 14.4094375, 40.6423144 ], [ 14.4099588, 40.6425764 ], [ 14.4100976, 40.6426304 ], [ 14.4101382, 40.6427588 ], [ 14.4097532, 40.6431259 ], [ 14.4093109, 40.6429146 ], [ 14.4089923, 40.6428029 ], [ 14.4086059, 40.6427156 ], [ 14.4080669, 40.6426136 ], [ 14.4074607, 40.6425908 ] ] } },
{ "type": "Feature", "properties": { "name": "Via Cassari", "name_manual": "Via Cassari", "name_original": "Via Cassari", "highway": "footway", "status": "explored", "description": "explored" }, "geometry": { "type": "LineString", "coordinates": [ [ 14.4164722, 40.6402546 ], [ 14.4165033, 40.6402343 ], [ 14.4169183, 40.6398981 ], [ 14.4170798, 40.6397295 ] ] } },
{ "type": "Feature", "properties": { "name": "Via Ponte Vecchio", "name_manual": "Via Ponte Vecchio", "name_original": "Via Ponte Vecchio", "highway": "residential", "status": "explored", "description": "explored" }, "geometry": { "type": "LineString", "coordinates": [ [ 14.4203926, 40.6361507 ], [ 14.4203972, 40.6359263 ], [ 14.4203807, 40.635819 ], [ 14.4203203, 40.6357097 ], [ 14.4202664, 40.6356758 ], [ 14.4201591, 40.6355885 ], [ 14.420112, 40.6355376 ], [ 14.4200918, 40.6354283 ], [ 14.420161, 40.6353366 ], [ 14.4203086, 40.6351041 ], [ 14.4203951, 40.6349528 ] ] } },
{ "type": "Feature", "properties": { "name": "Via Casa Starita", "name_manual": "Via Casa Starita", "name_original": "Via Casa Starita", "highway": "residential", "status": "explored", "description": "explored" }, "geometry": { "type": "LineString", "coordinates": [ [ 14.4203951, 40.6349528 ], [ 14.4204278, 40.6349307 ], [ 14.4204541, 40.6349156 ], [ 14.4204966, 40.6349062 ], [ 14.420538, 40.6349011 ], [ 14.420588, 40.6349194 ], [ 14.4206313, 40.6349497 ], [ 14.4208481, 40.6350498 ], [ 14.4209604, 40.6350432 ], [ 14.4211533, 40.634978 ], [ 14.4212881, 40.6349165 ] ] } },
{ "type": "Feature", "properties": { "name": "Via Gradelle", "name_manual": "Via Gradelle", "name_original": "Via Gradelle", "highway": "service", "status": "explored", "description": "explored" }, "geometry": { "type": "LineString", "coordinates": [ [ 14.4149454, 40.6434902 ], [ 14.4152105, 40.6436093 ], [ 14.4152468, 40.643635 ], [ 14.4152632, 40.6436587 ], [ 14.4150078, 40.6440139 ], [ 14.4148812, 40.6441079 ], [ 14.4148377, 40.6441496 ], [ 14.4148064, 40.6441651 ], [ 14.4147556, 40.6441828 ], [ 14.4146881, 40.6442102 ], [ 14.4146211, 40.6443206 ], [ 14.4145699, 40.6443604 ], [ 14.4145374, 40.6443792 ], [ 14.4142851, 40.6443408 ], [ 14.4141126, 40.6443049 ], [ 14.4138385, 40.644214 ], [ 14.4137693, 40.6441812 ], [ 14.4137123, 40.6441442 ] ] } },
{ "type": "Feature", "properties": { "name": "Via Cristoforo Colombo", "name_manual": "Via Cristoforo Colombo", "name_original": "Via Cristoforo Colombo", "highway": "residential", "status": "explored", "description": "explored" }, "geometry": { "type": "LineString", "coordinates": [ [ 14.4128242, 40.6415678 ], [ 14.4124666, 40.6413322 ], [ 14.4124565, 40.6413069 ], [ 14.4124748, 40.641277 ], [ 14.4126946, 40.641083 ], [ 14.4130397, 40.6407765 ], [ 14.4132236, 40.640586 ], [ 14.4134972, 40.6403615 ], [ 14.4138047, 40.6401572 ], [ 14.4139592, 40.6400583 ], [ 14.4140021, 40.6400573 ], [ 14.4141832, 40.6401254 ], [ 14.4143495, 40.6401682 ], [ 14.4144117, 40.6401656 ], [ 14.4147036, 40.6400345 ] ] } },
{ "type": "Feature", "properties": { "name": "via Olmo", "name_manual": "via Olmo", "name_original": "via Olmo", "highway": "unclassified", "status": "explored", "description": "explored" }, "geometry": { "type": "LineString", "coordinates": [ [ 14.4093369, 40.6456334 ], [ 14.4094315, 40.6457173 ], [ 14.4094047, 40.6458476 ], [ 14.4092466, 40.6461171 ], [ 14.4090867, 40.646494 ] ] } },
{ "type": "Feature", "properties": { "name": "Via Lamma", "name_manual": "Via Lamma", "name_original": "Via Lamma", "highway": "unclassified", "status": "explored", "description": "explored" }, "geometry": { "type": "LineString", "coordinates": [ [ 14.4093465, 40.6466202 ], [ 14.4090681, 40.6472588 ], [ 14.4090306, 40.6473033 ], [ 14.4086862, 40.6477049 ], [ 14.4085825, 40.6478436 ], [ 14.4084366, 40.6476678 ], [ 14.4083829, 40.6475162 ], [ 14.4082861, 40.6471418 ], [ 14.4080422, 40.6463193 ], [ 14.4080364, 40.64624 ], [ 14.4080399, 40.6461768 ], [ 14.4081839, 40.6460032 ] ] } },
{ "type": "Feature", "properties": { "name": "Via Cassari", "name_manual": "Via Cassari", "name_original": "Via Cassari", "highway": "service", "status": "explored", "description": "explored" }, "geometry": { "type": "LineString", "coordinates": [ [ 14.4170798, 40.6397295 ], [ 14.4170753, 40.6396962 ], [ 14.417066, 40.6396654 ], [ 14.4172846, 40.6395407 ], [ 14.4173907, 40.6396247 ], [ 14.4174674, 40.6396702 ], [ 14.4175409, 40.6396717 ], [ 14.417879, 40.639362 ], [ 14.4179435, 40.6392377 ], [ 14.4180585, 40.6391047 ], [ 14.4183193, 40.6387455 ], [ 14.4184799, 40.6385628 ], [ 14.4185939, 40.6384574 ], [ 14.418677, 40.6383779 ], [ 14.4187375, 40.6383231 ] ] } },
{ "type": "Feature", "properties": { "name": "Via Tommaso Astarita", "name_manual": "Via Tommaso Astarita", "name_original": "Via Tommaso Astarita", "highway": "primary", "status": "explored", "description": "explored" }, "geometry": { "type": "LineString", "coordinates": [ [ 14.4213926, 40.6381041 ], [ 14.4212396, 40.6381431 ], [ 14.4210586, 40.6382152 ], [ 14.4208124, 40.6383869 ], [ 14.4206545, 40.638579 ], [ 14.4202359, 40.6392714 ], [ 14.4201572, 40.6394108 ], [ 14.420142, 40.6394282 ], [ 14.4198346, 40.6397796 ], [ 14.41962, 40.6399941 ], [ 14.4194034, 40.6402343 ], [ 14.4193778, 40.6402641 ], [ 14.4192767, 40.6403804 ], [ 14.4187047, 40.6410111 ], [ 14.4186274, 40.6410998 ], [ 14.4185791, 40.6411338 ], [ 14.4185219, 40.641154 ] ] } },
{ "type": "Feature", "properties": { "name": "Via Ponte Vecchio", "name_manual": "Via Ponte Vecchio", "name_original": "Via Ponte Vecchio", "highway": "residential", "status": "explored", "description": "explored" }, "geometry": { "type": "LineString", "coordinates": [ [ 14.4203926, 40.6361507 ], [ 14.420326, 40.6362031 ], [ 14.4198124, 40.6368852 ], [ 14.4197287, 40.6369519 ], [ 14.4196723, 40.6369762 ], [ 14.4196074, 40.636987 ] ] } },
{ "type": "Feature", "properties": { "name": "Via Casa Starita", "name_manual": "Via Casa Starita", "name_original": "Via Casa Starita", "highway": "steps", "status": "explored", "description": "explored" }, "geometry": { "type": "LineString", "coordinates": [ [ 14.4251404, 40.6348577 ], [ 14.4251821, 40.6348731 ] ] } },
{ "type": "Feature", "properties": { "name": "Via Casa Starita", "name_manual": "Via Casa Starita", "name_original": "Via Casa Starita", "highway": "service", "status": "explored", "description": "explored" }, "geometry": { "type": "LineString", "coordinates": [ [ 14.4216056, 40.6348206 ], [ 14.4218727, 40.6347405 ], [ 14.4220043, 40.6346877 ], [ 14.4221011, 40.6346403 ], [ 14.4222023, 40.6345938 ], [ 14.4223136, 40.6345623 ], [ 14.4223957, 40.6345426 ], [ 14.4224844, 40.634535 ], [ 14.4226527, 40.6345336 ], [ 14.4227537, 40.6345417 ], [ 14.4228575, 40.6345654 ], [ 14.4229402, 40.6346002 ], [ 14.4230368, 40.6346201 ], [ 14.4230923, 40.6346252 ], [ 14.4231546, 40.6346192 ], [ 14.4232734, 40.6345999 ], [ 14.4234233, 40.6345673 ], [ 14.4235906, 40.6345559 ], [ 14.4240104, 40.634503 ], [ 14.4244584, 40.6345065 ], [ 14.4245544, 40.6345125 ], [ 14.4246505, 40.6345321 ], [ 14.4247398, 40.6345647 ], [ 14.4248286, 40.6346123 ], [ 14.4249412, 40.6346991 ], [ 14.425043, 40.6347983 ], [ 14.4251404, 40.6348577 ], [ 14.4250948, 40.6349207 ], [ 14.4249752, 40.6350589 ], [ 14.4249541, 40.6350867 ], [ 14.4249953, 40.6351112 ] ] } },
{ "type": "Feature", "properties": { "name": "Via Casa Lauro", "name_manual": "Via Casa Lauro", "name_original": "Via Casa Lauro", "highway": "service", "status": "explored", "description": "explored" }, "geometry": { "type": "LineString", "coordinates": [ [ 14.4214576, 40.6366281 ], [ 14.4211548, 40.6364865 ], [ 14.4209043, 40.6363849 ], [ 14.4206613, 40.6362626 ], [ 14.420515, 40.6362005 ], [ 14.4203926, 40.6361507 ] ] } },
{ "type": "Feature", "properties": { "name": "Via Tommaso Astarita", "name_manual": "Via Tommaso Astarita", "name_original": "Via Tommaso Astarita", "highway": "unclassified", "status": "explored", "description": "explored" }, "geometry": { "type": "LineString", "coordinates": [ [ 14.4213445, 40.6380073 ], [ 14.4213707, 40.638004 ], [ 14.4213966, 40.6380086 ], [ 14.4214183, 40.6380204 ], [ 14.4214323, 40.6380375 ], [ 14.4214367, 40.6380574 ], [ 14.4214307, 40.6380771 ], [ 14.4214152, 40.6380935 ], [ 14.4213926, 40.6381041 ], [ 14.4213664, 40.6381074 ], [ 14.4213405, 40.6381029 ], [ 14.4213188, 40.6380911 ], [ 14.4213048, 40.638074 ], [ 14.4213004, 40.6380541 ], [ 14.4213064, 40.6380344 ], [ 14.4213219, 40.638018 ], [ 14.4213445, 40.6380073 ] ] } },
{ "type": "Feature", "properties": { "name": "Via Casa Lauro", "name_manual": "Via Casa Lauro", "name_original": "Via Casa Lauro", "highway": "steps", "status": "explored", "description": "explored" }, "geometry": { "type": "LineString", "coordinates": [ [ 14.4227011, 40.6369112 ], [ 14.4228386, 40.636933 ] ] } },
{ "type": "Feature", "properties": { "name": "Via Casa Lauro", "name_manual": "Via Casa Lauro", "name_original": "Via Casa Lauro", "highway": "service", "status": "explored", "description": "explored" }, "geometry": { "type": "LineString", "coordinates": [ [ 14.4223233, 40.6368463 ], [ 14.4223811, 40.6368571 ], [ 14.4227011, 40.6369112 ] ] } },
{ "type": "Feature", "properties": { "name": "Via Casa Lauro", "name_manual": "Via Casa Lauro", "name_original": "Via Casa Lauro", "highway": "service", "status": "explored", "description": "explored" }, "geometry": { "type": "LineString", "coordinates": [ [ 14.4221069, 40.6370753 ], [ 14.4221934, 40.6372427 ], [ 14.4222432, 40.6373033 ], [ 14.4222632, 40.6373376 ], [ 14.4222773, 40.6373612 ], [ 14.4223055, 40.6375447 ], [ 14.4222936, 40.6376415 ], [ 14.4221246, 40.6378519 ], [ 14.4221549, 40.6378645 ] ] } },
{ "type": "Feature", "properties": { "name": "Via Casa Iaccarino", "name_manual": "Via Casa Iaccarino", "name_original": "Via Casa Iaccarino", "highway": "service", "status": "explored", "description": "explored" }, "geometry": { "type": "LineString", "coordinates": [ [ 14.4187231, 40.6385238 ], [ 14.4188385, 40.6385549 ], [ 14.4189404, 40.6385965 ], [ 14.419037, 40.6386814 ], [ 14.4190786, 40.6387149 ], [ 14.419176, 40.6387813 ], [ 14.4192885, 40.638875 ], [ 14.4194444, 40.6389378 ], [ 14.4196857, 40.6389872 ], [ 14.4198838, 40.6390639 ], [ 14.4200358, 40.639136 ], [ 14.4201076, 40.6391661 ], [ 14.4201396, 40.639184 ], [ 14.4201666, 40.6392181 ], [ 14.4201898, 40.639247 ], [ 14.4202359, 40.6392714 ] ] } },
{ "type": "Feature", "properties": { "name": "Vico Ruggiero", "name_manual": "Vico Ruggiero", "name_original": "Vico Ruggiero", "highway": "steps", "status": "explored", "description": "explored" }, "geometry": { "type": "LineString", "coordinates": [ [ 14.4108238, 40.6458515 ], [ 14.4108747, 40.6458429 ], [ 14.4109283, 40.6458515 ], [ 14.411145, 40.6459286 ], [ 14.4112737, 40.645824 ], [ 14.4113542, 40.6457731 ] ] } },
{ "type": "Feature", "properties": { "name": "Via Lamma", "name_manual": "Via Lamma", "name_original": "Via Lamma", "highway": "unclassified", "status": "explored", "description": "explored" }, "geometry": { "type": "LineString", "coordinates": [ [ 14.4081839, 40.6460032 ], [ 14.40814, 40.6459522 ], [ 14.4081022, 40.6459304 ], [ 14.4080158, 40.6459186 ], [ 14.4078575, 40.6459007 ] ] } },
{ "type": "Feature", "properties": { "name": "Via Cristoforo Colombo", "name_manual": "Via Cristoforo Colombo", "name_original": "Via Cristoforo Colombo", "highway": "residential", "status": "explored", "description": "explored" }, "geometry": { "type": "LineString", "coordinates": [ [ 14.4190389, 40.6363703 ], [ 14.4190087, 40.6363969 ], [ 14.418737, 40.636684 ], [ 14.418489, 40.6368507 ], [ 14.4182944, 40.636991 ], [ 14.4181044, 40.6371554 ], [ 14.4179939, 40.6372546 ], [ 14.4179497, 40.6373101 ], [ 14.4177322, 40.6376185 ], [ 14.4176929, 40.6376591 ], [ 14.4174917, 40.6378184 ], [ 14.4172676, 40.6380302 ], [ 14.4171269, 40.6381573 ], [ 14.4168332, 40.6384931 ], [ 14.4164964, 40.6388657 ], [ 14.4159385, 40.6393216 ], [ 14.4157269, 40.6394849 ] ] } },
{ "type": "Feature", "properties": { "name": "Via Cassari", "name_manual": "Via Cassari", "name_original": "Via Cassari", "highway": "service", "status": "explored", "description": "explored" }, "geometry": { "type": "LineString", "coordinates": [ [ 14.417879, 40.639362 ], [ 14.4176473, 40.6391904 ], [ 14.4175225, 40.6391332 ], [ 14.4174568, 40.6390834 ], [ 14.4174517, 40.6390078 ], [ 14.4173332, 40.6389296 ], [ 14.417389, 40.6388498 ], [ 14.4172344, 40.6387565 ], [ 14.4172225, 40.6387143 ], [ 14.4171364, 40.6386708 ], [ 14.4170467, 40.6387551 ] ] } },
{ "type": "Feature", "properties": { "name": "via Olivari", "name_manual": "via Olivari", "name_original": "via Olivari", "highway": "living_street", "status": "explored", "description": "explored" }, "geometry": { "type": "LineString", "coordinates": [ [ 14.4108024, 40.6451857 ], [ 14.410862, 40.6452094 ], [ 14.411159, 40.6453636 ], [ 14.4112103, 40.645402 ], [ 14.4113385, 40.6454749 ], [ 14.4114253, 40.6455286 ], [ 14.4115593, 40.6455361 ], [ 14.4117456, 40.6455762 ], [ 14.411845, 40.6456083 ], [ 14.4119049, 40.6456614 ], [ 14.4119521, 40.6457703 ], [ 14.411944, 40.6458782 ], [ 14.4119784, 40.6459634 ], [ 14.4120188, 40.646016 ], [ 14.4121006, 40.6461443 ] ] } },
{ "type": "Feature", "properties": { "name": "via Olivari", "name_manual": "via Olivari", "name_original": "via Olivari", "highway": "pedestrian", "status": "explored", "description": "explored" }, "geometry": { "type": "LineString", "coordinates": [ [ 14.4121006, 40.6461443 ], [ 14.4121669, 40.646255 ], [ 14.4123216, 40.6463833 ], [ 14.4123319, 40.6464653 ], [ 14.4123015, 40.6465543 ], [ 14.4123008, 40.6466458 ], [ 14.4123499, 40.6466493 ], [ 14.4124526, 40.6465661 ], [ 14.4124981, 40.6465485 ], [ 14.4125274, 40.6465646 ], [ 14.4125782, 40.6468515 ], [ 14.4125538, 40.6470211 ], [ 14.4124379, 40.6471923 ], [ 14.4126696, 40.6470797 ], [ 14.4128675, 40.6468823 ] ] } },
{ "type": "Feature", "properties": { "name": "vico Langella", "name_manual": "vico Langella", "name_original": "vico Langella", "highway": "unclassified", "status": "explored", "description": "explored" }, "geometry": { "type": "LineString", "coordinates": [ [ 14.4095014, 40.6485222 ], [ 14.4096749, 40.6486049 ], [ 14.4096596, 40.6486693 ] ] } },
{ "type": "Feature", "properties": { "name": "I vico Scarpati", "name_manual": "I vico Scarpati", "name_original": "I vico Scarpati", "highway": "living_street", "status": "explored", "description": "explored" }, "geometry": { "type": "LineString", "coordinates": [ [ 14.4132883, 40.6445373 ], [ 14.4132168, 40.6446184 ], [ 14.4130913, 40.6447454 ], [ 14.4132241, 40.644819 ], [ 14.4132511, 40.6448385 ], [ 14.4132527, 40.6448618 ], [ 14.4131435, 40.6450085 ], [ 14.4133743, 40.6451344 ] ] } },
{ "type": "Feature", "properties": { "name": "II vico Scarpati", "name_manual": "II vico Scarpati", "name_original": "II vico Scarpati", "highway": "living_street", "status": "explored", "description": "explored" }, "geometry": { "type": "LineString", "coordinates": [ [ 14.4132168, 40.6446184 ], [ 14.4134738, 40.6447607 ], [ 14.4135689, 40.6448046 ] ] } },
{ "type": "Feature", "properties": { "name": "vico Casa Miccio", "name_manual": "vico Casa Miccio", "name_original": "vico Casa Miccio", "highway": "service", "status": "explored", "description": "explored" }, "geometry": { "type": "LineString", "coordinates": [ [ 14.4149877, 40.642581 ], [ 14.4149129, 40.6425494 ], [ 14.414835, 40.6425193 ], [ 14.4147373, 40.6424792 ], [ 14.4146994, 40.6424642 ], [ 14.4146569, 40.6425482 ], [ 14.4146103, 40.6426408 ], [ 14.4143113, 40.6425858 ], [ 14.4141457, 40.6425648 ] ] } },
{ "type": "Feature", "properties": { "name": "via Casa Lauro", "name_manual": "via Casa Lauro", "name_original": "via Casa Lauro", "highway": "service", "status": "explored", "description": "explored" }, "geometry": { "type": "LineString", "coordinates": [ [ 14.4233438, 40.6362419 ], [ 14.4235668, 40.6362868 ], [ 14.4236554, 40.6363013 ], [ 14.4237881, 40.6363 ], [ 14.4238874, 40.6362868 ], [ 14.4240164, 40.6362109 ], [ 14.4241558, 40.6361515 ], [ 14.4242667, 40.6361182 ], [ 14.4243835, 40.6361158 ], [ 14.4245137, 40.636006 ], [ 14.4245473, 40.6358796 ], [ 14.4245961, 40.6358155 ], [ 14.4246179, 40.6357664 ], [ 14.424605, 40.6357418 ], [ 14.4247417, 40.6355336 ], [ 14.4248262, 40.6354176 ], [ 14.4248832, 40.6352646 ] ] } },
{ "type": "Feature", "properties": { "name": "Via Gradelle", "name_manual": "Via Gradelle", "name_original": "Via Gradelle", "highway": "steps", "status": "explored", "description": "explored" }, "geometry": { "type": "LineString", "coordinates": [ [ 14.4153904, 40.6444334 ], [ 14.4152708, 40.6443623 ], [ 14.4151166, 40.6442789 ], [ 14.4150422, 40.6442712 ], [ 14.4148064, 40.6441651 ] ] } },
{ "type": "Feature", "properties": { "name": "Via Cristoforo Colombo", "name_manual": "Via Cristoforo Colombo", "name_original": "Via Cristoforo Colombo", "highway": "residential", "status": "explored", "description": "explored" }, "geometry": { "type": "LineString", "coordinates": [ [ 14.4147036, 40.6400345 ], [ 14.41501, 40.6398594 ], [ 14.4157269, 40.6394849 ] ] } },
{ "type": "Feature", "properties": { "name": "Via Casa Iaccarino", "name_manual": "Via Casa Iaccarino", "name_original": "Via Casa Iaccarino", "highway": "path", "status": "explored", "description": "explored" }, "geometry": { "type": "LineString", "coordinates": [ [ 14.4215982, 40.6396212 ], [ 14.421808, 40.6397174 ], [ 14.4218671, 40.6397606 ], [ 14.4219086, 40.6397906 ], [ 14.4219355, 40.6397998 ], [ 14.4219529, 40.6398013 ], [ 14.4220025, 40.6397738 ], [ 14.4220374, 40.6397494 ], [ 14.4220796, 40.6397311 ], [ 14.4221005, 40.6397306 ] ] } },
{ "type": "Feature", "properties": { "name": "Via Casa Iaccarino", "name_manual": "Via Casa Iaccarino", "name_original": "Via Casa Iaccarino", "highway": "service", "status": "explored", "description": "explored" }, "geometry": { "type": "LineString", "coordinates": [ [ 14.420142, 40.6394282 ], [ 14.4201585, 40.6394731 ], [ 14.4201779, 40.6395815 ], [ 14.4201853, 40.639641 ], [ 14.4204576, 40.6397413 ], [ 14.4206259, 40.6397886 ], [ 14.4207311, 40.6398145 ], [ 14.4208156, 40.6398609 ], [ 14.4208259, 40.6398667 ], [ 14.4208371, 40.639867 ], [ 14.420846, 40.6398612 ], [ 14.4209008, 40.6397917 ], [ 14.4209336, 40.6397866 ], [ 14.4209638, 40.6397688 ], [ 14.4210155, 40.6397769 ], [ 14.4210698, 40.6397672 ], [ 14.4210932, 40.6397469 ], [ 14.4211938, 40.6395174 ], [ 14.42134, 40.6395525 ], [ 14.4214238, 40.6395927 ], [ 14.4215546, 40.6396171 ], [ 14.4215982, 40.6396212 ] ] } },
{ "type": "Feature", "properties": { "name": "Via Casa Starita", "name_manual": "Via Casa Starita", "name_original": "Via Casa Starita", "highway": "residential", "status": "explored", "description": "explored" }, "geometry": { "type": "LineString", "coordinates": [ [ 14.4212881, 40.6349165 ], [ 14.4214678, 40.6348566 ], [ 14.4216056, 40.6348206 ] ] } },
{ "type": "Feature", "properties": { "name": "vico Casa Miccio", "name_manual": "vico Casa Miccio", "name_original": "vico Casa Miccio", "highway": "service", "status": "explored", "description": "explored" }, "geometry": { "type": "LineString", "coordinates": [ [ 14.4141457, 40.6425648 ], [ 14.4141286, 40.6426041 ], [ 14.4140924, 40.6426873 ], [ 14.4139414, 40.6426568 ], [ 14.413784, 40.642617 ], [ 14.4136237, 40.6425857 ] ] } },
{ "type": "Feature", "properties": { "name": "Via Casa Lauro", "name_manual": "Via Casa Lauro", "name_original": "Via Casa Lauro", "highway": "service", "status": "explored", "description": "explored" }, "geometry": { "type": "LineString", "coordinates": [ [ 14.4220836, 40.6370046 ], [ 14.4221809, 40.6368722 ], [ 14.4222169, 40.6368564 ], [ 14.4222558, 40.6368387 ], [ 14.4223233, 40.6368463 ] ] } },
{ "type": "Feature", "properties": { "name": "Via Casa Lauro", "name_manual": "Via Casa Lauro", "name_original": "Via Casa Lauro", "highway": "residential", "status": "explored", "description": "explored" }, "geometry": { "type": "LineString", "coordinates": [ [ 14.4221069, 40.6370753 ], [ 14.422095, 40.637013 ], [ 14.4220836, 40.6370046 ], [ 14.4219466, 40.636903 ], [ 14.4218029, 40.6368009 ], [ 14.4216312, 40.6367121 ], [ 14.4215654, 40.636678 ], [ 14.4214949, 40.6366481 ], [ 14.4214576, 40.6366281 ] ] } }
]
}
