{
"type": "FeatureCollection",
"name": "strade_unnamed",
"crs": { "type": "name", "properties": { "name": "urn:ogc:def:crs:OGC:1.3:CRS84" } },
"features": [
{ "type": "Feature", "properties": { "name": "", "name_manual": "", "name_original": null, "highway": "service", "status": "unnamed", "description": "unnamed" }, "geometry": { "type": "LineString", "coordinates": [ [ 14.4152678, 40.6422961 ], [ 14.4152145, 40.6423072 ], [ 14.4149877, 40.642581 ], [ 14.4148286, 40.6427731 ], [ 14.4147446, 40.6428876 ], [ 14.4146083, 40.6429829 ], [ 14.4144554, 40.6431997 ], [ 14.4144031, 40.6433157 ], [ 14.4143874, 40.6434059 ] ] } },
{ "type": "Feature", "properties": { "name": "", "name_manual": "", "name_original": null, "highway": "unclassified", "status": "unnamed", "description": "unnamed" }, "geometry": { "type": "LineString", "coordinates": [ [ 14.4156873, 40.6406386 ], [ 14.415531, 40.640503 ], [ 14.4153597, 40.6404002 ], [ 14.4149515, 40.6401683 ], [ 14.4147036, 40.6400345 ] ] } },
{ "type": "Feature", "properties": { "name": "", "name_manual": "", "name_original": null, "highway": "service", "status": "unnamed", "description": "unnamed" }, "geometry": { "type": "LineString", "coordinates": [ [ 14.4093109, 40.6429146 ], [ 14.4092365, 40.6430776 ], [ 14.4092317, 40.6431095 ], [ 14.4091949, 40.6433145 ], [ 14.409197, 40.6434012 ], [ 14.4092804, 40.6436035 ], [ 14.4093656, 40.6436968 ] ] } },
{ "type": "Feature", "properties": { "name": "", "name_manual": "", "name_original": null, "highway": "unclassified", "status": "unnamed", "description": "unnamed" }, "geometry": { "type": "LineString", "coordinates": [ [ 14.4228861, 40.6459007 ], [ 14.423082, 40.6458533 ], [ 14.4231361, 40.6454871 ], [ 14.4231171, 40.6452067 ] ] } },
{ "type": "Feature", "properties": { "name": "", "name_manual": "", "name_original": null, "highway": "footway", "status": "unnamed", "description": "unnamed" }, "geometry": { "type": "LineString", "coordinates": [ [ 14.4101406, 40.6485579 ], [ 14.4101384, 40.6485948 ], [ 14.4101639, 40.6486355 ], [ 14.4101585, 40.6486742 ], [ 14.4100915, 40.6487586 ], [ 14.4100499, 40.6488314 ], [ 14.4099401, 40.6489702 ] ] } },
{ "type": "Feature", "properties": { "name": "", "name_manual": "", "name_original": null, "highway": "residential", "status": "unnamed", "description": "unnamed" }, "geometry": { "type": "LineString", "coordinates": [ [ 14.405878, 40.6460201 ], [ 14.4056993, 40.6462646 ] ] } },
{ "type": "Feature", "properties": { "name": "", "name_manual": "", "name_original": null, "highway": "residential", "status": "unnamed", "description": "unnamed" }, "geometry": { "type": "LineString", "coordinates": [ [ 14.4105545, 40.6474996 ], [ 14.4105166, 40.6477126 ], [ 14.4101406, 40.6485579 ] ] } },
{ "type": "Feature", "properties": { "name": "", "name_manual": "", "name_original": null, "highway": "steps", "status": "unnamed", "description": "unnamed" }, "geometry": { "type": "LineString", "coordinates": [ [ 14.4099401, 40.6489702 ], [ 14.4099554, 40.6490329 ], [ 14.4099607, 40.6491041 ], [ 14.4099574, 40.6492147 ], [ 14.4099272, 40.6492333 ], [ 14.4098487, 40.6492262 ], [ 14.4098125, 40.6492277 ], [ 14.4097725, 40.6491971 ], [ 14.4096456, 40.6490939 ], [ 14.4096097, 40.6490965 ], [ 14.4095296, 40.649171 ], [ 14.409425, 40.6491799 ], [ 14.4093368, 40.6491903 ] ] } },
{ "type": "Feature", "properties": { "name": "", "name_manual": "", "name_original": null, "highway": "residential", "status": "unnamed", "description": "unnamed" }, "geometry": { "type": "LineString", "coordinates": [ [ 14.4088383, 40.641437 ], [ 14.4089113, 40.6413171 ], [ 14.4089515, 40.641198 ], [ 14.4089824, 40.6411187 ], [ 14.4089824, 40.6410474 ], [ 14.4089676, 40.6409508 ], [ 14.4089703, 40.6408897 ], [ 14.4089851, 40.640849 ], [ 14.4090584, 40.6407648 ], [ 14.409252, 40.6405254 ], [ 14.4093869, 40.640401 ], [ 14.4095188, 40.6403554 ], [ 14.4095815, 40.6403165 ], [ 14.4096529, 40.6402689 ], [ 14.4097187, 40.6402089 ], [ 14.4098336, 40.6401027 ] ] } },
{ "type": "Feature", "properties": { "name": "", "name_manual": "", "name_original": null, "highway": "residential", "status": "unnamed", "description": "unnamed" }, "geometry": { "type": "LineString", "coordinates": [ [ 14.4073873, 40.6463348 ], [ 14.407489, 40.6463688 ], [ 14.4076248, 40.6463427 ], [ 14.407698, 40.6463222 ], [ 14.4077548, 40.6464681 ], [ 14.4074434, 40.6465256 ] ] } },
{ "type": "Feature", "properties": { "name": "", "name_manual": "", "name_original": null, "highway": "residential", "status": "unnamed", "description": "unnamed" }, "geometry": { "type": "LineString", "coordinates": [ [ 14.407351, 40.6450403 ], [ 14.4073419, 40.6450758 ], [ 14.4073401, 40.645088 ], [ 14.4073337, 40.6451325 ], [ 14.4073324, 40.6452183 ], [ 14.4073289, 40.6454407 ], [ 14.4072774, 40.6456545 ], [ 14.4072613, 40.6458207 ], [ 14.4072694, 40.6458731 ], [ 14.4072862, 40.6459826 ], [ 14.4073777, 40.6460803 ], [ 14.4073873, 40.6463348 ] ] } },
{ "type": "Feature", "properties": { "name": "", "name_manual": "", "name_original": null, "highway": "residential", "status": "unnamed", "description": "unnamed" }, "geometry": { "type": "LineString", "coordinates": [ [ 14.4102181, 40.6469585 ], [ 14.410518, 40.6472322 ], [ 14.4105188, 40.6472871 ], [ 14.4104707, 40.647414 ], [ 14.4105004, 40.6474764 ], [ 14.4105545, 40.6474996 ], [ 14.4105837, 40.6474501 ], [ 14.4106794, 40.6473159 ], [ 14.4107777, 40.6471311 ] ] } },
{ "type": "Feature", "properties": { "name": "", "name_manual": "", "name_original": null, "highway": "residential", "status": "unnamed", "description": "unnamed" }, "geometry": { "type": "LineString", "coordinates": [ [ 14.4210571, 40.6441973 ], [ 14.4211269, 40.6441769 ], [ 14.4213924, 40.6441708 ], [ 14.42175, 40.6441556 ] ] } },
{ "type": "Feature", "properties": { "name": "", "name_manual": "", "name_original": null, "highway": "service", "status": "unnamed", "description": "unnamed" }, "geometry": { "type": "LineString", "coordinates": [ [ 14.4189991, 40.642637 ], [ 14.4191271, 40.6426848 ], [ 14.4194275, 40.6425405 ], [ 14.4196176, 40.6424533 ], [ 14.419766, 40.6424003 ], [ 14.4198959, 40.6423539 ] ] } },
{ "type": "Feature", "properties": { "name": "", "name_manual": "", "name_original": null, "highway": "residential", "status": "unnamed", "description": "unnamed" }, "geometry": { "type": "LineString", "coordinates": [ [ 14.4088249, 40.6444518 ], [ 14.4092184, 40.6446197 ], [ 14.4094479, 40.6446786 ] ] } },
{ "type": "Feature", "properties": { "name": "", "name_manual": "", "name_original": null, "highway": "service", "status": "unnamed", "description": "unnamed" }, "geometry": { "type": "LineString", "coordinates": [ [ 14.4086007, 40.6446541 ], [ 14.4088743, 40.6447788 ] ] } },
{ "type": "Feature", "properties": { "name": "", "name_manual": "", "name_original": null, "highway": "unclassified", "status": "unnamed", "description": "unnamed" }, "geometry": { "type": "LineString", "coordinates": [ [ 14.4083783, 40.6448483 ], [ 14.4082347, 40.64478 ], [ 14.4078894, 40.6446294 ] ] } },
{ "type": "Feature", "properties": { "name": "", "name_manual": "", "name_original": null, "highway": "footway", "status": "unnamed", "description": "unnamed" }, "geometry": { "type": "LineString", "coordinates": [ [ 14.4071584, 40.6460733 ], [ 14.4072201, 40.646111 ], [ 14.4073777, 40.6460803 ] ] } },
{ "type": "Feature", "properties": { "name": "", "name_manual": "", "name_original": null, "highway": "pedestrian", "status": "unnamed", "description": "unnamed" }, "geometry": { "type": "LineString", "coordinates": [ [ 14.4072308, 40.6458688 ], [ 14.4072366, 40.6457608 ], [ 14.4072663, 40.6456545 ], [ 14.407271, 40.6456267 ], [ 14.4073147, 40.6454048 ], [ 14.407322, 40.6453031 ], [ 14.4073032, 40.6451891 ], [ 14.4073127, 40.6450723 ] ] } },
{ "type": "Feature", "properties": { "name": "", "name_manual": "", "name_original": null, "highway": "footway", "status": "unnamed", "description": "unnamed" }, "geometry": { "type": "LineString", "coordinates": [ [ 14.4072308, 40.6458688 ], [ 14.4072694, 40.6458731 ] ] } },
{ "type": "Feature", "properties": { "name": "", "name_manual": "", "name_original": null, "highway": "track", "status": "unnamed", "description": "unnamed" }, "geometry": { "type": "LineString", "coordinates": [ [ 14.4090842, 40.6461222 ], [ 14.4089917, 40.6460784 ], [ 14.4088829, 40.646058 ], [ 14.4088039, 40.6460601 ], [ 14.4087275, 40.646111 ], [ 14.4087047, 40.6461343 ], [ 14.4087262, 40.6461792 ], [ 14.4088938, 40.6462442 ], [ 14.4089246, 40.6463023 ], [ 14.4088924, 40.6463837 ] ] } },
{ "type": "Feature", "properties": { "name": "", "name_manual": "", "name_original": null, "highway": "unclassified", "status": "unnamed", "description": "unnamed" }, "geometry": { "type": "LineString", "coordinates": [ [ 14.4086695, 40.6445785 ], [ 14.4084143, 40.6444171 ], [ 14.4081244, 40.6442829 ], [ 14.40793, 40.6441977 ], [ 14.4078024, 40.6441264 ] ] } },
{ "type": "Feature", "properties": { "name": "", "name_manual": "", "name_original": null, "highway": "service", "status": "unnamed", "description": "unnamed" }, "geometry": { "type": "LineString", "coordinates": [ [ 14.4100735, 40.6429514 ], [ 14.4102988, 40.6429046 ], [ 14.410457, 40.6427967 ], [ 14.4105724, 40.6428354 ], [ 14.4106657, 40.6428899 ] ] } },
{ "type": "Feature", "properties": { "name": "", "name_manual": "", "name_original": null, "highway": "service", "status": "unnamed", "description": "unnamed" }, "geometry": { "type": "LineString", "coordinates": [ [ 14.4104146, 40.6434247 ], [ 14.4100445, 40.6433148 ], [ 14.4098031, 40.6436689 ], [ 14.4097066, 40.6437032 ], [ 14.4096312, 40.6437313 ], [ 14.4095683, 40.6438243 ] ] } },
{ "type": "Feature", "properties": { "name": "", "name_manual": "", "name_original": null, "highway": "service", "status": "unnamed", "description": "unnamed" }, "geometry": { "type": "LineString", "coordinates": [ [ 14.4126141, 40.6428731 ], [ 14.4122734, 40.6427734 ], [ 14.4121313, 40.6427388 ], [ 14.411973, 40.6426737 ], [ 14.411804, 40.6425902 ], [ 14.4116485, 40.6425699 ], [ 14.4114725, 40.6425485 ] ] } },
{ "type": "Feature", "properties": { "name": "", "name_manual": "", "name_original": null, "highway": "service", "status": "unnamed", "description": "unnamed" }, "geometry": { "type": "LineString", "coordinates": [ [ 14.4146252, 40.6409121 ], [ 14.4144347, 40.6411034 ], [ 14.4144414, 40.6411502 ], [ 14.4144528, 40.641196 ], [ 14.4144796, 40.6412785 ], [ 14.4144727, 40.6413464 ] ] } },
{ "type": "Feature", "properties": { "name": "", "name_manual": "", "name_original": null, "highway": "unclassified", "status": "unnamed", "description": "unnamed" }, "geometry": { "type": "LineString", "coordinates": [ [ 14.4122332, 40.6400135 ], [ 14.4125766, 40.6398456 ], [ 14.4128998, 40.639695 ], [ 14.4130886, 40.6396036 ], [ 14.4133101, 40.6394965 ], [ 14.4135877, 40.6393622 ], [ 14.4136387, 40.6393256 ], [ 14.4136682, 40.6392849 ], [ 14.413695, 40.6392157 ], [ 14.4137353, 40.6391454 ], [ 14.4137594, 40.6391098 ], [ 14.413856, 40.6390691 ], [ 14.4139056, 40.6390752 ], [ 14.4139767, 40.6391281 ], [ 14.4143884, 40.6394619 ], [ 14.4143991, 40.6394955 ], [ 14.4143991, 40.6395891 ], [ 14.4144152, 40.6396207 ], [ 14.4144675, 40.6396472 ], [ 14.4145104, 40.6396472 ], [ 14.4145654, 40.6396502 ], [ 14.4145869, 40.6396604 ], [ 14.4147652, 40.6397789 ], [ 14.4147921, 40.6397891 ], [ 14.4148249, 40.6397886 ], [ 14.4148967, 40.6397815 ], [ 14.4149268, 40.6397871 ], [ 14.4149529, 40.6398029 ], [ 14.41501, 40.6398594 ] ] } },
{ "type": "Feature", "properties": { "name": "", "name_manual": "", "name_original": null, "highway": "unclassified", "status": "unnamed", "description": "unnamed" }, "geometry": { "type": "LineString", "coordinates": [ [ 14.4189548, 40.6429993 ], [ 14.4190455, 40.6429677 ], [ 14.4191554, 40.642931 ], [ 14.4193035, 40.6429138 ], [ 14.4194161, 40.642867 ], [ 14.4195034, 40.6428455 ], [ 14.4195546, 40.6428186 ], [ 14.4195855, 40.6427899 ], [ 14.4196085, 40.6427536 ], [ 14.4196516, 40.6426583 ] ] } },
{ "type": "Feature", "properties": { "name": "", "name_manual": "", "name_original": null, "highway": "unclassified", "status": "unnamed", "description": "unnamed" }, "geometry": { "type": "LineString", "coordinates": [ [ 14.419789, 40.6427714 ], [ 14.4196951, 40.6427245 ], [ 14.4196602, 40.642692 ], [ 14.4196516, 40.6426583 ], [ 14.4196892, 40.6425891 ], [ 14.4197326, 40.6424742 ], [ 14.419766, 40.6424003 ] ] } },
{ "type": "Feature", "properties": { "name": "", "name_manual": "", "name_original": null, "highway": "footway", "status": "unnamed", "description": "unnamed" }, "geometry": { "type": "LineString", "coordinates": [ [ 14.4089076, 40.648056 ], [ 14.4086001, 40.6480393 ] ] } },
{ "type": "Feature", "properties": { "name": "", "name_manual": "", "name_original": null, "highway": "steps", "status": "unnamed", "description": "unnamed" }, "geometry": { "type": "LineString", "coordinates": [ [ 14.408188, 40.6474832 ], [ 14.4082501, 40.6475681 ], [ 14.4083449, 40.6476297 ] ] } },
{ "type": "Feature", "properties": { "name": "", "name_manual": "", "name_original": null, "highway": "residential", "status": "unnamed", "description": "unnamed" }, "geometry": { "type": "LineString", "coordinates": [ [ 14.423082, 40.6458533 ], [ 14.4231552, 40.6459365 ], [ 14.4231961, 40.6459553 ], [ 14.4232326, 40.6459532 ], [ 14.4233449, 40.6459317 ], [ 14.4235537, 40.6458115 ], [ 14.4236388, 40.6457519 ], [ 14.4236869, 40.645736 ], [ 14.4237257, 40.6457383 ], [ 14.4239013, 40.6457645 ], [ 14.4239377, 40.6457579 ], [ 14.4239592, 40.6457406 ], [ 14.4239927, 40.6456882 ], [ 14.4240041, 40.6456399 ], [ 14.4239867, 40.6455055 ], [ 14.423986, 40.6454959 ], [ 14.42399, 40.6454862 ], [ 14.4240028, 40.6454816 ], [ 14.4240148, 40.6454811 ], [ 14.4240289, 40.6454893 ], [ 14.424037, 40.6455035 ], [ 14.4240873, 40.6457299 ], [ 14.4241067, 40.6457477 ], [ 14.4241362, 40.6457533 ], [ 14.4241711, 40.6457498 ], [ 14.4241885, 40.6457411 ], [ 14.4242012, 40.6457116 ], [ 14.4242126, 40.6456215 ], [ 14.4242234, 40.6456027 ], [ 14.4242368, 40.6455951 ], [ 14.424271, 40.6455931 ], [ 14.4242884, 40.6456007 ], [ 14.4242965, 40.6456236 ], [ 14.4243018, 40.6457177 ], [ 14.4243152, 40.6457314 ], [ 14.4243333, 40.645733 ], [ 14.4243461, 40.6457284 ], [ 14.4243535, 40.6457182 ], [ 14.4243528, 40.6456312 ], [ 14.4243535, 40.6455127 ], [ 14.4243749, 40.645417 ], [ 14.424385, 40.6454038 ], [ 14.4244131, 40.6453967 ], [ 14.4244339, 40.6454028 ], [ 14.424448, 40.6454201 ], [ 14.4245077, 40.6455508 ], [ 14.4245271, 40.6456241 ], [ 14.4245385, 40.6456383 ], [ 14.424566, 40.6456455 ], [ 14.4245908, 40.645645 ], [ 14.4246177, 40.6456317 ], [ 14.4246344, 40.6455793 ], [ 14.4246284, 40.6454587 ], [ 14.4246271, 40.6454023 ], [ 14.4246304, 40.6453702 ], [ 14.4246411, 40.6453361 ], [ 14.4246705, 40.6452491 ], [ 14.4246959, 40.6451433 ], [ 14.4247276, 40.6450472 ], [ 14.4248261, 40.6449676 ], [ 14.4249366, 40.6448933 ], [ 14.4249853, 40.644812 ] ] } },
{ "type": "Feature", "properties": { "name": "", "name_manual": "", "name_original": null, "highway": "footway", "status": "unnamed", "description": "unnamed" }, "geometry": { "type": "LineString", "coordinates": [ [ 14.4082353, 40.6476658 ], [ 14.4082394, 40.6476826 ], [ 14.4083058, 40.6477561 ], [ 14.4083843, 40.6479181 ] ] } },
{ "type": "Feature", "properties": { "name": "", "name_manual": "", "name_original": null, "highway": "pedestrian", "status": "unnamed", "description": "unnamed" }, "geometry": { "type": "LineString", "coordinates": [ [ 14.4090586, 40.6503022 ], [ 14.4090198, 40.650004 ], [ 14.4090114, 40.6499474 ], [ 14.4089721, 40.649792 ], [ 14.4089172, 40.6494466 ], [ 14.408883, 40.6492829 ], [ 14.4087702, 40.6490514 ], [ 14.4087261, 40.6488963 ] ] } },
{ "type": "Feature", "properties": { "name": "", "name_manual": "", "name_original": null, "highway": "steps", "status": "unnamed", "description": "unnamed" }, "geometry": { "type": "LineString", "coordinates": [ [ 14.4073127, 40.6450723 ], [ 14.407332, 40.6450757 ] ] } },
{ "type": "Feature", "properties": { "name": "", "name_manual": "", "name_original": null, "highway": "steps", "status": "unnamed", "description": "unnamed" }, "geometry": { "type": "LineString", "coordinates": [ [ 14.4073655, 40.6452181 ], [ 14.4073324, 40.6452183 ] ] } },
{ "type": "Feature", "properties": { "name": "", "name_manual": "", "name_original": null, "highway": "steps", "status": "unnamed", "description": "unnamed" }, "geometry": { "type": "LineString", "coordinates": [ [ 14.407332, 40.6450757 ], [ 14.4074177, 40.6450908 ], [ 14.4074586, 40.6451396 ], [ 14.4074504, 40.6452175 ], [ 14.4073655, 40.6452181 ] ] } },
{ "type": "Feature", "properties": { "name": "", "name_manual": "", "name_original": null, "highway": "steps", "status": "unnamed", "description": "unnamed" }, "geometry": { "type": "LineString", "coordinates": [ [ 14.4073401, 40.645088 ], [ 14.4074199, 40.6451473 ], [ 14.4074829, 40.6452867 ], [ 14.4074695, 40.6454852 ], [ 14.4073931, 40.6457091 ], [ 14.4073702, 40.6458616 ], [ 14.4073855, 40.6458811 ], [ 14.4075674, 40.6459146 ], [ 14.4076935, 40.6459156 ], [ 14.4077445, 40.645895 ], [ 14.4077981, 40.6456612 ], [ 14.407817, 40.6456114 ], [ 14.4078558, 40.6455615 ], [ 14.4079148, 40.6455386 ] ] } },
{ "type": "Feature", "properties": { "name": "", "name_manual": "", "name_original": null, "highway": "living_street", "status": "unnamed", "description": "unnamed" }, "geometry": { "type": "LineString", "coordinates": [ [ 14.4152678, 40.6422961 ], [ 14.4152844, 40.6422833 ] ] } },
{ "type": "Feature", "properties": { "name": "", "name_manual": "", "name_original": null, "highway": "footway", "status": "unnamed", "description": "unnamed" }, "geometry": { "type": "LineString", "coordinates": [ [ 14.4157232, 40.640668 ], [ 14.4157669, 40.640632 ], [ 14.4160507, 40.6403863 ] ] } },
{ "type": "Feature", "properties": { "name": "", "name_manual": "", "name_original": null, "highway": "steps", "status": "unnamed", "description": "unnamed" }, "geometry": { "type": "LineString", "coordinates": [ [ 14.4175172, 40.6418814 ], [ 14.4175057, 40.6418768 ], [ 14.4175782, 40.6417661 ], [ 14.4175819, 40.6417594 ], [ 14.4175852, 40.6417532 ], [ 14.4175842, 40.6417432 ], [ 14.4175804, 40.6417387 ] ] } },
{ "type": "Feature", "properties": { "name": "", "name_manual": "", "name_original": null, "highway": "steps", "status": "unnamed", "description": "unnamed" }, "geometry": { "type": "LineString", "coordinates": [ [ 14.4173736, 40.6428759 ], [ 14.4170153, 40.6426904 ] ] } },
{ "type": "Feature", "properties": { "name": "", "name_manual": "", "name_original": null, "highway": "residential", "status": "unnamed", "description": "unnamed" }, "geometry": { "type": "LineString", "coordinates": [ [ 14.4221755, 40.644528 ], [ 14.4221722, 40.6444768 ], [ 14.4221233, 40.6441972 ], [ 14.4221219, 40.6441065 ], [ 14.4221716, 40.6438725 ], [ 14.4221421, 40.6436659 ], [ 14.4220844, 40.6435072 ], [ 14.4220562, 40.6434654 ], [ 14.4219945, 40.6434563 ] ] } },
{ "type": "Feature", "properties": { "name": "", "name_manual": "", "name_original": null, "highway": "residential", "status": "unnamed", "description": "unnamed" }, "geometry": { "type": "LineString", "coordinates": [ [ 14.4119462, 40.6405712 ], [ 14.4119449, 40.6405274 ], [ 14.4119288, 40.640501 ], [ 14.4118376, 40.6404704 ], [ 14.4118349, 40.6404531 ], [ 14.4118443, 40.6404287 ], [ 14.4121085, 40.640271 ], [ 14.4123687, 40.6401204 ], [ 14.4130379, 40.6397306 ], [ 14.413109, 40.6396787 ], [ 14.4131251, 40.6396609 ], [ 14.4131271, 40.6396487 ], [ 14.413121, 40.6396375 ], [ 14.4130886, 40.6396036 ] ] } },
{ "type": "Feature", "properties": { "name": "", "name_manual": "", "name_original": null, "highway": "service", "status": "unnamed", "description": "unnamed" }, "geometry": { "type": "LineString", "coordinates": [ [ 14.4163102, 40.637566 ], [ 14.4163947, 40.6376148 ], [ 14.4164161, 40.6376372 ], [ 14.4164242, 40.6377003 ], [ 14.4164591, 40.6378377 ], [ 14.4164765, 40.6378723 ], [ 14.4165073, 40.6378988 ], [ 14.4169298, 40.6380738 ], [ 14.4171269, 40.6381573 ] ] } },
{ "type": "Feature", "properties": { "name": "", "name_manual": "", "name_original": null, "highway": "service", "status": "unnamed", "description": "unnamed" }, "geometry": { "type": "LineString", "coordinates": [ [ 14.4152601, 40.6379324 ], [ 14.4153781, 40.6379843 ], [ 14.4155189, 40.6380392 ], [ 14.4156048, 40.6380606 ], [ 14.4156745, 40.6380698 ], [ 14.4157308, 40.6380565 ], [ 14.415759, 40.6380382 ], [ 14.416105, 40.6378214 ], [ 14.416156, 40.6378011 ], [ 14.4161989, 40.6378082 ], [ 14.4165677, 40.6379639 ], [ 14.4165798, 40.6379924 ], [ 14.4165932, 40.6380718 ], [ 14.4166321, 40.6381817 ], [ 14.4166656, 40.6382763 ], [ 14.4166844, 40.6383374 ], [ 14.4167393, 40.6383863 ], [ 14.4168332, 40.6384931 ] ] } },
{ "type": "Feature", "properties": { "name": "", "name_manual": "", "name_original": null, "highway": "footway", "status": "unnamed", "description": "unnamed" }, "geometry": { "type": "LineString", "coordinates": [ [ 14.4232526, 40.6504742 ], [ 14.423321, 40.6503979 ], [ 14.4233412, 40.6503511 ], [ 14.4233385, 40.6502646 ], [ 14.423313, 40.6501863 ], [ 14.4233036, 40.6501151 ], [ 14.4232862, 40.6500296 ], [ 14.4232647, 40.6499614 ], [ 14.4232607, 40.6498627 ], [ 14.4232795, 40.6497956 ], [ 14.4233009, 40.6497182 ], [ 14.4233291, 40.6495982 ], [ 14.4233438, 40.6495615 ], [ 14.4233921, 40.6495107 ], [ 14.4234283, 40.6494221 ], [ 14.4234136, 40.6493733 ], [ 14.4233908, 40.6492726 ], [ 14.4233827, 40.6491789 ], [ 14.4233868, 40.6490609 ], [ 14.4233693, 40.6489734 ], [ 14.4233452, 40.6488808 ], [ 14.4233425, 40.6488442 ], [ 14.4233465, 40.6487953 ], [ 14.4233264, 40.6486956 ], [ 14.4233184, 40.6486275 ], [ 14.4233023, 40.6484738 ], [ 14.4232821, 40.6483883 ], [ 14.4232339, 40.648313 ], [ 14.4230635, 40.648193 ], [ 14.4229697, 40.6481014 ], [ 14.4229321, 40.6480149 ], [ 14.4229053, 40.6478053 ], [ 14.4229026, 40.6476547 ], [ 14.42292, 40.6475631 ], [ 14.4229509, 40.647501 ], [ 14.422963, 40.6474522 ], [ 14.4229482, 40.6474441 ], [ 14.422912, 40.6473871 ], [ 14.4228758, 40.6473067 ], [ 14.4228624, 40.6472548 ], [ 14.4228584, 40.647148 ], [ 14.4228865, 40.6470259 ], [ 14.4228758, 40.6469353 ], [ 14.4228517, 40.6468519 ], [ 14.4228128, 40.6467827 ], [ 14.4227886, 40.6467287 ], [ 14.4227457, 40.646568 ], [ 14.4227001, 40.6464113 ], [ 14.4226626, 40.6462851 ], [ 14.4226304, 40.6461599 ], [ 14.4225242, 40.6460642 ] ] } },
{ "type": "Feature", "properties": { "name": "", "name_manual": "", "name_original": null, "highway": "steps", "status": "unnamed", "description": "unnamed" }, "geometry": { "type": "LineString", "coordinates": [ [ 14.4222392, 40.6454567 ], [ 14.4220841, 40.6454303 ], [ 14.4219779, 40.645378 ], [ 14.4218728, 40.6453904 ], [ 14.4218354, 40.6453435 ], [ 14.4217339, 40.6452921 ], [ 14.4217362, 40.6453381 ], [ 14.4216136, 40.6453656 ], [ 14.4215599, 40.6453993 ], [ 14.4215868, 40.6454453 ], [ 14.4213147, 40.6455587 ] ] } },
{ "type": "Feature", "properties": { "name": "", "name_manual": "", "name_original": null, "highway": "path", "status": "unnamed", "description": "unnamed" }, "geometry": { "type": "LineString", "coordinates": [ [ 14.4249853, 40.644812 ], [ 14.4252344, 40.644528 ], [ 14.4253358, 40.6443982 ], [ 14.4254878, 40.6443069 ], [ 14.4256145, 40.6443213 ], [ 14.4257666, 40.6443549 ], [ 14.4258431, 40.6443887 ], [ 14.4258808, 40.6444682 ], [ 14.4258616, 40.6445809 ], [ 14.4259142, 40.6446232 ] ] } },
{ "type": "Feature", "properties": { "name": "", "name_manual": "", "name_original": null, "highway": "residential", "status": "unnamed", "description": "unnamed" }, "geometry": { "type": "LineString", "coordinates": [ [ 14.4073873, 40.6463348 ], [ 14.407038, 40.6463507 ], [ 14.4062166, 40.6462585 ], [ 14.405878, 40.6460201 ], [ 14.4060135, 40.6458146 ] ] } },
{ "type": "Feature", "properties": { "name": "", "name_manual": "", "name_original": null, "highway": "unclassified", "status": "unnamed", "description": "unnamed" }, "geometry": { "type": "LineString", "coordinates": [ [ 14.4224878, 40.6459464 ], [ 14.4226077, 40.6459369 ], [ 14.4228861, 40.6459007 ] ] } },
{ "type": "Feature", "properties": { "name": "", "name_manual": "", "name_original": null, "highway": "path", "status": "unnamed", "description": "unnamed" }, "geometry": { "type": "LineString", "coordinates": [ [ 14.4187669, 40.6431544 ], [ 14.4189575, 40.6431329 ], [ 14.4192921, 40.6430963 ], [ 14.4196748, 40.6431028 ], [ 14.4199499, 40.6432082 ], [ 14.4202844, 40.6434018 ], [ 14.420619, 40.6435632 ], [ 14.4211265, 40.6436901 ], [ 14.4213675, 40.6437504 ], [ 14.4214894, 40.6437439 ], [ 14.4215234, 40.6436858 ], [ 14.4214923, 40.6434578 ], [ 14.4214923, 40.6433932 ], [ 14.4215234, 40.6433739 ], [ 14.4216204, 40.6433845 ] ] } },
{ "type": "Feature", "properties": { "name": "", "name_manual": "", "name_original": null, "highway": "footway", "status": "unnamed", "description": "unnamed" }, "geometry": { "type": "LineString", "coordinates": [ [ 14.4160507, 40.6403863 ], [ 14.4161592, 40.640291 ] ] } },
{ "type": "Feature", "properties": { "name": "", "name_manual": "", "name_original": null, "highway": "footway", "status": "unnamed", "description": "unnamed" }, "geometry": { "type": "LineString", "coordinates": [ [ 14.4161592, 40.640291 ], [ 14.4161817, 40.6402681 ], [ 14.4162029, 40.6402516 ], [ 14.4161916, 40.6402443 ], [ 14.4161933, 40.640236 ], [ 14.4162267, 40.6402139 ] ] } },
{ "type": "Feature", "properties": { "name": "", "name_manual": "", "name_original": null, "highway": "steps", "status": "unnamed", "description": "unnamed" }, "geometry": { "type": "LineString", "coordinates": [ [ 14.4161817, 40.6402681 ], [ 14.4161465, 40.6402139 ] ] } },
{ "type": "Feature", "properties": { "name": "", "name_manual": "", "name_original": null, "highway": "footway", "status": "unnamed", "description": "unnamed" }, "geometry": { "type": "LineString", "coordinates": [ [ 14.4161465, 40.6402139 ], [ 14.4161314, 40.6401943 ], [ 14.4161288, 40.6401578 ] ] } },
{ "type": "Feature", "properties": { "name": "", "name_manual": "", "name_original": null, "highway": "footway", "status": "unnamed", "description": "unnamed" }, "geometry": { "type": "LineString", "coordinates": [ [ 14.4157133, 40.6395805 ], [ 14.4157223, 40.6395788 ], [ 14.4157722, 40.6395693 ], [ 14.4158518, 40.6395553 ], [ 14.415862, 40.6395543 ] ] } },
{ "type": "Feature", "properties": { "name": "", "name_manual": "", "name_original": null, "highway": "footway", "status": "unnamed", "description": "unnamed" }, "geometry": { "type": "LineString", "coordinates": [ [ 14.4163586, 40.6403286 ], [ 14.4163631, 40.6403256 ], [ 14.4163936, 40.6403011 ], [ 14.4164722, 40.6402546 ] ] } },
{ "type": "Feature", "properties": { "name": "", "name_manual": "", "name_original": null, "highway": "footway", "status": "unnamed", "description": "unnamed" }, "geometry": { "type": "LineString", "coordinates": [ [ 14.4156991, 40.6395586 ], [ 14.4157133, 40.6395805 ], [ 14.4158179, 40.6397419 ], [ 14.4159208, 40.6399024 ], [ 14.4159953, 40.6400041 ], [ 14.4160617, 40.6400928 ], [ 14.4161288, 40.6401578 ], [ 14.416159, 40.6401739 ], [ 14.4162267, 40.6402139 ], [ 14.4162429, 40.6402234 ], [ 14.4163293, 40.6402956 ], [ 14.4163586, 40.6403286 ], [ 14.4163643, 40.6403351 ], [ 14.4164037, 40.6403968 ], [ 14.4164253, 40.6404301 ], [ 14.4164737, 40.6405044 ], [ 14.4164851, 40.6405621 ] ] } },
{ "type": "Feature", "properties": { "name": "", "name_manual": "", "name_original": null, "highway": "footway", "status": "unnamed", "description": "unnamed" }, "geometry": { "type": "LineString", "coordinates": [ [ 14.4160707, 40.6392995 ], [ 14.4160413, 40.6393014 ], [ 14.416017, 40.639309 ], [ 14.415975, 40.6393363 ], [ 14.4159205, 40.6393812 ], [ 14.41588, 40.6394312 ], [ 14.4158642, 40.6394555 ], [ 14.415862, 40.6395543 ], [ 14.4158617, 40.6395702 ], [ 14.4158647, 40.6396085 ], [ 14.4158782, 40.6396479 ], [ 14.4158857, 40.6396681 ], [ 14.4159744, 40.6398084 ], [ 14.416004, 40.6398469 ], [ 14.416093, 40.6399632 ], [ 14.416099, 40.639971 ], [ 14.4161559, 40.6400389 ], [ 14.4162333, 40.6400997 ], [ 14.4163206, 40.6401549 ], [ 14.4164269, 40.640222 ], [ 14.4164482, 40.6402352 ], [ 14.4164722, 40.6402546 ] ] } },
{ "type": "Feature", "properties": { "name": "", "name_manual": "", "name_original": null, "highway": "service", "status": "unnamed", "description": "unnamed" }, "geometry": { "type": "LineString", "coordinates": [ [ 14.4165342, 40.640572 ], [ 14.4165037, 40.6405937 ], [ 14.4164911, 40.640598 ], [ 14.416442, 40.6406205 ], [ 14.4167773, 40.6411406 ] ] } },
{ "type": "Feature", "properties": { "name": "", "name_manual": "", "name_original": null, "highway": "footway", "status": "unnamed", "description": "unnamed" }, "geometry": { "type": "LineString", "coordinates": [ [ 14.4162638, 40.6406427 ], [ 14.4163741, 40.6406036 ] ] } },
{ "type": "Feature", "properties": { "name": "", "name_manual": "", "name_original": null, "highway": "footway", "status": "unnamed", "description": "unnamed" }, "geometry": { "type": "LineString", "coordinates": [ [ 14.4160707, 40.6392995 ], [ 14.4162896, 40.6394579 ], [ 14.4164767, 40.639568 ], [ 14.4165383, 40.6396077 ], [ 14.4166279, 40.6396497 ], [ 14.4166389, 40.6396522 ], [ 14.416649, 40.6396535 ], [ 14.4166624, 40.6396537 ], [ 14.4166833, 40.639651 ], [ 14.4167835, 40.6395759 ], [ 14.4167977, 40.6395652 ], [ 14.4168124, 40.6395542 ], [ 14.4170032, 40.6396546 ], [ 14.4170753, 40.6396962 ] ] } },
{ "type": "Feature", "properties": { "name": "", "name_manual": "", "name_original": null, "highway": "service", "status": "unnamed", "description": "unnamed" }, "geometry": { "type": "LineString", "coordinates": [ [ 14.4166579, 40.6407606 ], [ 14.4167106, 40.6407423 ], [ 14.4167215, 40.6407385 ], [ 14.4167323, 40.6407348 ], [ 14.4167742, 40.6407203 ], [ 14.4168513, 40.6408581 ] ] } },
{ "type": "Feature", "properties": { "name": "", "name_manual": "", "name_original": null, "highway": "service", "status": "unnamed", "description": "unnamed" }, "geometry": { "type": "LineString", "coordinates": [ [ 14.416813, 40.6409945 ], [ 14.4168587, 40.6409807 ], [ 14.4168696, 40.6409774 ], [ 14.4168806, 40.6409741 ], [ 14.417029, 40.6408958 ], [ 14.4173033, 40.6406103 ], [ 14.4175158, 40.6403671 ], [ 14.4175849, 40.6403081 ], [ 14.4176298, 40.6402862 ], [ 14.4176567, 40.6402811 ], [ 14.4176888, 40.6402954 ], [ 14.4177351, 40.6403519 ], [ 14.4177626, 40.6403529 ], [ 14.4178598, 40.6403269 ], [ 14.4179289, 40.6402964 ], [ 14.4179517, 40.6402496 ] ] } },
{ "type": "Feature", "properties": { "name": "", "name_manual": "", "name_original": null, "highway": "service", "status": "unnamed", "description": "unnamed" }, "geometry": { "type": "LineString", "coordinates": [ [ 14.4168893, 40.6412189 ], [ 14.4169467, 40.641151 ], [ 14.4169568, 40.6411391 ], [ 14.4171879, 40.6407874 ] ] } },
{ "type": "Feature", "properties": { "name": "", "name_manual": "", "name_original": null, "highway": "footway", "status": "unnamed", "description": "unnamed" }, "geometry": { "type": "LineString", "coordinates": [ [ 14.4164851, 40.6405621 ], [ 14.4165037, 40.6405937 ], [ 14.4165155, 40.6406118 ], [ 14.4165284, 40.6406317 ] ] } },
{ "type": "Feature", "properties": { "name": "", "name_manual": "", "name_original": null, "highway": "footway", "status": "unnamed", "description": "unnamed" }, "geometry": { "type": "LineString", "coordinates": [ [ 14.4165155, 40.6406118 ], [ 14.4165501, 40.6405974 ], [ 14.4166044, 40.6405747 ], [ 14.4166151, 40.6405703 ] ] } },
{ "type": "Feature", "properties": { "name": "", "name_manual": "", "name_original": null, "highway": "footway", "status": "unnamed", "description": "unnamed" }, "geometry": { "type": "LineString", "coordinates": [ [ 14.4164722, 40.6402546 ], [ 14.4164948, 40.6402799 ], [ 14.4165084, 40.6402945 ], [ 14.4166341, 40.6404242 ], [ 14.4165832, 40.6404492 ], [ 14.4165946, 40.6404822 ], [ 14.4165682, 40.6404962 ], [ 14.4166151, 40.6405703 ], [ 14.4167215, 40.6407385 ], [ 14.4168444, 40.6409329 ], [ 14.4168696, 40.6409774 ], [ 14.4168767, 40.64099 ], [ 14.4169226, 40.6410746 ], [ 14.4169451, 40.6411407 ], [ 14.4169467, 40.641151 ], [ 14.4169518, 40.6411837 ], [ 14.4169563, 40.641222 ], [ 14.4169581, 40.6412369 ], [ 14.4169612, 40.6412632 ], [ 14.4169704, 40.6413044 ], [ 14.4169812, 40.6413529 ], [ 14.4169934, 40.6414152 ], [ 14.4170049, 40.6414543 ], [ 14.4171939, 40.6415265 ], [ 14.417215, 40.6415346 ], [ 14.4173192, 40.6415702 ], [ 14.4174441, 40.6416179 ], [ 14.4174681, 40.6416197 ], [ 14.4174725, 40.6416201 ], [ 14.417518, 40.6415668 ], [ 14.4175984, 40.6414611 ], [ 14.4176242, 40.6414343 ], [ 14.4176492, 40.6414112 ], [ 14.4176997, 40.6413714 ], [ 14.4177396, 40.6413402 ], [ 14.4177785, 40.6413103 ], [ 14.4178322, 40.6412682 ], [ 14.4178652, 40.6412516 ], [ 14.4179062, 40.641235 ], [ 14.4179609, 40.6412194 ], [ 14.4180233, 40.6412094 ], [ 14.4180793, 40.6412052 ], [ 14.418143, 40.6412032 ], [ 14.4181844, 40.641202 ], [ 14.4181908, 40.6412018 ], [ 14.4182577, 40.6411931 ], [ 14.4182979, 40.6411874 ], [ 14.4183456, 40.6411771 ], [ 14.4183867, 40.6411654 ], [ 14.418422, 40.6411518 ], [ 14.4184622, 40.6411351 ], [ 14.4184748, 40.6411255 ], [ 14.418486, 40.6411097 ], [ 14.4185622, 40.6409825 ], [ 14.4186621, 40.640817 ] ] } },
{ "type": "Feature", "properties": { "name": "", "name_manual": "", "name_original": null, "highway": "footway", "status": "unnamed", "description": "unnamed" }, "geometry": { "type": "LineString", "coordinates": [ [ 14.4173363, 40.6423542 ], [ 14.4175106, 40.6420801 ], [ 14.4175601, 40.6419974 ], [ 14.41759, 40.641949 ], [ 14.4175972, 40.6419515 ] ] } },
{ "type": "Feature", "properties": { "name": "", "name_manual": "", "name_original": null, "highway": "footway", "status": "unnamed", "description": "unnamed" }, "geometry": { "type": "LineString", "coordinates": [ [ 14.4171878, 40.6424078 ], [ 14.4174778, 40.6419555 ], [ 14.4175255, 40.6418941 ], [ 14.4175302, 40.6418863 ], [ 14.4175738, 40.6418213 ], [ 14.41759, 40.6418034 ], [ 14.4176057, 40.641786 ], [ 14.417619, 40.6417713 ], [ 14.4176324, 40.6417565 ], [ 14.4176457, 40.6417418 ], [ 14.417659, 40.6417271 ], [ 14.4176722, 40.6417126 ], [ 14.4176865, 40.6416968 ], [ 14.4177124, 40.6416808 ], [ 14.4177427, 40.6416622 ], [ 14.4177616, 40.6416514 ], [ 14.4177804, 40.6416406 ], [ 14.417799, 40.64163 ], [ 14.4178199, 40.6416181 ], [ 14.4178605, 40.6415981 ], [ 14.4179113, 40.6415919 ], [ 14.4179482, 40.6415772 ], [ 14.4180712, 40.6415038 ], [ 14.4182184, 40.6413901 ], [ 14.4182187, 40.6413785 ], [ 14.4182051, 40.6413703 ], [ 14.4181851, 40.6413599 ], [ 14.4181741, 40.6413568 ], [ 14.4181554, 40.6413515 ], [ 14.4181365, 40.6413495 ], [ 14.4181079, 40.6413497 ], [ 14.4180796, 40.6413536 ], [ 14.418043, 40.6413645 ], [ 14.418006, 40.6413749 ], [ 14.4179544, 40.6413958 ], [ 14.4178911, 40.6414215 ], [ 14.4178027, 40.6414637 ], [ 14.417783, 40.6414759 ], [ 14.4177624, 40.6414929 ], [ 14.4177294, 40.641524 ], [ 14.4176869, 40.6415762 ], [ 14.4176469, 40.6416329 ], [ 14.4176051, 40.64168 ], [ 14.4175506, 40.6417144 ], [ 14.4175144, 40.6417322 ], [ 14.4174277, 40.6417514 ], [ 14.41737, 40.6417562 ], [ 14.4173171, 40.6417566 ], [ 14.4172635, 40.6417514 ], [ 14.4172182, 40.6417414 ], [ 14.4172054, 40.6417385 ], [ 14.4171779, 40.6417319 ], [ 14.4171383, 40.6417188 ], [ 14.4171015, 40.641702 ], [ 14.4170336, 40.6416634 ], [ 14.4169886, 40.6416327 ], [ 14.4169112, 40.6415791 ], [ 14.416834, 40.6415279 ], [ 14.4167501, 40.6414728 ], [ 14.4166844, 40.6414293 ], [ 14.4166696, 40.6414255 ], [ 14.4166523, 40.6414273 ] ] } },
{ "type": "Feature", "properties": { "name": "", "name_manual": "", "name_original": null, "highway": "footway", "status": "unnamed", "description": "unnamed" }, "geometry": { "type": "LineString", "coordinates": [ [ 14.4176161, 40.6419192 ], [ 14.4175972, 40.6419515 ], [ 14.4175959, 40.6419537 ], [ 14.4175759, 40.6419997 ], [ 14.4175626, 40.6420264 ], [ 14.4175495, 40.6420667 ], [ 14.41754, 40.6421041 ], [ 14.4175342, 40.6421402 ], [ 14.4175328, 40.6421761 ], [ 14.4175325, 40.6422113 ], [ 14.4175352, 40.642245 ], [ 14.4175386, 40.6422794 ], [ 14.417544, 40.6423034 ] ] } },
{ "type": "Feature", "properties": { "name": "", "name_manual": "", "name_original": null, "highway": "footway", "status": "unnamed", "description": "unnamed" }, "geometry": { "type": "LineString", "coordinates": [ [ 14.4175759, 40.6419997 ], [ 14.4175831, 40.6420012 ], [ 14.4176266, 40.6420102 ], [ 14.4176712, 40.6420194 ], [ 14.4176827, 40.6420218 ] ] } },
{ "type": "Feature", "properties": { "name": "", "name_manual": "", "name_original": null, "highway": "footway", "status": "unnamed", "description": "unnamed" }, "geometry": { "type": "LineString", "coordinates": [ [ 14.4176531, 40.6421504 ], [ 14.4176583, 40.6421116 ], [ 14.4176782, 40.6420318 ], [ 14.4176827, 40.6420218 ], [ 14.4177074, 40.6419678 ], [ 14.4177704, 40.641866 ], [ 14.4177944, 40.6418358 ], [ 14.4178153, 40.6418121 ], [ 14.4178337, 40.6417958 ], [ 14.4178568, 40.6417801 ], [ 14.4178738, 40.6417663 ], [ 14.4179809, 40.6416884 ], [ 14.4180179, 40.641666 ], [ 14.418125, 40.641593 ], [ 14.4182947, 40.6414774 ], [ 14.418399, 40.6413812 ], [ 14.4184573, 40.6413257 ], [ 14.4184747, 40.6413054 ], [ 14.4185545, 40.6412123 ] ] } },
{ "type": "Feature", "properties": { "name": "", "name_manual": "", "name_original": null, "highway": "footway", "status": "unnamed", "description": "unnamed" }, "geometry": { "type": "LineString", "coordinates": [ [ 14.4176161, 40.6419192 ], [ 14.4175774, 40.6419043 ], [ 14.4175392, 40.6418897 ], [ 14.4175302, 40.6418863 ], [ 14.4175172, 40.6418814 ] ] } },
{ "type": "Feature", "properties": { "name": "", "name_manual": "", "name_original": null, "highway": "footway", "status": "unnamed", "description": "unnamed" }, "geometry": { "type": "LineString", "coordinates": [ [ 14.4177124, 40.6416808 ], [ 14.417802, 40.6417424 ], [ 14.4178472, 40.6417734 ], [ 14.4178568, 40.6417801 ] ] } },
{ "type": "Feature", "properties": { "name": "", "name_manual": "", "name_original": null, "highway": "service", "status": "unnamed", "description": "unnamed" }, "geometry": { "type": "LineString", "coordinates": [ [ 14.4172332, 40.641711 ], [ 14.4172242, 40.6417293 ], [ 14.4172182, 40.6417414 ], [ 14.4172122, 40.6417534 ], [ 14.4170887, 40.6420025 ], [ 14.4169653, 40.642035 ], [ 14.4168889, 40.6421566 ] ] } },
{ "type": "Feature", "properties": { "name": "", "name_manual": "", "name_original": null, "highway": "steps", "status": "unnamed", "description": "unnamed" }, "geometry": { "type": "LineString", "coordinates": [ [ 14.4166523, 40.6414273 ], [ 14.4166482, 40.6414334 ], [ 14.4166462, 40.6414934 ] ] } },
{ "type": "Feature", "properties": { "name": "", "name_manual": "", "name_original": null, "highway": "service", "status": "unnamed", "description": "unnamed" }, "geometry": { "type": "LineString", "coordinates": [ [ 14.4165656, 40.6419286 ], [ 14.4168054, 40.6420177 ] ] } },
{ "type": "Feature", "properties": { "name": "", "name_manual": "", "name_original": null, "highway": "service", "status": "unnamed", "description": "unnamed" }, "geometry": { "type": "LineString", "coordinates": [ [ 14.4166781, 40.6417543 ], [ 14.4168708, 40.6417562 ] ] } },
{ "type": "Feature", "properties": { "name": "", "name_manual": "", "name_original": null, "highway": "service", "status": "unnamed", "description": "unnamed" }, "geometry": { "type": "LineString", "coordinates": [ [ 14.4164556, 40.6418877 ], [ 14.4165509, 40.6417455 ], [ 14.4166066, 40.6417353 ] ] } },
{ "type": "Feature", "properties": { "name": "", "name_manual": "", "name_original": null, "highway": "service", "status": "unnamed", "description": "unnamed" }, "geometry": { "type": "LineString", "coordinates": [ [ 14.41662, 40.6413635 ], [ 14.4166079, 40.6415257 ], [ 14.4166066, 40.6417353 ], [ 14.4166781, 40.6417543 ] ] } },
{ "type": "Feature", "properties": { "name": "", "name_manual": "", "name_original": null, "highway": "service", "status": "unnamed", "description": "unnamed" }, "geometry": { "type": "LineString", "coordinates": [ [ 14.4166781, 40.6417543 ], [ 14.4165656, 40.6419286 ] ] } },
{ "type": "Feature", "properties": { "name": "", "name_manual": "", "name_original": null, "highway": "service", "status": "unnamed", "description": "unnamed" }, "geometry": { "type": "LineString", "coordinates": [ [ 14.416189, 40.6418914 ], [ 14.4162425, 40.6418085 ], [ 14.4164556, 40.6418877 ], [ 14.4165656, 40.6419286 ] ] } },
{ "type": "Feature", "properties": { "name": "", "name_manual": "", "name_original": null, "highway": "footway", "status": "unnamed", "description": "unnamed" }, "geometry": { "type": "LineString", "coordinates": [ [ 14.4165557, 40.6417777 ], [ 14.4165614, 40.6417718 ], [ 14.4165688, 40.6417678 ], [ 14.4165774, 40.6417657 ], [ 14.4165865, 40.6417658 ], [ 14.4165951, 40.641768 ], [ 14.4166024, 40.641772 ], [ 14.4166077, 40.6417776 ], [ 14.4166105, 40.6417842 ], [ 14.4166104, 40.6417911 ], [ 14.4166073, 40.6417982 ], [ 14.4165702, 40.6418567 ], [ 14.4165645, 40.6418625 ], [ 14.4165571, 40.6418665 ], [ 14.4165485, 40.6418686 ], [ 14.4165394, 40.6418686 ], [ 14.4165308, 40.6418664 ], [ 14.4165235, 40.6418623 ], [ 14.4165182, 40.6418567 ], [ 14.4165155, 40.6418501 ], [ 14.4165155, 40.6418432 ], [ 14.4165186, 40.6418362 ], [ 14.4165557, 40.6417777 ] ] } },
{ "type": "Feature", "properties": { "name": "", "name_manual": "", "name_original": null, "highway": "footway", "status": "unnamed", "description": "unnamed" }, "geometry": { "type": "LineString", "coordinates": [ [ 14.4165284, 40.6406317 ], [ 14.4167304, 40.6409269 ], [ 14.416802, 40.6410402 ], [ 14.4168248, 40.6410947 ], [ 14.4168379, 40.6411406 ], [ 14.4168572, 40.6412552 ], [ 14.4168628, 40.6412936 ], [ 14.4168632, 40.6413222 ], [ 14.4168628, 40.6413479 ], [ 14.416857, 40.6413694 ], [ 14.4168473, 40.6413862 ], [ 14.4168343, 40.6414003 ], [ 14.4168263, 40.6414068 ], [ 14.4168185, 40.6414113 ], [ 14.4168014, 40.6414173 ], [ 14.4167923, 40.6414186 ], [ 14.4167873, 40.6414178 ] ] } },
{ "type": "Feature", "properties": { "name": "", "name_manual": "", "name_original": null, "highway": "footway", "status": "unnamed", "description": "unnamed" }, "geometry": { "type": "LineString", "coordinates": [ [ 14.4167501, 40.6414728 ], [ 14.4167681, 40.6414462 ], [ 14.4167858, 40.64142 ], [ 14.4167873, 40.6414178 ] ] } },
{ "type": "Feature", "properties": { "name": "", "name_manual": "", "name_original": null, "highway": "service", "status": "unnamed", "description": "unnamed" }, "geometry": { "type": "LineString", "coordinates": [ [ 14.4171388, 40.6416052 ], [ 14.4171547, 40.6415865 ], [ 14.4171939, 40.6415265 ], [ 14.4171989, 40.6415189 ], [ 14.4172979, 40.6413675 ] ] } },
{ "type": "Feature", "properties": { "name": "", "name_manual": "", "name_original": null, "highway": "footway", "status": "unnamed", "description": "unnamed" }, "geometry": { "type": "LineString", "coordinates": [ [ 14.4168263, 40.6414068 ], [ 14.4168794, 40.6414103 ], [ 14.4169323, 40.6414128 ], [ 14.4169934, 40.6414152 ] ] } },
{ "type": "Feature", "properties": { "name": "", "name_manual": "", "name_original": null, "highway": "footway", "status": "unnamed", "description": "unnamed" }, "geometry": { "type": "LineString", "coordinates": [ [ 14.4181741, 40.6413568 ], [ 14.4181748, 40.6413474 ], [ 14.4181773, 40.641314 ], [ 14.4181795, 40.6412855 ], [ 14.4181811, 40.6412642 ], [ 14.4181829, 40.6412404 ], [ 14.4181837, 40.6412307 ], [ 14.4181844, 40.641202 ] ] } },
{ "type": "Feature", "properties": { "name": "", "name_manual": "", "name_original": null, "highway": "footway", "status": "unnamed", "description": "unnamed" }, "geometry": { "type": "LineString", "coordinates": [ [ 14.4175804, 40.6417387 ], [ 14.4175506, 40.6417144 ], [ 14.4175428, 40.6417071 ], [ 14.4175274, 40.6416927 ], [ 14.417511, 40.6416775 ], [ 14.417496, 40.6416579 ], [ 14.4174828, 40.6416398 ], [ 14.4174714, 40.6416242 ], [ 14.4174681, 40.6416197 ] ] } },
{ "type": "Feature", "properties": { "name": "", "name_manual": "", "name_original": null, "highway": "footway", "status": "unnamed", "description": "unnamed" }, "geometry": { "type": "LineString", "coordinates": [ [ 14.4172054, 40.6417385 ], [ 14.417211, 40.6417264 ], [ 14.4172186, 40.6417076 ], [ 14.4172263, 40.6416889 ], [ 14.4172366, 40.6416693 ], [ 14.4172476, 40.641649 ], [ 14.4172965, 40.641597 ], [ 14.4173192, 40.6415702 ] ] } },
{ "type": "Feature", "properties": { "name": "", "name_manual": "", "name_original": null, "highway": "living_street", "status": "unnamed", "description": "unnamed" }, "geometry": { "type": "LineString", "coordinates": [ [ 14.4153397, 40.6422342 ], [ 14.4155475, 40.6420358 ] ] } },
{ "type": "Feature", "properties": { "name": "", "name_manual": "", "name_original": null, "highway": "living_street", "status": "unnamed", "description": "unnamed" }, "geometry": { "type": "LineString", "coordinates": [ [ 14.4152844, 40.6422833 ], [ 14.4153397, 40.6422342 ] ] } },
{ "type": "Feature", "properties": { "name": "", "name_manual": "", "name_original": null, "highway": "footway", "status": "unnamed", "description": "unnamed" }, "geometry": { "type": "LineString", "coordinates": [ [ 14.4193821, 40.6422078 ], [ 14.419391, 40.6421906 ], [ 14.419392, 40.6421886 ] ] } },
{ "type": "Feature", "properties": { "name": "", "name_manual": "", "name_original": null, "highway": "steps", "status": "unnamed", "description": "unnamed" }, "geometry": { "type": "LineString", "coordinates": [ [ 14.4193665, 40.6422332 ], [ 14.4194218, 40.6422497 ] ] } },
{ "type": "Feature", "properties": { "name": "", "name_manual": "", "name_original": null, "highway": "steps", "status": "unnamed", "description": "unnamed" }, "geometry": { "type": "LineString", "coordinates": [ [ 14.4193665, 40.6422332 ], [ 14.4193097, 40.6422163 ] ] } },
{ "type": "Feature", "properties": { "name": "", "name_manual": "", "name_original": null, "highway": "footway", "status": "unnamed", "description": "unnamed" }, "geometry": { "type": "LineString", "coordinates": [ [ 14.4194309, 40.6421136 ], [ 14.4196268, 40.6417356 ], [ 14.4197769, 40.6414459 ] ] } },
{ "type": "Feature", "properties": { "name": "", "name_manual": "", "name_original": null, "highway": "footway", "status": "unnamed", "description": "unnamed" }, "geometry": { "type": "LineString", "coordinates": [ [ 14.4194218, 40.6422497 ], [ 14.4194353, 40.6422237 ] ] } },
{ "type": "Feature", "properties": { "name": "", "name_manual": "", "name_original": null, "highway": "steps", "status": "unnamed", "description": "unnamed" }, "geometry": { "type": "LineString", "coordinates": [ [ 14.4194353, 40.6422237 ], [ 14.4193821, 40.6422078 ] ] } },
{ "type": "Feature", "properties": { "name": "", "name_manual": "", "name_original": null, "highway": "steps", "status": "unnamed", "description": "unnamed" }, "geometry": { "type": "LineString", "coordinates": [ [ 14.4193232, 40.6421902 ], [ 14.4193821, 40.6422078 ] ] } },
{ "type": "Feature", "properties": { "name": "", "name_manual": "", "name_original": null, "highway": "footway", "status": "unnamed", "description": "unnamed" }, "geometry": { "type": "LineString", "coordinates": [ [ 14.4193097, 40.6422163 ], [ 14.4193232, 40.6421902 ] ] } },
{ "type": "Feature", "properties": { "name": "", "name_manual": "", "name_original": null, "highway": "footway", "status": "unnamed", "description": "unnamed" }, "geometry": { "type": "LineString", "coordinates": [ [ 14.419392, 40.6421886 ], [ 14.4194309, 40.6421136 ] ] } },
{ "type": "Feature", "properties": { "name": "", "name_manual": "", "name_original": null, "highway": "service", "status": "unnamed", "description": "unnamed" }, "geometry": { "type": "LineString", "coordinates": [ [ 14.4191292, 40.6424131 ], [ 14.4192863, 40.6423294 ], [ 14.4193665, 40.6422332 ] ] } },
{ "type": "Feature", "properties": { "name": "", "name_manual": "", "name_original": null, "highway": "footway", "status": "unnamed", "description": "unnamed" }, "geometry": { "type": "LineString", "coordinates": [ [ 14.4195126, 40.6417015 ], [ 14.4195433, 40.6416423 ] ] } },
{ "type": "Feature", "properties": { "name": "", "name_manual": "", "name_original": null, "highway": "footway", "status": "unnamed", "description": "unnamed" }, "geometry": { "type": "LineString", "coordinates": [ [ 14.4195126, 40.6417015 ], [ 14.4196268, 40.6417356 ], [ 14.4197711, 40.6417804 ] ] } },
{ "type": "Feature", "properties": { "name": "", "name_manual": "", "name_original": null, "highway": "footway", "status": "unnamed", "description": "unnamed" }, "geometry": { "type": "LineString", "coordinates": [ [ 14.4193944, 40.6419297 ], [ 14.4195126, 40.6417015 ] ] } },
{ "type": "Feature", "properties": { "name": "", "name_manual": "", "name_original": null, "highway": "footway", "status": "unnamed", "description": "unnamed" }, "geometry": { "type": "LineString", "coordinates": [ [ 14.4197813, 40.6417839 ], [ 14.4198514, 40.6418035 ] ] } },
{ "type": "Feature", "properties": { "name": "", "name_manual": "", "name_original": null, "highway": "steps", "status": "unnamed", "description": "unnamed" }, "geometry": { "type": "LineString", "coordinates": [ [ 14.4197711, 40.6417804 ], [ 14.4197566, 40.6418089 ] ] } },
{ "type": "Feature", "properties": { "name": "", "name_manual": "", "name_original": null, "highway": "steps", "status": "unnamed", "description": "unnamed" }, "geometry": { "type": "LineString", "coordinates": [ [ 14.4197711, 40.6417804 ], [ 14.4197857, 40.6417519 ] ] } },
{ "type": "Feature", "properties": { "name": "", "name_manual": "", "name_original": null, "highway": "footway", "status": "unnamed", "description": "unnamed" }, "geometry": { "type": "LineString", "coordinates": [ [ 14.4200496, 40.6412427 ], [ 14.4199219, 40.6414892 ], [ 14.4197857, 40.6417519 ], [ 14.4197914, 40.6417632 ], [ 14.4197813, 40.6417839 ], [ 14.4197712, 40.6418047 ], [ 14.4197566, 40.6418089 ], [ 14.4196955, 40.6419259 ] ] } },
{ "type": "Feature", "properties": { "name": "", "name_manual": "", "name_original": null, "highway": "footway", "status": "unnamed", "description": "unnamed" }, "geometry": { "type": "LineString", "coordinates": [ [ 14.419872, 40.6414743 ], [ 14.4199219, 40.6414892 ], [ 14.4200701, 40.6415334 ] ] } },
{ "type": "Feature", "properties": { "name": "", "name_manual": "", "name_original": null, "highway": "steps", "status": "unnamed", "description": "unnamed" }, "geometry": { "type": "LineString", "coordinates": [ [ 14.4197769, 40.6414459 ], [ 14.419872, 40.6414743 ] ] } },
{ "type": "Feature", "properties": { "name": "", "name_manual": "", "name_original": null, "highway": "steps", "status": "unnamed", "description": "unnamed" }, "geometry": { "type": "LineString", "coordinates": [ [ 14.4196797, 40.6414169 ], [ 14.4197769, 40.6414459 ] ] } },
{ "type": "Feature", "properties": { "name": "", "name_manual": "", "name_original": null, "highway": "steps", "status": "unnamed", "description": "unnamed" }, "geometry": { "type": "LineString", "coordinates": [ [ 14.4197046, 40.6413688 ], [ 14.4196797, 40.6414169 ] ] } },
{ "type": "Feature", "properties": { "name": "", "name_manual": "", "name_original": null, "highway": "footway", "status": "unnamed", "description": "unnamed" }, "geometry": { "type": "LineString", "coordinates": [ [ 14.4198969, 40.6414262 ], [ 14.4197046, 40.6413688 ] ] } },
{ "type": "Feature", "properties": { "name": "", "name_manual": "", "name_original": null, "highway": "steps", "status": "unnamed", "description": "unnamed" }, "geometry": { "type": "LineString", "coordinates": [ [ 14.419872, 40.6414743 ], [ 14.4198969, 40.6414262 ] ] } },
{ "type": "Feature", "properties": { "name": "", "name_manual": "", "name_original": null, "highway": "steps", "status": "unnamed", "description": "unnamed" }, "geometry": { "type": "LineString", "coordinates": [ [ 14.4226982, 40.6438892 ], [ 14.4226228, 40.6438235 ], [ 14.4225389, 40.6436209 ], [ 14.4225086, 40.6436251 ], [ 14.4224384, 40.6436084 ], [ 14.4224577, 40.6434017 ], [ 14.4222334, 40.6434142 ], [ 14.4222431, 40.6432242 ], [ 14.4222637, 40.6431302 ], [ 14.4222045, 40.6431146 ], [ 14.4218124, 40.6431198 ], [ 14.4216638, 40.6431271 ], [ 14.4215812, 40.6431699 ], [ 14.4215495, 40.6433018 ] ] } },
{ "type": "Feature", "properties": { "name": "", "name_manual": "", "name_original": null, "highway": "residential", "status": "unnamed", "description": "unnamed" }, "geometry": { "type": "LineString", "coordinates": [ [ 14.4214576, 40.6366281 ], [ 14.4212483, 40.6369049 ], [ 14.421214, 40.6370075 ], [ 14.4211174, 40.6371866 ], [ 14.421023, 40.6373445 ], [ 14.4208943, 40.6375285 ], [ 14.4207406, 40.6377443 ] ] } }
]
}
