{
"type": "FeatureCollection",
"name": "waypoints",
"crs": { "type": "name", "properties": { "name": "urn:ogc:def:crs:OGC:1.3:CRS84" } },
"features": [
{ "type": "Feature", "properties": { "id": "69f6ab1b", "name": "69f6ab1b", "date": "4/28/2026", "time": "12:04:45", "city": "3 Meta", "street": "via Cristoforo Colombo", "picture": "Positions_Images/69f6ab1b.Picture.102949.jpg", "description": "ID: 69f6ab1b\nDate: 4/28/2026\nTime: 12:04:45\nCity: 3 Meta\nStreet: via Cristoforo Colombo\nPicture: Positions_Images/69f6ab1b.Picture.102949.jpg" }, "geometry": { "type": "Point", "coordinates": [ 14.418002, 40.637295 ] } },
{ "type": "Feature", "properties": { "id": "bf090b87", "name": "bf090b87", "date": "4/28/2026", "time": "12:32:45", "city": "3 Meta", "street": "Vico I Scarpati", "picture": "Positions_Images/bf090b87.Picture.103305.jpg", "description": "ID: bf090b87\nDate: 4/28/2026\nTime: 12:32:45\nCity: 3 Meta\nStreet: Vico I Scarpati\nPicture: Positions_Images/bf090b87.Picture.103305.jpg" }, "geometry": { "type": "Point", "coordinates": [ 14.413239, 40.644619 ] } },
{ "type": "Feature", "properties": { "id": "64705bae", "name": "64705bae", "date": "4/28/2026", "time": "12:49:44", "city": "3 Meta", "street": "via Gradoni dei Pescatori", "picture": "Positions_Images/64705bae.Picture.105007.jpg", "description": "ID: 64705bae\nDate: 4/28/2026\nTime: 12:49:44\nCity: 3 Meta\nStreet: via Gradoni dei Pescatori\nPicture: Positions_Images/64705bae.Picture.105007.jpg" }, "geometry": { "type": "Point", "coordinates": [ 14.40753, 40.646105 ] } },
{ "type": "Feature", "properties": { "id": "9ca292ee", "name": "9ca292ee", "date": "4/28/2026", "time": "13:38:36", "city": "3 Meta", "street": "via Casa Astarita", "picture": "Positions_Images/9ca292ee.Picture.113858.jpg", "description": "ID: 9ca292ee\nDate: 4/28/2026\nTime: 13:38:36\nCity: 3 Meta\nStreet: via Casa Astarita\nPicture: Positions_Images/9ca292ee.Picture.113858.jpg" }, "geometry": { "type": "Point", "coordinates": [ 14.42396, 40.634517 ] } },
{ "type": "Feature", "properties": { "id": "8c025ec5", "name": "8c025ec5", "date": "4/28/2026", "time": "15:32:02", "city": "3 Meta", "street": "via Olivari", "picture": "Positions_Images/8c025ec5.Picture.133220.jpg", "description": "ID: 8c025ec5\nDate: 4/28/2026\nTime: 15:32:02\nCity: 3 Meta\nStreet: via Olivari\nPicture: Positions_Images/8c025ec5.Picture.133220.jpg" }, "geometry": { "type": "Point", "coordinates": [ 14.411589, 40.645536 ] } },
{ "type": "Feature", "properties": { "id": "ea23a083", "name": "ea23a083", "date": "4/28/2026", "time": "15:32:40", "city": "3 Meta", "street": "SS145", "picture": "Positions_Images/ea23a083.Picture.133307.jpg", "description": "ID: ea23a083\nDate: 4/28/2026\nTime: 15:32:40\nCity: 3 Meta\nStreet: SS145\nPicture: Positions_Images/ea23a083.Picture.133307.jpg" }, "geometry": { "type": "Point", "coordinates": [ 14.415095, 40.644604 ] } },
{ "type": "Feature", "properties": { "id": "a7ae9b2e", "name": "a7ae9b2e", "date": "4/28/2026", "time": "15:34:18", "city": "3 Meta", "street": "via Ponte Orazio", "picture": "Positions_Images/a7ae9b2e.Picture.133432.jpg", "description": "ID: a7ae9b2e\nDate: 4/28/2026\nTime: 15:34:18\nCity: 3 Meta\nStreet: via Ponte Orazio\nPicture: Positions_Images/a7ae9b2e.Picture.133432.jpg" }, "geometry": { "type": "Point", "coordinates": [ 14.420246, 40.635216 ] } }
]
}
