{
"type": "FeatureCollection",
"name": "strade_unexplored",
"crs": { "type": "name", "properties": { "name": "urn:ogc:def:crs:OGC:1.3:CRS84" } },
"features": [
{ "type": "Feature", "properties": { "name": "Corso Italia", "name_manual": "Corso Italia", "name_original": "Corso Italia", "highway": "primary", "status": "unexplored", "description": "unexplored" }, "geometry": { "type": "LineString", "coordinates": [ [ 14.3950933, 40.6296457 ], [ 14.3948181, 40.6295938 ], [ 14.3947692, 40.6295845 ], [ 14.3945201, 40.62954 ], [ 14.3944571, 40.6295288 ], [ 14.394411, 40.6295206 ], [ 14.394215, 40.6294823 ], [ 14.3940063, 40.6294415 ], [ 14.3938791, 40.6294161 ], [ 14.3937849, 40.6293973 ], [ 14.3937681, 40.6293939 ], [ 14.3934805, 40.6293365 ], [ 14.3933509, 40.6293156 ], [ 14.3932421, 40.629298 ], [ 14.3931878, 40.6292932 ], [ 14.3931112, 40.6292889 ], [ 14.3930306, 40.6292881 ], [ 14.3929988, 40.6292879 ], [ 14.3928261, 40.6292926 ], [ 14.3925627, 40.6292997 ], [ 14.3925438, 40.6293004 ], [ 14.3925036, 40.6293017 ], [ 14.392376, 40.629306 ], [ 14.3922645, 40.6293097 ], [ 14.3921035, 40.6293129 ], [ 14.3920399, 40.629315 ], [ 14.3918144, 40.6293198 ], [ 14.3914955, 40.6293291 ], [ 14.3914856, 40.6293289 ], [ 14.3910619, 40.6293472 ], [ 14.3907807, 40.6293634 ], [ 14.390736, 40.6293673 ], [ 14.3906195, 40.6293778 ], [ 14.390476, 40.6293866 ], [ 14.3903826, 40.6293895 ], [ 14.3902852, 40.6293891 ], [ 14.3902135, 40.6293864 ], [ 14.3901755, 40.629385 ], [ 14.3901248, 40.6293807 ], [ 14.3900631, 40.629371 ], [ 14.3900134, 40.6293571 ], [ 14.3899666, 40.6293406 ], [ 14.3899222, 40.629322 ], [ 14.3898791, 40.629299 ], [ 14.3897265, 40.6292211 ], [ 14.3895227, 40.6291108 ] ] } },
{ "type": "Feature", "properties": { "name": "Via Privata Rubinacci", "name_manual": "Via Privata Rubinacci", "name_original": "Via Privata Rubinacci", "highway": "residential", "status": "unexplored", "description": "unexplored" }, "geometry": { "type": "LineString", "coordinates": [ [ 14.3935865, 40.6273707 ], [ 14.3935563, 40.6274168 ], [ 14.3932728, 40.6278472 ], [ 14.3930675, 40.6281624 ], [ 14.3929871, 40.6282872 ], [ 14.3928786, 40.6283686 ], [ 14.3927979, 40.6284225 ], [ 14.392739, 40.6284505 ], [ 14.3926651, 40.6284743 ], [ 14.3926018, 40.6284773 ], [ 14.3925118, 40.6284651 ], [ 14.3924428, 40.6284546 ], [ 14.392203, 40.6284175 ], [ 14.3921239, 40.628395 ], [ 14.3920543, 40.6283461 ], [ 14.3919551, 40.6282557 ], [ 14.3919202, 40.6282387 ], [ 14.3918615, 40.6282268 ], [ 14.3918144, 40.6282238 ], [ 14.3917936, 40.628227 ], [ 14.3917707, 40.6282387 ], [ 14.3917378, 40.6282764 ], [ 14.3917127, 40.6283367 ], [ 14.3917166, 40.6283764 ], [ 14.3917331, 40.6284489 ], [ 14.3917647, 40.6285173 ], [ 14.3918217, 40.6285925 ], [ 14.3918706, 40.6286372 ], [ 14.3919269, 40.628678 ], [ 14.3919832, 40.6287095 ], [ 14.3920349, 40.6287202 ], [ 14.392114, 40.6287161 ], [ 14.3922441, 40.628709 ], [ 14.3923795, 40.6287095 ], [ 14.3928979, 40.6287278 ], [ 14.3929556, 40.6287267 ], [ 14.3930675, 40.628711 ], [ 14.3931346, 40.6286922 ], [ 14.3932036, 40.6286641 ], [ 14.3932655, 40.6286278 ], [ 14.3933049, 40.6286046 ], [ 14.3934832, 40.6284725 ], [ 14.3936475, 40.628337 ], [ 14.3938574, 40.6281863 ], [ 14.3940116, 40.6280764 ], [ 14.3941961, 40.6279389 ], [ 14.3942636, 40.6278815 ], [ 14.3943096, 40.6278675 ], [ 14.3943448, 40.6278681 ], [ 14.3943752, 40.6278762 ], [ 14.3944093, 40.6278982 ], [ 14.3944237, 40.6279172 ], [ 14.3944306, 40.6279374 ] ] } },
{ "type": "Feature", "properties": { "name": "Via dei Geranei", "name_manual": "Via dei Geranei", "name_original": "Via dei Geranei", "highway": "tertiary", "status": "unexplored", "description": "unexplored" }, "geometry": { "type": "LineString", "coordinates": [ [ 14.3950933, 40.6296457 ], [ 14.3951077, 40.6296024 ], [ 14.3951118, 40.6295907 ], [ 14.3951457, 40.6294932 ], [ 14.3951481, 40.6294849 ], [ 14.3951546, 40.6294623 ], [ 14.3951893, 40.6293559 ], [ 14.3952217, 40.6293198 ], [ 14.3952811, 40.6292537 ], [ 14.3954581, 40.6291573 ], [ 14.3955492, 40.6291242 ], [ 14.3956123, 40.6291064 ], [ 14.3956773, 40.6290919 ], [ 14.3958295, 40.6290791 ], [ 14.3960373, 40.6290729 ], [ 14.3963401, 40.6290642 ], [ 14.3965591, 40.6290634 ], [ 14.3966371, 40.6290631 ], [ 14.3966972, 40.6290568 ], [ 14.3968052, 40.6290448 ], [ 14.3969513, 40.6290232 ] ] } },
{ "type": "Feature", "properties": { "name": "Viale Don Minzoni", "name_manual": "Viale Don Minzoni", "name_original": "Viale Don Minzoni", "highway": "residential", "status": "unexplored", "description": "unexplored" }, "geometry": { "type": "LineString", "coordinates": [ [ 14.398143, 40.6307501 ], [ 14.3981629, 40.6306793 ], [ 14.3982884, 40.6303208 ], [ 14.398293, 40.6303042 ], [ 14.3983214, 40.6302122 ] ] } },
{ "type": "Feature", "properties": { "name": "Viale Don Minzoni", "name_manual": "Viale Don Minzoni", "name_original": "Viale Don Minzoni", "highway": "residential", "status": "unexplored", "description": "unexplored" }, "geometry": { "type": "LineString", "coordinates": [ [ 14.3975352, 40.631112 ], [ 14.3975595, 40.6310572 ], [ 14.3975622, 40.6310531 ], [ 14.3976436, 40.6309275 ], [ 14.3977185, 40.6307958 ], [ 14.3977476, 40.6307658 ], [ 14.3977919, 40.6307395 ], [ 14.3978338, 40.6307311 ], [ 14.3979015, 40.6307283 ], [ 14.3980091, 40.6307352 ], [ 14.398143, 40.6307501 ] ] } },
{ "type": "Feature", "properties": { "name": "Via Francesco de Simone", "name_manual": "Via Francesco de Simone", "name_original": "Via Francesco de Simone", "highway": "service", "status": "unexplored", "description": "unexplored" }, "geometry": { "type": "LineString", "coordinates": [ [ 14.4064556, 40.6282362 ], [ 14.4064434, 40.6282253 ], [ 14.4064229, 40.6282072 ], [ 14.4063853, 40.6281899 ], [ 14.4062452, 40.6281543 ], [ 14.4061426, 40.6281344 ], [ 14.406087, 40.6281294 ], [ 14.4060468, 40.6281339 ], [ 14.4060031, 40.6281456 ], [ 14.4057953, 40.6282123 ], [ 14.4057054, 40.6282331 ], [ 14.4056324, 40.6282428 ], [ 14.4055488, 40.6282441 ], [ 14.4054664, 40.6282451 ], [ 14.4054083, 40.6282418 ], [ 14.405354, 40.6282255 ], [ 14.4052964, 40.6281942 ], [ 14.4050764, 40.6280489 ], [ 14.4048156, 40.6278986 ] ] } },
{ "type": "Feature", "properties": { "name": "Corso Italia", "name_manual": "Corso Italia", "name_original": "Corso Italia", "highway": "residential", "status": "unexplored", "description": "unexplored" }, "geometry": { "type": "LineString", "coordinates": [ [ 14.4072547, 40.6319826 ], [ 14.4072704, 40.6319725 ], [ 14.407324, 40.6319379 ], [ 14.4073605, 40.6319144 ], [ 14.4073818, 40.6319007 ], [ 14.4074906, 40.6318262 ], [ 14.4075544, 40.6317799 ], [ 14.407579, 40.6317598 ], [ 14.4076208, 40.6317304 ], [ 14.4077075, 40.6316666 ], [ 14.4077261, 40.6316456 ], [ 14.4077612, 40.6315994 ], [ 14.4077839, 40.6315763 ], [ 14.4078617, 40.6314691 ], [ 14.4078928, 40.6314308 ], [ 14.4079567, 40.6313369 ], [ 14.4079964, 40.6312572 ], [ 14.408014, 40.6312025 ], [ 14.4080257, 40.6311735 ], [ 14.4080337, 40.6311308 ] ] } },
{ "type": "Feature", "properties": { "name": "Corso Italia", "name_manual": "Corso Italia", "name_original": "Corso Italia", "highway": "residential", "status": "unexplored", "description": "unexplored" }, "geometry": { "type": "LineString", "coordinates": [ [ 14.4017227, 40.6305918 ], [ 14.4018159, 40.6305316 ], [ 14.4019103, 40.6304367 ], [ 14.4019669, 40.6303683 ], [ 14.4019946, 40.6303028 ], [ 14.4020171, 40.6302398 ], [ 14.4020272, 40.6302198 ], [ 14.4020452, 40.6301834 ] ] } },
{ "type": "Feature", "properties": { "name": "Via San Sergio", "name_manual": "Via San Sergio", "name_original": "Via San Sergio", "highway": "residential", "status": "unexplored", "description": "unexplored" }, "geometry": { "type": "LineString", "coordinates": [ [ 14.4070197, 40.6308994 ], [ 14.4069761, 40.6309303 ], [ 14.4068961, 40.6309825 ], [ 14.406786, 40.6310365 ], [ 14.4066245, 40.6311157 ] ] } },
{ "type": "Feature", "properties": { "name": "Via Nuovo Rione Cappuccini", "name_manual": "Via Nuovo Rione Cappuccini", "name_original": "Via Nuovo Rione Cappuccini", "highway": "footway", "status": "unexplored", "description": "unexplored" }, "geometry": { "type": "LineString", "coordinates": [ [ 14.3914346, 40.636175 ], [ 14.3914076, 40.6362166 ], [ 14.3906498, 40.6358845 ], [ 14.3906631, 40.6358444 ] ] } },
{ "type": "Feature", "properties": { "name": "Via Nastro d'Argento", "name_manual": "Via Nastro d'Argento", "name_original": "Via Nastro d'Argento", "highway": "tertiary", "status": "unexplored", "description": "unexplored" }, "geometry": { "type": "LineString", "coordinates": [ [ 14.4061138, 40.6230824 ], [ 14.4060783, 40.6230337 ], [ 14.4059803, 40.6228993 ], [ 14.4058144, 40.6227792 ], [ 14.405602, 40.6226798 ], [ 14.4053078, 40.6225442 ], [ 14.4050858, 40.6224109 ], [ 14.4050178, 40.6223637 ], [ 14.4049698, 40.6223305 ], [ 14.4048627, 40.6222408 ], [ 14.404694, 40.622073 ], [ 14.4045353, 40.621878 ], [ 14.4045023, 40.6218274 ], [ 14.4044684, 40.6217754 ], [ 14.4043982, 40.6216416 ], [ 14.4043723, 40.621581 ], [ 14.4043284, 40.6214589 ], [ 14.4042885, 40.6213237 ], [ 14.4042718, 40.6212632 ], [ 14.4042639, 40.621211 ], [ 14.404259, 40.621167 ], [ 14.404259, 40.6211324 ], [ 14.4042724, 40.6210578 ], [ 14.4043204, 40.6208135 ], [ 14.404365, 40.6205824 ], [ 14.4043743, 40.6205373 ], [ 14.4043925, 40.6203512 ], [ 14.4044052, 40.6202213 ], [ 14.4044193, 40.6200513 ], [ 14.404422, 40.6199739 ], [ 14.4044233, 40.6198973 ], [ 14.4044193, 40.6198396 ], [ 14.4044112, 40.6197785 ], [ 14.4043929, 40.6196924 ], [ 14.4042858, 40.6193464 ], [ 14.4041676, 40.6189993 ], [ 14.4041325, 40.6188857 ], [ 14.4041149, 40.6187992 ], [ 14.4041105, 40.6187737 ], [ 14.4040974, 40.6186979 ], [ 14.4040923, 40.6186338 ], [ 14.4040952, 40.6185702 ], [ 14.4040966, 40.6184581 ], [ 14.4041014, 40.6184088 ], [ 14.4041182, 40.6183294 ], [ 14.4041484, 40.6182291 ], [ 14.4041808, 40.6181117 ], [ 14.4042057, 40.6180029 ], [ 14.4042114, 40.6179324 ], [ 14.4042111, 40.6177996 ], [ 14.4041958, 40.6176971 ], [ 14.4041719, 40.61757 ], [ 14.4041705, 40.6175099 ], [ 14.4041738, 40.6174497 ], [ 14.4041785, 40.6173992 ], [ 14.4041914, 40.6173528 ], [ 14.4042253, 40.6173044 ], [ 14.404258, 40.6172773 ], [ 14.4042964, 40.6172578 ], [ 14.4043487, 40.6172439 ], [ 14.4043984, 40.6172343 ], [ 14.4044608, 40.6172288 ], [ 14.4045369, 40.6172319 ], [ 14.404614, 40.6172436 ], [ 14.4046759, 40.6172664 ], [ 14.4047171, 40.6172924 ], [ 14.4047582, 40.6173311 ], [ 14.4047878, 40.617377 ], [ 14.4047977, 40.6174047 ], [ 14.4048063, 40.6174405 ], [ 14.4048104, 40.6174774 ], [ 14.4048067, 40.6175393 ], [ 14.4047861, 40.6176687 ], [ 14.4047667, 40.6178045 ], [ 14.4047676, 40.617826 ], [ 14.4047699, 40.6178542 ], [ 14.4047736, 40.6178816 ], [ 14.4047774, 40.6179091 ], [ 14.4047854, 40.6179409 ], [ 14.4047975, 40.6179734 ], [ 14.4048112, 40.6180003 ], [ 14.4048271, 40.6180247 ], [ 14.4048493, 40.6180521 ], [ 14.4048773, 40.6180799 ], [ 14.4049261, 40.6181213 ], [ 14.405245, 40.6183968 ], [ 14.4053194, 40.6184636 ], [ 14.4053477, 40.6184955 ], [ 14.4053898, 40.6185537 ], [ 14.4054452, 40.618646 ], [ 14.4055994, 40.618908 ], [ 14.4056318, 40.6189504 ], [ 14.4056548, 40.6189755 ], [ 14.4056866, 40.6190054 ], [ 14.4057302, 40.6190395 ], [ 14.4057816, 40.6190722 ], [ 14.4058067, 40.6190846 ], [ 14.4059066, 40.6191343 ], [ 14.4059853, 40.6191716 ], [ 14.4060678, 40.6192095 ], [ 14.4061488, 40.6192394 ], [ 14.4061966, 40.6192525 ], [ 14.4062576, 40.6192648 ], [ 14.4063484, 40.6192748 ], [ 14.4064315, 40.6192756 ], [ 14.4064931, 40.6192711 ], [ 14.4065527, 40.6192627 ], [ 14.4066279, 40.6192457 ], [ 14.4067116, 40.6192172 ], [ 14.4067409, 40.619204 ], [ 14.4067573, 40.6191967 ], [ 14.4068346, 40.619152 ], [ 14.4068782, 40.6191087 ], [ 14.4069178, 40.6190695 ], [ 14.406952, 40.6190298 ], [ 14.4070102, 40.6189564 ], [ 14.4070577, 40.6189025 ], [ 14.4070924, 40.6188704 ], [ 14.4071279, 40.6188403 ], [ 14.4071885, 40.6187946 ], [ 14.4072164, 40.6187738 ], [ 14.4072472, 40.6187555 ], [ 14.407329, 40.6187243 ], [ 14.4075373, 40.6186562 ], [ 14.4075788, 40.618638 ], [ 14.4076214, 40.6186146 ], [ 14.4076574, 40.61859 ], [ 14.4076919, 40.618561 ], [ 14.4078434, 40.6183517 ], [ 14.4078961, 40.6182734 ], [ 14.4079554, 40.6182098 ], [ 14.4080723, 40.6180948 ], [ 14.4083682, 40.6178587 ], [ 14.4083921, 40.6178405 ], [ 14.4084167, 40.6178224 ], [ 14.4084488, 40.6178043 ], [ 14.4084664, 40.6177956 ], [ 14.4084829, 40.6177897 ], [ 14.4085118, 40.6177824 ], [ 14.4085308, 40.6177803 ], [ 14.4085508, 40.6177803 ], [ 14.4085696, 40.6177834 ], [ 14.4085876, 40.6177872 ], [ 14.4086186, 40.6177965 ], [ 14.4086565, 40.6178129 ], [ 14.4086821, 40.6178279 ], [ 14.4088073, 40.6179182 ], [ 14.4088251, 40.6179336 ], [ 14.4088409, 40.6179502 ], [ 14.4088543, 40.6179701 ], [ 14.408867, 40.617993 ], [ 14.4089435, 40.6181553 ], [ 14.4090156, 40.6182962 ], [ 14.4090363, 40.6183243 ], [ 14.4090609, 40.6183472 ], [ 14.4090848, 40.6183634 ], [ 14.4091106, 40.6183771 ], [ 14.4091384, 40.6183868 ], [ 14.4091823, 40.6183942 ], [ 14.4092077, 40.6183945 ], [ 14.4092379, 40.618392 ], [ 14.4092616, 40.6183876 ], [ 14.4092849, 40.6183818 ], [ 14.4093135, 40.6183716 ], [ 14.4093492, 40.6183534 ], [ 14.4094065, 40.6183144 ], [ 14.4094596, 40.6182747 ], [ 14.4094982, 40.6182404 ], [ 14.4095136, 40.6182239 ], [ 14.4095272, 40.6182048 ], [ 14.4095345, 40.6181902 ], [ 14.4095409, 40.6181706 ], [ 14.4095431, 40.6181573 ], [ 14.4095437, 40.6181457 ], [ 14.4095364, 40.6181062 ], [ 14.4095164, 40.61807 ], [ 14.4094923, 40.6180452 ], [ 14.4094574, 40.6180218 ], [ 14.4092954, 40.6179283 ], [ 14.4091649, 40.6178406 ], [ 14.4090863, 40.6177818 ], [ 14.4090357, 40.6177359 ], [ 14.4089918, 40.6176891 ], [ 14.4089564, 40.6176455 ], [ 14.4089327, 40.6176124 ], [ 14.408917, 40.6175877 ], [ 14.4089023, 40.6175613 ], [ 14.4088246, 40.6173457 ], [ 14.4087995, 40.6173038 ], [ 14.4087485, 40.6172383 ], [ 14.4087102, 40.6171979 ], [ 14.408682, 40.6171716 ], [ 14.4086475, 40.6171501 ], [ 14.4086051, 40.6171348 ], [ 14.408565, 40.6171283 ], [ 14.4085022, 40.6171235 ], [ 14.4084607, 40.6171237 ], [ 14.4084165, 40.6171267 ], [ 14.4083565, 40.6171356 ], [ 14.4083007, 40.6171492 ], [ 14.4082373, 40.6171716 ], [ 14.4081821, 40.6171929 ], [ 14.4081339, 40.6172197 ], [ 14.4081078, 40.6172385 ], [ 14.4080817, 40.6172609 ], [ 14.4079952, 40.6173742 ], [ 14.4077982, 40.6176535 ], [ 14.4077671, 40.6176905 ], [ 14.4077364, 40.617721 ], [ 14.40769, 40.6177595 ], [ 14.4076536, 40.6177846 ], [ 14.4076213, 40.6178019 ], [ 14.4075871, 40.6178154 ], [ 14.4075509, 40.6178258 ], [ 14.4074933, 40.6178351 ], [ 14.4074662, 40.6178367 ], [ 14.4074388, 40.6178366 ], [ 14.4074056, 40.617834 ], [ 14.4073745, 40.6178292 ], [ 14.4073134, 40.6178123 ], [ 14.4072758, 40.6177962 ], [ 14.4072368, 40.6177737 ], [ 14.4071931, 40.6177359 ], [ 14.4071592, 40.6176855 ], [ 14.4071203, 40.6175966 ], [ 14.4070807, 40.6174896 ], [ 14.4070384, 40.6173984 ], [ 14.4070011, 40.6173325 ], [ 14.4068983, 40.6171821 ], [ 14.4068447, 40.6171083 ], [ 14.4067976, 40.6170356 ], [ 14.4067831, 40.6170121 ], [ 14.4067731, 40.6169911 ], [ 14.4067624, 40.616956 ], [ 14.4067561, 40.6169262 ], [ 14.4067529, 40.6168883 ], [ 14.4067512, 40.6168619 ], [ 14.4067536, 40.6168351 ], [ 14.4067636, 40.6167994 ], [ 14.4067771, 40.6167723 ], [ 14.406799, 40.6167403 ], [ 14.4068491, 40.6166906 ], [ 14.4069052, 40.6166432 ], [ 14.4069593, 40.6166095 ], [ 14.4070231, 40.6165714 ], [ 14.407048, 40.6165587 ], [ 14.4070903, 40.6165392 ], [ 14.4071165, 40.6165298 ], [ 14.4071557, 40.616519 ], [ 14.4071786, 40.6165138 ], [ 14.4072007, 40.6165104 ], [ 14.407225, 40.6165081 ], [ 14.4072744, 40.6165084 ], [ 14.4073355, 40.6165072 ], [ 14.4076561, 40.6165466 ], [ 14.407724, 40.6165547 ], [ 14.4077844, 40.6165576 ], [ 14.4078533, 40.6165486 ], [ 14.4084037, 40.616438 ], [ 14.4085408, 40.6164097 ], [ 14.4086203, 40.6163983 ], [ 14.4086947, 40.6163916 ], [ 14.4087711, 40.6163875 ], [ 14.409003, 40.6163754 ], [ 14.4091044, 40.6163761 ], [ 14.4091438, 40.6163784 ], [ 14.4092154, 40.6163934 ], [ 14.4092962, 40.6164125 ], [ 14.4097741, 40.6165327 ], [ 14.4100808, 40.6166278 ], [ 14.4104576, 40.6167204 ], [ 14.4105635, 40.6167464 ], [ 14.4106634, 40.6167621 ], [ 14.4108014, 40.6167783 ], [ 14.4108907, 40.6167922 ], [ 14.4109296, 40.616802 ] ] } },
{ "type": "Feature", "properties": { "name": "Piazzale della Libertà", "name_manual": "Piazzale della Libertà", "name_original": "Piazzale della Libertà", "highway": "unclassified", "status": "unexplored", "description": "unexplored" }, "geometry": { "type": "LineString", "coordinates": [ [ 14.3984123, 40.6317783 ], [ 14.398386, 40.6317735 ], [ 14.3983623, 40.6317637 ], [ 14.3983382, 40.6317454 ], [ 14.3983232, 40.6317221 ], [ 14.3983235, 40.6316964 ], [ 14.3983393, 40.6316724 ], [ 14.3983594, 40.6316496 ], [ 14.3983712, 40.6316367 ], [ 14.3983846, 40.6316297 ], [ 14.3984005, 40.6316221 ], [ 14.3984336, 40.6316206 ], [ 14.3984656, 40.631627 ], [ 14.3984934, 40.6316407 ], [ 14.3985141, 40.6316603 ], [ 14.3985256, 40.6316839 ], [ 14.3985269, 40.631709 ], [ 14.3985202, 40.6317288 ], [ 14.3985071, 40.6317467 ], [ 14.3984883, 40.6317615 ], [ 14.3984652, 40.631772 ], [ 14.3984393, 40.6317778 ], [ 14.3984123, 40.6317783 ] ] } },
{ "type": "Feature", "properties": { "name": "Via Vincenzo C.A. Ferraro", "name_manual": "Via Vincenzo C.A. Ferraro", "name_original": "Via Vincenzo C.A. Ferraro", "highway": "tertiary", "status": "unexplored", "description": "unexplored" }, "geometry": { "type": "LineString", "coordinates": [ [ 14.4018445, 40.6246523 ], [ 14.4018753, 40.6246767 ], [ 14.4020037, 40.6247768 ], [ 14.4020655, 40.6248123 ], [ 14.4021193, 40.6248471 ], [ 14.4022161, 40.6249001 ], [ 14.4024092, 40.6249946 ], [ 14.4024619, 40.6250176 ], [ 14.4025908, 40.6250678 ], [ 14.4026626, 40.6250868 ], [ 14.4027542, 40.6250707 ], [ 14.4032679, 40.6249455 ], [ 14.4034491, 40.6248875 ], [ 14.4035497, 40.624823 ], [ 14.4036593, 40.6247428 ], [ 14.4037888, 40.6247053 ], [ 14.4039946, 40.6246605 ], [ 14.4043206, 40.6246736 ], [ 14.4049243, 40.6246466 ], [ 14.4049727, 40.6246612 ], [ 14.4052461, 40.6246742 ], [ 14.4058181, 40.6246697 ], [ 14.4060574, 40.6246508 ], [ 14.4063044, 40.6246327 ], [ 14.4064316, 40.6246202 ], [ 14.4064765, 40.6246096 ], [ 14.4065208, 40.6245917 ], [ 14.4066742, 40.6245068 ], [ 14.406757, 40.6244519 ], [ 14.4067698, 40.6244301 ], [ 14.4067767, 40.6244045 ], [ 14.4067766, 40.6243847 ], [ 14.4067726, 40.6243668 ], [ 14.406757, 40.6243377 ], [ 14.4067355, 40.6243125 ], [ 14.4066868, 40.6242562 ], [ 14.4065504, 40.6240047 ], [ 14.4063813, 40.6236693 ], [ 14.4062458, 40.6233535 ], [ 14.4061138, 40.6230824 ] ] } },
{ "type": "Feature", "properties": { "name": "Via dei Geranei", "name_manual": "Via dei Geranei", "name_original": "Via dei Geranei", "highway": "service", "status": "unexplored", "description": "unexplored" }, "geometry": { "type": "LineString", "coordinates": [ [ 14.3952811, 40.6292537 ], [ 14.3952642, 40.6292273 ], [ 14.3952396, 40.6291888 ], [ 14.3952984, 40.6288758 ], [ 14.3955713, 40.6287639 ], [ 14.3956922, 40.6285664 ], [ 14.3954567, 40.6284733 ] ] } },
{ "type": "Feature", "properties": { "name": "Via Belvedere", "name_manual": "Via Belvedere", "name_original": "Via Belvedere", "highway": "unclassified", "status": "unexplored", "description": "unexplored" }, "geometry": { "type": "LineString", "coordinates": [ [ 14.3964352, 40.6228904 ], [ 14.3964167, 40.6228902 ], [ 14.3962868, 40.6228888 ], [ 14.3962788, 40.6229376 ], [ 14.3962439, 40.6229885 ], [ 14.3961554, 40.6229906 ], [ 14.3960006, 40.6229474 ], [ 14.3957592, 40.6228334 ], [ 14.3954964, 40.6226909 ], [ 14.3953891, 40.6226889 ], [ 14.3953346, 40.6227198 ], [ 14.395332, 40.6227687 ], [ 14.3953802, 40.6228705 ], [ 14.3955412, 40.6231412 ], [ 14.3955439, 40.6232064 ], [ 14.3954875, 40.6232552 ], [ 14.3953784, 40.6232976 ], [ 14.3952523, 40.6233179 ], [ 14.3951155, 40.6233668 ], [ 14.395035, 40.6234421 ], [ 14.3949511, 40.623581 ], [ 14.3948929, 40.6237231 ], [ 14.394876, 40.623809 ], [ 14.3948714, 40.6238941 ], [ 14.3948921, 40.6239474 ], [ 14.3949645, 40.6240594 ], [ 14.3950753, 40.6242748 ], [ 14.3951093, 40.6243403 ], [ 14.3951093, 40.6244136 ], [ 14.3950772, 40.6245093 ], [ 14.3950216, 40.624572 ], [ 14.394622, 40.6248041 ], [ 14.3945308, 40.6248611 ], [ 14.3945093, 40.6249303 ], [ 14.3945488, 40.6250243 ], [ 14.3946408, 40.6251461 ], [ 14.3947902, 40.6252768 ], [ 14.3949549, 40.6253219 ], [ 14.3949814, 40.6253822 ], [ 14.3950136, 40.625484 ], [ 14.3949511, 40.6255557 ], [ 14.3948392, 40.6255614 ], [ 14.3947534, 40.6255186 ], [ 14.3942323, 40.6252544 ], [ 14.3938736, 40.6251298 ], [ 14.3934981, 40.6250341 ], [ 14.3930448, 40.6249323 ], [ 14.3924601, 40.6247679 ], [ 14.3916233, 40.6245252 ], [ 14.3912335, 40.6243988 ], [ 14.3910637, 40.6243379 ], [ 14.3909934, 40.6243126 ], [ 14.3909023, 40.62428 ], [ 14.3908415, 40.6242506 ], [ 14.3907983, 40.6242252 ], [ 14.390753, 40.6241936 ], [ 14.3907046, 40.6241524 ], [ 14.3906453, 40.6240865 ], [ 14.3906054, 40.6240248 ], [ 14.3905748, 40.6239547 ], [ 14.3905584, 40.623887 ], [ 14.3905495, 40.6238136 ], [ 14.3905467, 40.62374 ] ] } },
{ "type": "Feature", "properties": { "name": "Corso Italia", "name_manual": "Corso Italia", "name_original": "Corso Italia", "highway": "primary", "status": "unexplored", "description": "unexplored" }, "geometry": { "type": "LineString", "coordinates": [ [ 14.4067441, 40.6308762 ], [ 14.4066041, 40.6308637 ], [ 14.4062243, 40.6308238 ], [ 14.4060872, 40.630811 ], [ 14.4059729, 40.6308012 ], [ 14.4053296, 40.6307383 ], [ 14.4049223, 40.6306856 ], [ 14.4046305, 40.6306443 ], [ 14.4043695, 40.6306073 ], [ 14.4041763, 40.6305808 ], [ 14.4040992, 40.6305716 ], [ 14.4038446, 40.6305365 ], [ 14.403787, 40.6305284 ], [ 14.4037392, 40.6305218 ], [ 14.4035696, 40.6304984 ], [ 14.4035281, 40.6304922 ], [ 14.4032601, 40.6304493 ], [ 14.40321, 40.6304422 ], [ 14.4028975, 40.63038 ], [ 14.4026055, 40.6303262 ], [ 14.40255, 40.6303151 ], [ 14.4023443, 40.6302711 ], [ 14.4021844, 40.6302206 ], [ 14.4021417, 40.6302083 ], [ 14.4020452, 40.6301834 ], [ 14.4019227, 40.6301524 ] ] } },
{ "type": "Feature", "properties": { "name": "Via San Sergio", "name_manual": "Via San Sergio", "name_original": "Via San Sergio", "highway": "residential", "status": "unexplored", "description": "unexplored" }, "geometry": { "type": "LineString", "coordinates": [ [ 14.4052604, 40.6316207 ], [ 14.4053594, 40.6315921 ], [ 14.4054841, 40.631567 ], [ 14.4056432, 40.6315235 ] ] } },
{ "type": "Feature", "properties": { "name": "Via San Sergio", "name_manual": "Via San Sergio", "name_original": "Via San Sergio", "highway": "residential", "status": "unexplored", "description": "unexplored" }, "geometry": { "type": "LineString", "coordinates": [ [ 14.4066245, 40.6311157 ], [ 14.4065981, 40.6310211 ], [ 14.4065966, 40.6310073 ], [ 14.4065886, 40.6309175 ], [ 14.4066041, 40.6308637 ] ] } },
{ "type": "Feature", "properties": { "name": "Via San Sergio", "name_manual": "Via San Sergio", "name_original": "Via San Sergio", "highway": "service", "status": "unexplored", "description": "unexplored" }, "geometry": { "type": "LineString", "coordinates": [ [ 14.4008006, 40.6338911 ], [ 14.4011867, 40.6340957 ], [ 14.4015847, 40.6343001 ], [ 14.4016492, 40.6343383 ], [ 14.4018491, 40.63452 ], [ 14.4020167, 40.634637 ], [ 14.4022085, 40.6347429 ], [ 14.4025256, 40.6348625 ], [ 14.4025277, 40.6347749 ], [ 14.4025498, 40.6347006 ], [ 14.4026081, 40.6346095 ], [ 14.4026752, 40.6345271 ], [ 14.4029045, 40.634232 ], [ 14.4031279, 40.6339603 ], [ 14.4031534, 40.6339359 ], [ 14.4031848, 40.6339058 ], [ 14.4033095, 40.6337343 ], [ 14.4034375, 40.63355 ], [ 14.4035004, 40.6334631 ], [ 14.4035377, 40.6334441 ], [ 14.4035882, 40.6334564 ], [ 14.4038032, 40.6335155 ], [ 14.4039653, 40.6335623 ], [ 14.4040646, 40.6335882 ], [ 14.4041299, 40.6335966 ], [ 14.4041792, 40.6335903 ], [ 14.4042201, 40.6335699 ], [ 14.4042573, 40.6335068 ], [ 14.4043096, 40.6334025 ], [ 14.4044377, 40.6331551 ], [ 14.4044737, 40.6330634 ], [ 14.4044939, 40.6330118 ], [ 14.4045131, 40.6329629 ], [ 14.4045846, 40.6328138 ], [ 14.4046028, 40.6327758 ], [ 14.4046117, 40.6327572 ], [ 14.4046947, 40.6325891 ], [ 14.4047692, 40.6324488 ], [ 14.4048281, 40.6323567 ], [ 14.4050198, 40.6320476 ], [ 14.4050302, 40.6319995 ], [ 14.4050509, 40.6319502 ], [ 14.4051943, 40.6316843 ], [ 14.4052227, 40.6316577 ], [ 14.4052414, 40.6316415 ], [ 14.4052604, 40.6316207 ] ] } },
{ "type": "Feature", "properties": { "name": "Via Nastro Azzurro", "name_manual": "Via Nastro Azzurro", "name_original": "Via Nastro Azzurro", "highway": "primary", "status": "unexplored", "description": "unexplored" }, "geometry": { "type": "LineString", "coordinates": [ [ 14.4077612, 40.6114858 ], [ 14.4077641, 40.611426 ], [ 14.4077692, 40.6113443 ], [ 14.4077696, 40.611305 ], [ 14.407764, 40.611262 ], [ 14.4077444, 40.6112354 ], [ 14.4077188, 40.6112186 ], [ 14.4076881, 40.6112081 ], [ 14.4076584, 40.611206 ], [ 14.4076234, 40.6112148 ], [ 14.4075858, 40.6112406 ], [ 14.4075676, 40.6112761 ], [ 14.4075579, 40.6113186 ], [ 14.4075468, 40.6114628 ], [ 14.4075373, 40.6115179 ], [ 14.4075252, 40.6115792 ], [ 14.407514, 40.6116273 ], [ 14.4074846, 40.6117045 ], [ 14.4074499, 40.6117808 ], [ 14.4074246, 40.6118285 ], [ 14.4073463, 40.6119368 ], [ 14.4072589, 40.6120337 ], [ 14.4071907, 40.6120889 ], [ 14.4071258, 40.6121325 ], [ 14.4070545, 40.6121728 ], [ 14.406995, 40.6121972 ], [ 14.4069421, 40.6122117 ], [ 14.4068978, 40.6122163 ], [ 14.4068592, 40.612214 ], [ 14.4068172, 40.6122067 ], [ 14.4067774, 40.6121949 ], [ 14.4067237, 40.6121703 ], [ 14.4066616, 40.6121349 ], [ 14.4065909, 40.6120848 ], [ 14.4064882, 40.6120075 ], [ 14.4064709, 40.6119937 ], [ 14.4064075, 40.611947 ], [ 14.4062632, 40.6118475 ], [ 14.4062128, 40.6118211 ], [ 14.4061496, 40.6118011 ], [ 14.4060969, 40.6117888 ], [ 14.406022, 40.6117819 ], [ 14.4059414, 40.6117809 ], [ 14.4058717, 40.611791 ], [ 14.4057672, 40.6118166 ], [ 14.4057319, 40.6118248 ], [ 14.4056942, 40.6118289 ], [ 14.4056706, 40.6118279 ], [ 14.4056504, 40.6118243 ], [ 14.4056202, 40.6118089 ], [ 14.4056019, 40.6117891 ], [ 14.4055882, 40.6117638 ], [ 14.4055857, 40.6117326 ], [ 14.4055909, 40.6117008 ], [ 14.4056088, 40.6116443 ], [ 14.4056332, 40.6116042 ], [ 14.4056905, 40.6115457 ], [ 14.4057676, 40.6114843 ], [ 14.4058402, 40.6114413 ], [ 14.4058968, 40.6114101 ], [ 14.4060489, 40.6113399 ], [ 14.4061803, 40.6112837 ], [ 14.4062213, 40.6112603 ], [ 14.4062417, 40.6112385 ], [ 14.4062556, 40.6112161 ] ] } },
{ "type": "Feature", "properties": { "name": "Via Belvedere", "name_manual": "Via Belvedere", "name_original": "Via Belvedere", "highway": "unclassified", "status": "unexplored", "description": "unexplored" }, "geometry": { "type": "LineString", "coordinates": [ [ 14.4146303, 40.6091516 ], [ 14.4143267, 40.6091776 ], [ 14.4142395, 40.6091664 ], [ 14.4138627, 40.6090106 ], [ 14.4136059, 40.6089615 ], [ 14.4134112, 40.6089259 ], [ 14.4132788, 40.6089067 ], [ 14.413031, 40.6088468 ], [ 14.4126007, 40.6087907 ], [ 14.4124342, 40.608803 ] ] } },
{ "type": "Feature", "properties": { "name": "Vico Primo Rota", "name_manual": "Vico Primo Rota", "name_original": "Vico Primo Rota", "highway": "residential", "status": "unexplored", "description": "unexplored" }, "geometry": { "type": "LineString", "coordinates": [ [ 14.3897926, 40.6306663 ], [ 14.3897724, 40.6307431 ], [ 14.3897335, 40.6308117 ], [ 14.3895947, 40.6310087 ], [ 14.3895505, 40.6310776 ], [ 14.3894247, 40.6312355 ] ] } },
{ "type": "Feature", "properties": { "name": "Via Nuovo Rione Cappuccini", "name_manual": "Via Nuovo Rione Cappuccini", "name_original": "Via Nuovo Rione Cappuccini", "highway": "service", "status": "unexplored", "description": "unexplored" }, "geometry": { "type": "LineString", "coordinates": [ [ 14.3902687, 40.6349569 ], [ 14.3903159, 40.6349736 ], [ 14.3910708, 40.635248 ] ] } },
{ "type": "Feature", "properties": { "name": "Via Nuovo Rione Cappuccini", "name_manual": "Via Nuovo Rione Cappuccini", "name_original": "Via Nuovo Rione Cappuccini", "highway": "service", "status": "unexplored", "description": "unexplored" }, "geometry": { "type": "LineString", "coordinates": [ [ 14.3910708, 40.635248 ], [ 14.3911983, 40.6350584 ], [ 14.3912091, 40.6350434 ], [ 14.3912343, 40.6350098 ] ] } },
{ "type": "Feature", "properties": { "name": "Piazza Matteotti", "name_manual": "Piazza Matteotti", "name_original": "Piazza Matteotti", "highway": "residential", "status": "unexplored", "description": "unexplored" }, "geometry": { "type": "LineString", "coordinates": [ [ 14.3991676, 40.6308829 ], [ 14.3990917, 40.6308738 ], [ 14.398234, 40.6307599 ], [ 14.398143, 40.6307501 ] ] } },
{ "type": "Feature", "properties": { "name": "Corso Italia", "name_manual": "Corso Italia", "name_original": "Corso Italia", "highway": "primary", "status": "unexplored", "description": "unexplored" }, "geometry": { "type": "LineString", "coordinates": [ [ 14.3983214, 40.6302122 ], [ 14.3982073, 40.6301955 ], [ 14.3980698, 40.6301785 ], [ 14.3979228, 40.6301664 ], [ 14.3976746, 40.6301502 ], [ 14.3976083, 40.6301464 ], [ 14.3972197, 40.6301089 ], [ 14.3971397, 40.6301012 ], [ 14.396822, 40.6300657 ], [ 14.3966522, 40.6300438 ], [ 14.3965386, 40.6300234 ], [ 14.3964357, 40.63 ], [ 14.3962658, 40.6299602 ], [ 14.3961631, 40.6299323 ], [ 14.3958435, 40.629822 ] ] } },
{ "type": "Feature", "properties": { "name": "Corso Italia", "name_manual": "Corso Italia", "name_original": "Corso Italia", "highway": "primary", "status": "unexplored", "description": "unexplored" }, "geometry": { "type": "LineString", "coordinates": [ [ 14.3990801, 40.630332 ], [ 14.398971, 40.6303176 ], [ 14.3987795, 40.6302863 ], [ 14.3985524, 40.6302483 ] ] } },
{ "type": "Feature", "properties": { "name": "via Rosola", "name_manual": "via Rosola", "name_original": "via Rosola", "highway": "residential", "status": "unexplored", "description": "unexplored" }, "geometry": { "type": "LineString", "coordinates": [ [ 14.4029434, 40.618347 ], [ 14.4030206, 40.6182771 ], [ 14.4033693, 40.6180598 ], [ 14.4034168, 40.6180372 ], [ 14.4034477, 40.6180271 ], [ 14.4034794, 40.6180226 ], [ 14.4036052, 40.6180276 ], [ 14.4036663, 40.6180235 ], [ 14.4036971, 40.6180159 ], [ 14.4037321, 40.6180032 ], [ 14.4037829, 40.6179787 ], [ 14.4038185, 40.6179619 ], [ 14.403852, 40.617939 ], [ 14.4039754, 40.6178117 ], [ 14.4040372, 40.6177503 ], [ 14.4040766, 40.6177257 ], [ 14.404139, 40.6177074 ], [ 14.4041958, 40.6176971 ] ] } },
{ "type": "Feature", "properties": { "name": "Via Nastro Azzurro", "name_manual": "Via Nastro Azzurro", "name_original": "Via Nastro Azzurro", "highway": "primary", "status": "unexplored", "description": "unexplored" }, "geometry": { "type": "LineString", "coordinates": [ [ 14.4079775, 40.612608 ], [ 14.4079638, 40.6124832 ], [ 14.4079464, 40.6123812 ], [ 14.4079275, 40.6123053 ], [ 14.4078894, 40.6121708 ], [ 14.4078498, 40.6120409 ], [ 14.4077808, 40.6118347 ], [ 14.407759, 40.6117364 ], [ 14.4077515, 40.6116521 ], [ 14.4077565, 40.6115581 ], [ 14.4077612, 40.6114858 ] ] } },
{ "type": "Feature", "properties": { "name": "Via Belvedere", "name_manual": "Via Belvedere", "name_original": "Via Belvedere", "highway": "unclassified", "status": "unexplored", "description": "unexplored" }, "geometry": { "type": "LineString", "coordinates": [ [ 14.4124342, 40.608803 ], [ 14.4123511, 40.6088234 ], [ 14.4122172, 40.608909 ], [ 14.4121468, 40.6089514 ], [ 14.4120791, 40.6089673 ], [ 14.4114869, 40.6090245 ], [ 14.4111275, 40.6090595 ], [ 14.411048, 40.609092 ], [ 14.4109979, 40.6091217 ], [ 14.4109466, 40.6091779 ], [ 14.4108631, 40.6092708 ], [ 14.410769, 40.6093836 ], [ 14.4105682, 40.6095827 ], [ 14.4104725, 40.609642 ], [ 14.410249, 40.6097282 ], [ 14.4100162, 40.6097931 ], [ 14.4095199, 40.6099233 ], [ 14.4092055, 40.6100096 ], [ 14.4088969, 40.6100836 ], [ 14.4086249, 40.6101326 ], [ 14.4083628, 40.6102662 ], [ 14.4081709, 40.6103443 ], [ 14.4080899, 40.6103776 ], [ 14.4080151, 40.6104289 ], [ 14.4080454, 40.6104648 ], [ 14.4081069, 40.6105593 ], [ 14.4081615, 40.6106644 ], [ 14.4081888, 40.6107843 ], [ 14.4081976, 40.6109744 ], [ 14.40821, 40.6112523 ], [ 14.408178, 40.6115059 ], [ 14.4081142, 40.6116864 ], [ 14.4081171, 40.6118303 ], [ 14.4081417, 40.6119585 ], [ 14.4080838, 40.6120852 ], [ 14.4080386, 40.6122828 ], [ 14.4080386, 40.6124379 ], [ 14.4080317, 40.6125646 ], [ 14.4079775, 40.612608 ] ] } },
{ "type": "Feature", "properties": { "name": "Via Gaetano de Gennaro", "name_manual": "Via Gaetano de Gennaro", "name_original": "Via Gaetano de Gennaro", "highway": "service", "status": "unexplored", "description": "unexplored" }, "geometry": { "type": "LineString", "coordinates": [ [ 14.4096559, 40.6253151 ], [ 14.4090092, 40.6250584 ], [ 14.4083861, 40.6247765 ] ] } },
{ "type": "Feature", "properties": { "name": "Via Breccioni", "name_manual": "Via Breccioni", "name_original": "Via Breccioni", "highway": "service", "status": "unexplored", "description": "unexplored" }, "geometry": { "type": "LineString", "coordinates": [ [ 14.4135234, 40.6248478 ], [ 14.4134409, 40.6248538 ], [ 14.4133455, 40.6248946 ], [ 14.4132087, 40.6250309 ], [ 14.4129471, 40.6252248 ], [ 14.4127194, 40.6252987 ], [ 14.4126047, 40.6253511 ], [ 14.4124518, 40.6253893 ], [ 14.4123751, 40.6254132 ], [ 14.4122445, 40.6254749 ], [ 14.4118539, 40.6255665 ], [ 14.4115895, 40.6255523 ], [ 14.4114011, 40.6256011 ], [ 14.4110323, 40.6255124 ], [ 14.410866, 40.6254783 ], [ 14.4106661, 40.6254613 ], [ 14.4096559, 40.6253151 ] ] } },
{ "type": "Feature", "properties": { "name": "Via Nastro Azzurro", "name_manual": "Via Nastro Azzurro", "name_original": "Via Nastro Azzurro", "highway": "primary", "status": "unexplored", "description": "unexplored" }, "geometry": { "type": "LineString", "coordinates": [ [ 14.4107446, 40.6148478 ], [ 14.4102657, 40.6147988 ], [ 14.4101847, 40.6147878 ], [ 14.410156, 40.6147837 ], [ 14.4101295, 40.6147786 ], [ 14.4100853, 40.6147672 ], [ 14.4100266, 40.6147457 ], [ 14.4099759, 40.6147213 ], [ 14.4097888, 40.6146289 ], [ 14.4096759, 40.6145775 ], [ 14.4096307, 40.6145589 ], [ 14.4095745, 40.6145371 ], [ 14.409009, 40.6143341 ], [ 14.4088805, 40.6142874 ], [ 14.4087618, 40.6142482 ], [ 14.4084582, 40.6141529 ], [ 14.408408, 40.6141315 ], [ 14.4083581, 40.6141027 ], [ 14.4083149, 40.6140694 ], [ 14.4082848, 40.6140394 ], [ 14.4082518, 40.6139949 ], [ 14.4082163, 40.61393 ], [ 14.4081101, 40.6137249 ], [ 14.4080356, 40.6135787 ] ] } },
{ "type": "Feature", "properties": { "name": "Via Marina di Cassano", "name_manual": "Via Marina di Cassano", "name_original": "Via Marina di Cassano", "highway": "service", "status": "unexplored", "description": "unexplored" }, "geometry": { "type": "LineString", "coordinates": [ [ 14.4010757, 40.6370019 ], [ 14.4006802, 40.637185 ], [ 14.4001813, 40.6375393 ], [ 14.4001761, 40.6376876 ] ] } },
{ "type": "Feature", "properties": { "name": "Via Michele Paturzo", "name_manual": "Via Michele Paturzo", "name_original": "Via Michele Paturzo", "highway": "tertiary", "status": "unexplored", "description": "unexplored" }, "geometry": { "type": "LineString", "coordinates": [ [ 14.4133692, 40.6168258 ], [ 14.4133735, 40.6167988 ], [ 14.4133624, 40.6167541 ], [ 14.4133539, 40.6167227 ], [ 14.4133443, 40.616696 ], [ 14.4133356, 40.6166604 ], [ 14.4133355, 40.6166402 ], [ 14.4133407, 40.6165996 ], [ 14.4133648, 40.616485 ], [ 14.4133754, 40.6163588 ], [ 14.4133799, 40.6162913 ], [ 14.4133831, 40.616228 ], [ 14.4133736, 40.6161595 ], [ 14.4133686, 40.6161236 ], [ 14.4133449, 40.6159267 ], [ 14.41334, 40.6158247 ], [ 14.413343, 40.6157813 ], [ 14.4133504, 40.6157435 ], [ 14.4133591, 40.6156994 ], [ 14.4133819, 40.6156281 ], [ 14.4134886, 40.6153852 ] ] } },
{ "type": "Feature", "properties": { "name": "via San Martino alla Malacoccola", "name_manual": "via San Martino alla Malacoccola", "name_original": "via San Martino alla Malacoccola", "highway": "path", "status": "unexplored", "description": "unexplored" }, "geometry": { "type": "LineString", "coordinates": [ [ 14.4044597, 40.6100773 ], [ 14.4044916, 40.6100242 ], [ 14.4046734, 40.610083 ], [ 14.4046679, 40.6100565 ], [ 14.4045976, 40.6099958 ], [ 14.4044476, 40.6099045 ], [ 14.404269, 40.6097202 ], [ 14.4041784, 40.6096053 ], [ 14.404106, 40.6094709 ], [ 14.4039861, 40.6093984 ], [ 14.4038762, 40.609319 ], [ 14.4038861, 40.6091919 ], [ 14.4038619, 40.6091125 ], [ 14.4038324, 40.6090026 ], [ 14.4036983, 40.6088865 ], [ 14.4035033, 40.608757 ], [ 14.4033604, 40.6085851 ], [ 14.4032081, 40.6085068 ], [ 14.403132, 40.6084856 ], [ 14.4030855, 40.6084881 ], [ 14.4030435, 40.6085203 ], [ 14.4029965, 40.6085278 ], [ 14.4029526, 40.6085107 ], [ 14.4027365, 40.6084092 ], [ 14.4026919, 40.6084032 ], [ 14.4025936, 40.6084134 ] ] } },
{ "type": "Feature", "properties": { "name": "Via Nastro Azzurro", "name_manual": "Via Nastro Azzurro", "name_original": "Via Nastro Azzurro", "highway": "primary", "status": "unexplored", "description": "unexplored" }, "geometry": { "type": "LineString", "coordinates": [ [ 14.4049379, 40.6107061 ], [ 14.4049297, 40.6107502 ], [ 14.4049004, 40.6108444 ], [ 14.4048618, 40.6109199 ], [ 14.4048209, 40.6109834 ], [ 14.4046841, 40.6111403 ], [ 14.4045947, 40.6112242 ], [ 14.4045558, 40.6112538 ], [ 14.4045001, 40.6112727 ], [ 14.4044391, 40.61128 ], [ 14.4043768, 40.6112807 ], [ 14.4043015, 40.611271 ], [ 14.4042265, 40.6112601 ], [ 14.4041358, 40.6112496 ], [ 14.4040511, 40.6112434 ], [ 14.4039788, 40.6112473 ], [ 14.4039024, 40.6112566 ], [ 14.4038424, 40.6112719 ], [ 14.4037879, 40.6112972 ], [ 14.403742, 40.6113296 ], [ 14.4037099, 40.611369 ], [ 14.4036911, 40.6114056 ], [ 14.4036799, 40.6114428 ], [ 14.4036778, 40.611478 ], [ 14.4036891, 40.6115847 ], [ 14.4037114, 40.6117553 ], [ 14.4037083, 40.6118032 ], [ 14.4036978, 40.6118497 ], [ 14.4036704, 40.6118969 ], [ 14.4036275, 40.6119387 ], [ 14.403447, 40.6120683 ], [ 14.4032837, 40.6121497 ], [ 14.4031865, 40.6121782 ], [ 14.4030972, 40.6121919 ], [ 14.4030237, 40.6121982 ], [ 14.4029549, 40.6122005 ], [ 14.4027803, 40.612202 ], [ 14.4026267, 40.6122048 ], [ 14.4024868, 40.612213 ], [ 14.4023666, 40.6122294 ], [ 14.4020939, 40.6122814 ], [ 14.4018706, 40.6123259 ], [ 14.4017909, 40.6123481 ], [ 14.401692, 40.6123856 ], [ 14.4016063, 40.6124264 ] ] } },
{ "type": "Feature", "properties": { "name": "Via Nastro Azzurro", "name_manual": "Via Nastro Azzurro", "name_original": "Via Nastro Azzurro", "highway": "primary", "status": "unexplored", "description": "unexplored" }, "geometry": { "type": "LineString", "coordinates": [ [ 14.4056328, 40.6108051 ], [ 14.4055947, 40.6107757 ], [ 14.4055616, 40.6107309 ], [ 14.4055527, 40.6106891 ], [ 14.4055579, 40.6106494 ], [ 14.4055855, 40.6106132 ], [ 14.4056202, 40.6105886 ], [ 14.4056645, 40.6105697 ], [ 14.4058812, 40.6104874 ], [ 14.4059386, 40.6104589 ], [ 14.4060059, 40.6104206 ], [ 14.4060584, 40.6103746 ], [ 14.406098, 40.6103297 ], [ 14.4061252, 40.6102896 ], [ 14.4061616, 40.6102063 ], [ 14.4062037, 40.6100965 ], [ 14.4062364, 40.6100188 ], [ 14.4062764, 40.6099205 ], [ 14.4062843, 40.6098961 ], [ 14.4062773, 40.6098601 ], [ 14.4062624, 40.6098377 ], [ 14.4062303, 40.6098183 ] ] } },
{ "type": "Feature", "properties": { "name": "Via Nastro Azzurro", "name_manual": "Via Nastro Azzurro", "name_original": "Via Nastro Azzurro", "highway": "primary", "status": "unexplored", "description": "unexplored" }, "geometry": { "type": "LineString", "coordinates": [ [ 14.407959, 40.6133536 ], [ 14.4079507, 40.6133063 ], [ 14.4079415, 40.6132331 ], [ 14.4079418, 40.6131742 ] ] } },
{ "type": "Feature", "properties": { "name": "Via Mostrano", "name_manual": "Via Mostrano", "name_original": "Via Mostrano", "highway": "service", "status": "unexplored", "description": "unexplored" }, "geometry": { "type": "LineString", "coordinates": [ [ 14.4096209, 40.6237063 ], [ 14.4095906, 40.6235 ], [ 14.409575, 40.6227835 ], [ 14.4096742, 40.6225672 ], [ 14.4097506, 40.6224775 ], [ 14.4098237, 40.6222638 ], [ 14.4097971, 40.6221208 ], [ 14.4097643, 40.6220729 ], [ 14.4095475, 40.6219413 ], [ 14.4095383, 40.62185 ], [ 14.4096066, 40.6217422 ] ] } },
{ "type": "Feature", "properties": { "name": "Via Cepano", "name_manual": "Via Cepano", "name_original": "Via Cepano", "highway": "service", "status": "unexplored", "description": "unexplored" }, "geometry": { "type": "LineString", "coordinates": [ [ 14.4115681, 40.619808 ], [ 14.4115018, 40.6196681 ], [ 14.4114772, 40.6194708 ], [ 14.4114631, 40.6193004 ], [ 14.411438, 40.6191799 ], [ 14.4114212, 40.6191015 ], [ 14.4113884, 40.6190432 ], [ 14.4112826, 40.6189174 ], [ 14.411267, 40.6188903 ], [ 14.4112603, 40.6188537 ], [ 14.4112595, 40.618815 ], [ 14.4112705, 40.6186213 ], [ 14.411271, 40.6185717 ], [ 14.4112636, 40.6185169 ], [ 14.4112422, 40.6184897 ], [ 14.4112072, 40.6184707 ], [ 14.4110055, 40.6184367 ], [ 14.410933, 40.6184251 ], [ 14.4108655, 40.6184186 ], [ 14.4108224, 40.6184058 ], [ 14.4107902, 40.6183813 ], [ 14.4107426, 40.6183202 ], [ 14.4107071, 40.6182978 ], [ 14.4106675, 40.618278 ], [ 14.4105668, 40.6182059 ], [ 14.4104946, 40.6180819 ], [ 14.4104757, 40.6180352 ], [ 14.4104724, 40.6179986 ], [ 14.4104766, 40.6179653 ], [ 14.4106197, 40.6176633 ], [ 14.410634, 40.6176204 ], [ 14.4106318, 40.6175923 ], [ 14.4105797, 40.6175812 ], [ 14.4104321, 40.6176102 ], [ 14.4103109, 40.6176301 ], [ 14.4102129, 40.6176402 ], [ 14.4100944, 40.6176409 ], [ 14.4098642, 40.6176458 ], [ 14.4098202, 40.6176714 ], [ 14.4097079, 40.6178189 ], [ 14.4095901, 40.6179796 ], [ 14.4095164, 40.61807 ] ] } },
{ "type": "Feature", "properties": { "name": "Via Ferrella", "name_manual": "Via Ferrella", "name_original": "Via Ferrella", "highway": "service", "status": "unexplored", "description": "unexplored" }, "geometry": { "type": "LineString", "coordinates": [ [ 14.4061138, 40.6230824 ], [ 14.4061593, 40.6230482 ], [ 14.4062023, 40.6229789 ], [ 14.406261, 40.6228682 ], [ 14.4062797, 40.6228219 ], [ 14.4063465, 40.622614 ], [ 14.4063719, 40.6225392 ], [ 14.4063773, 40.6225234 ], [ 14.4065104, 40.6223393 ], [ 14.406551, 40.6222709 ], [ 14.4065905, 40.622192 ], [ 14.406614, 40.622105 ], [ 14.4066364, 40.6219819 ], [ 14.4066442, 40.621961 ], [ 14.4067005, 40.62188 ], [ 14.4067655, 40.6218133 ], [ 14.4068413, 40.6217446 ], [ 14.4069801, 40.6216149 ], [ 14.4070707, 40.621509 ], [ 14.4071749, 40.6214093 ], [ 14.4072805, 40.6213314 ], [ 14.4073248, 40.6212937 ], [ 14.4073493, 40.6212595 ], [ 14.4073751, 40.6212163 ], [ 14.4073979, 40.6211299 ], [ 14.4075636, 40.6209455 ], [ 14.4076885, 40.6208064 ], [ 14.4083312, 40.6202763 ], [ 14.408429, 40.620232 ], [ 14.4084513, 40.6203122 ], [ 14.4084737, 40.620394 ], [ 14.4085245, 40.6204572 ], [ 14.4085956, 40.6205004 ] ] } },
{ "type": "Feature", "properties": { "name": "via Frevignone", "name_manual": "via Frevignone", "name_original": "via Frevignone", "highway": "residential", "status": "unexplored", "description": "unexplored" }, "geometry": { "type": "LineString", "coordinates": [ [ 14.4102657, 40.6147988 ], [ 14.4102251, 40.6149378 ], [ 14.410177, 40.614961 ], [ 14.4100957, 40.6149641 ], [ 14.40999, 40.6149271 ], [ 14.4097664, 40.6148561 ], [ 14.4096444, 40.6148283 ], [ 14.4095956, 40.6148499 ], [ 14.4096038, 40.6148993 ], [ 14.409616, 40.6149425 ], [ 14.4096444, 40.615032 ], [ 14.4096444, 40.6150659 ], [ 14.4095753, 40.6150659 ], [ 14.4094696, 40.6150351 ], [ 14.4091917, 40.6149729 ], [ 14.4090472, 40.6149582 ], [ 14.4089314, 40.6150018 ], [ 14.4088149, 40.615049 ], [ 14.4087218, 40.6151494 ], [ 14.4086278, 40.6151987 ], [ 14.4085292, 40.6152304 ], [ 14.4084497, 40.6152522 ], [ 14.4083552, 40.6152517 ], [ 14.4082546, 40.6152395 ], [ 14.408176, 40.6152313 ] ] } },
{ "type": "Feature", "properties": { "name": "Via Ferrella", "name_manual": "Via Ferrella", "name_original": "Via Ferrella", "highway": "footway", "status": "unexplored", "description": "unexplored" }, "geometry": { "type": "LineString", "coordinates": [ [ 14.4085956, 40.6205004 ], [ 14.4087481, 40.6205575 ], [ 14.4089066, 40.6206053 ], [ 14.408988, 40.6206285 ], [ 14.4090449, 40.6206624 ], [ 14.4090774, 40.6207288 ], [ 14.4091099, 40.6208244 ], [ 14.4090957, 40.6209108 ], [ 14.4090103, 40.6209772 ], [ 14.408929, 40.6210605 ] ] } },
{ "type": "Feature", "properties": { "name": "Via Ferrella", "name_manual": "Via Ferrella", "name_original": "Via Ferrella", "highway": "service", "status": "unexplored", "description": "unexplored" }, "geometry": { "type": "LineString", "coordinates": [ [ 14.408929, 40.6210605 ], [ 14.40899, 40.6211932 ], [ 14.4091526, 40.6213969 ], [ 14.4092847, 40.6214941 ], [ 14.4093498, 40.6216021 ], [ 14.4094128, 40.6216684 ], [ 14.4096066, 40.6217422 ] ] } },
{ "type": "Feature", "properties": { "name": "Via Nastro Azzurro", "name_manual": "Via Nastro Azzurro", "name_original": "Via Nastro Azzurro", "highway": "primary", "status": "unexplored", "description": "unexplored" }, "geometry": { "type": "LineString", "coordinates": [ [ 14.4079581, 40.6129768 ], [ 14.407979, 40.612791 ], [ 14.4079826, 40.6126849 ], [ 14.4079775, 40.612608 ] ] } },
{ "type": "Feature", "properties": { "name": "Corso Italia", "name_manual": "Corso Italia", "name_original": "Corso Italia", "highway": "residential", "status": "unexplored", "description": "unexplored" }, "geometry": { "type": "LineString", "coordinates": [ [ 14.4076336, 40.6310479 ], [ 14.4076208, 40.6310712 ], [ 14.4075502, 40.6312164 ], [ 14.407036, 40.6314161 ], [ 14.4069793, 40.6314531 ], [ 14.4066113, 40.6316057 ], [ 14.406445, 40.6316703 ] ] } },
{ "type": "Feature", "properties": { "name": "Via Catigliano", "name_manual": "Via Catigliano", "name_original": "Via Catigliano", "highway": "path", "status": "unexplored", "description": "unexplored" }, "geometry": { "type": "LineString", "coordinates": [ [ 14.3944318, 40.6262556 ], [ 14.3944195, 40.6263644 ], [ 14.3943911, 40.6264584 ], [ 14.3943133, 40.6265766 ], [ 14.3942743, 40.6266263 ], [ 14.3941894, 40.6266531 ], [ 14.3940761, 40.6267015 ], [ 14.3939629, 40.6267431 ], [ 14.3938815, 40.6267821 ], [ 14.3938549, 40.6268116 ], [ 14.3938514, 40.6268506 ], [ 14.3939045, 40.6268627 ], [ 14.393993, 40.6268747 ], [ 14.3940673, 40.6268909 ], [ 14.3940195, 40.6270117 ], [ 14.3939293, 40.6270695 ], [ 14.393862, 40.6271339 ], [ 14.3937806, 40.6271904 ], [ 14.3936851, 40.6272683 ], [ 14.3935865, 40.6273707 ] ] } },
{ "type": "Feature", "properties": { "name": "Corso Italia", "name_manual": "Corso Italia", "name_original": "Corso Italia", "highway": "primary", "status": "unexplored", "description": "unexplored" }, "geometry": { "type": "LineString", "coordinates": [ [ 14.4070197, 40.6308994 ], [ 14.4068024, 40.6308812 ], [ 14.4067441, 40.6308762 ] ] } },
{ "type": "Feature", "properties": { "name": "Corso Italia", "name_manual": "Corso Italia", "name_original": "Corso Italia", "highway": "primary", "status": "unexplored", "description": "unexplored" }, "geometry": { "type": "LineString", "coordinates": [ [ 14.4019227, 40.6301524 ], [ 14.4012674, 40.6299906 ], [ 14.4011869, 40.6299753 ], [ 14.4011263, 40.6299675 ], [ 14.4010771, 40.6299629 ], [ 14.4010239, 40.6299596 ], [ 14.4009253, 40.6299579 ], [ 14.4008776, 40.6299592 ], [ 14.4008249, 40.6299622 ], [ 14.4007654, 40.6299677 ], [ 14.4005067, 40.6299947 ], [ 14.4002237, 40.6300474 ], [ 14.4001117, 40.6300705 ], [ 14.3999729, 40.6301092 ], [ 14.3999045, 40.6301319 ], [ 14.3998356, 40.6301578 ], [ 14.3997556, 40.6301891 ], [ 14.3996825, 40.6302237 ], [ 14.3996003, 40.6302641 ], [ 14.3995621, 40.6302796 ], [ 14.3995221, 40.6302936 ], [ 14.3994009, 40.6303221 ], [ 14.3993444, 40.6303328 ], [ 14.3993017, 40.630338 ], [ 14.3992051, 40.6303406 ], [ 14.3991447, 40.6303383 ], [ 14.3990801, 40.630332 ] ] } },
{ "type": "Feature", "properties": { "name": "Corso Italia", "name_manual": "Corso Italia", "name_original": "Corso Italia", "highway": "primary", "status": "unexplored", "description": "unexplored" }, "geometry": { "type": "LineString", "coordinates": [ [ 14.3985524, 40.6302483 ], [ 14.3984722, 40.6302362 ], [ 14.3983214, 40.6302122 ] ] } },
{ "type": "Feature", "properties": { "name": "Corso Italia", "name_manual": "Corso Italia", "name_original": "Corso Italia", "highway": "primary", "status": "unexplored", "description": "unexplored" }, "geometry": { "type": "LineString", "coordinates": [ [ 14.3954367, 40.6297183 ], [ 14.3952573, 40.6296805 ], [ 14.3950933, 40.6296457 ] ] } },
{ "type": "Feature", "properties": { "name": "Corso Italia", "name_manual": "Corso Italia", "name_original": "Corso Italia", "highway": "primary", "status": "unexplored", "description": "unexplored" }, "geometry": { "type": "LineString", "coordinates": [ [ 14.4082605, 40.6311483 ], [ 14.408215, 40.6311467 ], [ 14.4081193, 40.6311409 ], [ 14.4080337, 40.6311308 ], [ 14.4079317, 40.6311184 ], [ 14.4079279, 40.6311178 ], [ 14.4076336, 40.6310479 ], [ 14.4076123, 40.6310422 ], [ 14.4072123, 40.6309362 ], [ 14.4071878, 40.63093 ], [ 14.4071049, 40.6309127 ], [ 14.4070197, 40.6308994 ] ] } },
{ "type": "Feature", "properties": { "name": "Via Nastro Azzurro", "name_manual": "Via Nastro Azzurro", "name_original": "Via Nastro Azzurro", "highway": "primary", "status": "unexplored", "description": "unexplored" }, "geometry": { "type": "LineString", "coordinates": [ [ 14.4062303, 40.6098183 ], [ 14.4061861, 40.6098106 ], [ 14.4061395, 40.6098167 ], [ 14.406106, 40.6098273 ], [ 14.4060763, 40.6098564 ], [ 14.4060598, 40.6098916 ], [ 14.4060436, 40.6099452 ], [ 14.4060288, 40.6099965 ], [ 14.4059982, 40.6101044 ], [ 14.4059734, 40.610154 ], [ 14.4059448, 40.610198 ], [ 14.4058929, 40.6102477 ], [ 14.4058413, 40.610281 ], [ 14.4057853, 40.610308 ], [ 14.4057098, 40.6103368 ], [ 14.4056009, 40.6103694 ], [ 14.4055042, 40.6103925 ], [ 14.4053955, 40.6104163 ], [ 14.4052291, 40.6104455 ], [ 14.4051355, 40.6104637 ], [ 14.4050668, 40.6104858 ], [ 14.4050312, 40.6105092 ] ] } },
{ "type": "Feature", "properties": { "name": "Via Nastro Azzurro", "name_manual": "Via Nastro Azzurro", "name_original": "Via Nastro Azzurro", "highway": "primary", "status": "unexplored", "description": "unexplored" }, "geometry": { "type": "LineString", "coordinates": [ [ 14.4062556, 40.6112161 ], [ 14.4062552, 40.6111795 ], [ 14.4062443, 40.6111578 ], [ 14.4062272, 40.6111348 ], [ 14.4062042, 40.6111189 ], [ 14.4060826, 40.6110496 ], [ 14.4059765, 40.6109914 ] ] } },
{ "type": "Feature", "properties": { "name": "Via Nastro Azzurro", "name_manual": "Via Nastro Azzurro", "name_original": "Via Nastro Azzurro", "highway": "primary", "status": "unexplored", "description": "unexplored" }, "geometry": { "type": "LineString", "coordinates": [ [ 14.4079418, 40.6131742 ], [ 14.4079531, 40.6130365 ], [ 14.4079581, 40.6129768 ] ] } },
{ "type": "Feature", "properties": { "name": "Via Nastro Azzurro", "name_manual": "Via Nastro Azzurro", "name_original": "Via Nastro Azzurro", "highway": "primary", "status": "unexplored", "description": "unexplored" }, "geometry": { "type": "LineString", "coordinates": [ [ 14.4134092, 40.6150379 ], [ 14.4128475, 40.6147936 ], [ 14.4127436, 40.6147617 ], [ 14.4125529, 40.6146979 ], [ 14.4124586, 40.6146734 ], [ 14.4123488, 40.6146534 ], [ 14.4122497, 40.6146431 ], [ 14.4121524, 40.6146378 ], [ 14.4120529, 40.6146331 ], [ 14.4119114, 40.6146366 ], [ 14.4118458, 40.6146445 ], [ 14.411753, 40.6146653 ], [ 14.41166, 40.6146996 ], [ 14.4113996, 40.6148122 ], [ 14.4113308, 40.6148366 ], [ 14.4112552, 40.6148561 ], [ 14.4111953, 40.6148668 ], [ 14.4111379, 40.6148733 ], [ 14.411068, 40.6148765 ], [ 14.4110056, 40.614875 ], [ 14.4109352, 40.6148683 ], [ 14.4107446, 40.6148478 ] ] } },
{ "type": "Feature", "properties": { "name": "Corso Italia", "name_manual": "Corso Italia", "name_original": "Corso Italia", "highway": "primary", "status": "unexplored", "description": "unexplored" }, "geometry": { "type": "LineString", "coordinates": [ [ 14.3958435, 40.629822 ], [ 14.3957192, 40.6297806 ], [ 14.3954367, 40.6297183 ] ] } },
{ "type": "Feature", "properties": { "name": "Piazzale Angri", "name_manual": "Piazzale Angri", "name_original": "Piazzale Angri", "highway": "pedestrian", "status": "unexplored", "description": "unexplored" }, "geometry": { "type": "LineString", "coordinates": [ [ 14.3971923, 40.6313232 ], [ 14.3972418, 40.6312557 ], [ 14.3973261, 40.6312802 ], [ 14.3974636, 40.631149 ], [ 14.3975352, 40.631112 ] ] } },
{ "type": "Feature", "properties": { "name": "Via Nastro Azzurro", "name_manual": "Via Nastro Azzurro", "name_original": "Via Nastro Azzurro", "highway": "primary", "status": "unexplored", "description": "unexplored" }, "geometry": { "type": "LineString", "coordinates": [ [ 14.405001, 40.6105328 ], [ 14.4049724, 40.6105668 ], [ 14.4049553, 40.6106025 ], [ 14.4049379, 40.6107061 ] ] } },
{ "type": "Feature", "properties": { "name": "Via Nuovo Rione Cappuccini", "name_manual": "Via Nuovo Rione Cappuccini", "name_original": "Via Nuovo Rione Cappuccini", "highway": "service", "status": "unexplored", "description": "unexplored" }, "geometry": { "type": "LineString", "coordinates": [ [ 14.3919981, 40.635312 ], [ 14.3919756, 40.6353441 ], [ 14.3919523, 40.6353794 ], [ 14.3919309, 40.6354118 ], [ 14.3915766, 40.6359456 ], [ 14.3914346, 40.636175 ] ] } },
{ "type": "Feature", "properties": { "name": "Via Nuovo Rione Cappuccini", "name_manual": "Via Nuovo Rione Cappuccini", "name_original": "Via Nuovo Rione Cappuccini", "highway": "service", "status": "unexplored", "description": "unexplored" }, "geometry": { "type": "LineString", "coordinates": [ [ 14.3906631, 40.6358444 ], [ 14.3906873, 40.6357964 ], [ 14.3909286, 40.6354526 ], [ 14.3910256, 40.6353145 ], [ 14.3910708, 40.635248 ] ] } },
{ "type": "Feature", "properties": { "name": "Piazzale Angri", "name_manual": "Piazzale Angri", "name_original": "Piazzale Angri", "highway": "pedestrian", "status": "unexplored", "description": "unexplored" }, "geometry": { "type": "LineString", "coordinates": [ [ 14.397537, 40.631156 ], [ 14.3974636, 40.631149 ] ] } },
{ "type": "Feature", "properties": { "name": "Piazzale Angri", "name_manual": "Piazzale Angri", "name_original": "Piazzale Angri", "highway": "pedestrian", "status": "unexplored", "description": "unexplored" }, "geometry": { "type": "LineString", "coordinates": [ [ 14.3972533, 40.6310776 ], [ 14.3972461, 40.6310329 ] ] } },
{ "type": "Feature", "properties": { "name": "Piazzale Angri", "name_manual": "Piazzale Angri", "name_original": "Piazzale Angri", "highway": "pedestrian", "status": "unexplored", "description": "unexplored" }, "geometry": { "type": "LineString", "coordinates": [ [ 14.3972418, 40.6312557 ], [ 14.3971613, 40.6312188 ], [ 14.3972533, 40.6310776 ], [ 14.3974636, 40.631149 ] ] } },
{ "type": "Feature", "properties": { "name": "Via San Sergio", "name_manual": "Via San Sergio", "name_original": "Via San Sergio", "highway": "residential", "status": "unexplored", "description": "unexplored" }, "geometry": { "type": "LineString", "coordinates": [ [ 14.4066245, 40.6311157 ], [ 14.4065533, 40.6311523 ], [ 14.4065416, 40.6311583 ], [ 14.4064786, 40.6311934 ], [ 14.4063497, 40.6312484 ], [ 14.4060592, 40.631362 ], [ 14.40599, 40.6313882 ], [ 14.4058799, 40.6314312 ], [ 14.4056432, 40.6315235 ] ] } },
{ "type": "Feature", "properties": { "name": "Via San Sergio", "name_manual": "Via San Sergio", "name_original": "Via San Sergio", "highway": "residential", "status": "unexplored", "description": "unexplored" }, "geometry": { "type": "LineString", "coordinates": [ [ 14.4056432, 40.6315235 ], [ 14.4056206, 40.6315659 ], [ 14.4056082, 40.6316082 ], [ 14.4056046, 40.6316491 ], [ 14.405606, 40.6316629 ], [ 14.4055892, 40.6317069 ] ] } },
{ "type": "Feature", "properties": { "name": "Via San Sergio", "name_manual": "Via San Sergio", "name_original": "Via San Sergio", "highway": "service", "status": "unexplored", "description": "unexplored" }, "geometry": { "type": "LineString", "coordinates": [ [ 14.4025256, 40.6348625 ], [ 14.4029474, 40.6350589 ] ] } },
{ "type": "Feature", "properties": { "name": "Corso Italia", "name_manual": "Corso Italia", "name_original": "Corso Italia", "highway": "residential", "status": "unexplored", "description": "unexplored" }, "geometry": { "type": "LineString", "coordinates": [ [ 14.4070975, 40.6320651 ], [ 14.4071263, 40.6320591 ], [ 14.4071513, 40.6320472 ], [ 14.4072547, 40.6319826 ] ] } },
{ "type": "Feature", "properties": { "name": "Via Ripa di Cassano", "name_manual": "Via Ripa di Cassano", "name_original": "Via Ripa di Cassano", "highway": "residential", "status": "unexplored", "description": "unexplored" }, "geometry": { "type": "LineString", "coordinates": [ [ 14.401257, 40.6367861 ], [ 14.4013427, 40.6367797 ], [ 14.401558, 40.6367802 ] ] } },
{ "type": "Feature", "properties": { "name": "Via Cepano", "name_manual": "Via Cepano", "name_original": "Via Cepano", "highway": "service", "status": "unexplored", "description": "unexplored" }, "geometry": { "type": "LineString", "coordinates": [ [ 14.4096066, 40.6217422 ], [ 14.4095483, 40.6215864 ], [ 14.4096229, 40.6214079 ], [ 14.4097455, 40.6212586 ], [ 14.4098669, 40.6212459 ], [ 14.4100459, 40.6210866 ], [ 14.4103277, 40.6209455 ], [ 14.4107862, 40.6206366 ], [ 14.411, 40.6204511 ], [ 14.4110775, 40.6202386 ], [ 14.4111491, 40.6201029 ], [ 14.4113112, 40.6200253 ], [ 14.4114916, 40.6199434 ], [ 14.4115681, 40.619808 ] ] } },
{ "type": "Feature", "properties": { "name": "Via Nastro Azzurro", "name_manual": "Via Nastro Azzurro", "name_original": "Via Nastro Azzurro", "highway": "primary", "status": "unexplored", "description": "unexplored" }, "geometry": { "type": "LineString", "coordinates": [ [ 14.4134726, 40.6150668 ], [ 14.4134092, 40.6150379 ] ] } },
{ "type": "Feature", "properties": { "name": "Via Michele Paturzo", "name_manual": "Via Michele Paturzo", "name_original": "Via Michele Paturzo", "highway": "tertiary", "status": "unexplored", "description": "unexplored" }, "geometry": { "type": "LineString", "coordinates": [ [ 14.4134886, 40.6153852 ], [ 14.4135311, 40.6152399 ], [ 14.4135321, 40.6152082 ], [ 14.4135328, 40.6151901 ], [ 14.4135274, 40.6151614 ], [ 14.413505, 40.6151171 ], [ 14.4134726, 40.6150668 ] ] } },
{ "type": "Feature", "properties": { "name": "Via Michele Paturzo", "name_manual": "Via Michele Paturzo", "name_original": "Via Michele Paturzo", "highway": "tertiary", "status": "unexplored", "description": "unexplored" }, "geometry": { "type": "LineString", "coordinates": [ [ 14.4134886, 40.6153852 ], [ 14.4135625, 40.6152524 ], [ 14.4136121, 40.6151639 ], [ 14.4136275, 40.6151367 ] ] } },
{ "type": "Feature", "properties": { "name": "Via Nastro d'Argento", "name_manual": "Via Nastro d'Argento", "name_original": "Via Nastro d'Argento", "highway": "tertiary", "status": "unexplored", "description": "unexplored" }, "geometry": { "type": "LineString", "coordinates": [ [ 14.4110615, 40.6168602 ], [ 14.4111634, 40.6169058 ], [ 14.4112571, 40.6169473 ], [ 14.4114379, 40.6170343 ], [ 14.4115196, 40.6170784 ], [ 14.4115677, 40.6171064 ], [ 14.4116091, 40.6171319 ], [ 14.4116529, 40.6171632 ], [ 14.411692, 40.6171958 ], [ 14.4117098, 40.6172123 ], [ 14.4117284, 40.617231 ], [ 14.4119335, 40.6174925 ], [ 14.4119487, 40.6175117 ], [ 14.4119669, 40.6175307 ], [ 14.4119932, 40.6175529 ], [ 14.4120158, 40.6175685 ], [ 14.4120388, 40.6175818 ], [ 14.4120709, 40.6175968 ], [ 14.4121159, 40.6176128 ], [ 14.412339, 40.6176774 ], [ 14.4124598, 40.6177147 ], [ 14.412581, 40.6177494 ], [ 14.4127093, 40.6178062 ], [ 14.4128408, 40.6178729 ], [ 14.4128924, 40.6178952 ], [ 14.412946, 40.6179059 ], [ 14.4129889, 40.617908 ], [ 14.4130302, 40.6179031 ], [ 14.4130862, 40.6178861 ], [ 14.413115, 40.6178667 ], [ 14.4131334, 40.6178421 ], [ 14.4131465, 40.6178077 ], [ 14.4131512, 40.6177756 ], [ 14.4131492, 40.6177463 ], [ 14.4131304, 40.6176891 ], [ 14.413113, 40.617657 ], [ 14.4130607, 40.6175919 ], [ 14.4130164, 40.6175491 ], [ 14.4129734, 40.6175159 ], [ 14.4129105, 40.6174824 ], [ 14.4128019, 40.6174361 ], [ 14.4127388, 40.6174152 ], [ 14.4126764, 40.6174002 ], [ 14.4125794, 40.6173738 ], [ 14.4125437, 40.6173598 ], [ 14.4125043, 40.6173412 ], [ 14.4124766, 40.6173258 ], [ 14.4124382, 40.6173008 ], [ 14.4123762, 40.6172499 ], [ 14.4123315, 40.6172 ], [ 14.4122954, 40.6171463 ], [ 14.4122849, 40.6171241 ], [ 14.4122763, 40.6171011 ], [ 14.4122689, 40.6170736 ], [ 14.4122641, 40.6170432 ], [ 14.4122629, 40.6170126 ], [ 14.4122662, 40.6169757 ], [ 14.4122735, 40.6169363 ], [ 14.4122808, 40.6169078 ], [ 14.4123408, 40.6167357 ], [ 14.4123488, 40.6166453 ], [ 14.4123472, 40.616584 ], [ 14.4123385, 40.616552 ], [ 14.4123306, 40.6165217 ], [ 14.41231, 40.6164667 ], [ 14.4122897, 40.6164167 ], [ 14.4122703, 40.616378 ], [ 14.4122477, 40.6163382 ], [ 14.4122238, 40.616298 ], [ 14.4121943, 40.6162598 ], [ 14.4121622, 40.6162232 ], [ 14.4121239, 40.6161926 ], [ 14.4120494, 40.6161416 ], [ 14.4118363, 40.6160358 ], [ 14.4116268, 40.6159376 ], [ 14.4115748, 40.6159118 ], [ 14.4115308, 40.6158814 ], [ 14.4114906, 40.6158487 ], [ 14.4114626, 40.6158129 ], [ 14.4114462, 40.6157794 ], [ 14.4114356, 40.6157449 ], [ 14.4114295, 40.6157183 ], [ 14.4114268, 40.615697 ], [ 14.4114265, 40.6156629 ], [ 14.4114296, 40.6156359 ], [ 14.4114354, 40.6156099 ], [ 14.4114438, 40.6155904 ], [ 14.411454, 40.615574 ], [ 14.4114856, 40.6155412 ], [ 14.4115299, 40.615512 ], [ 14.4115769, 40.6154925 ], [ 14.4116045, 40.6154854 ], [ 14.4116334, 40.6154813 ], [ 14.4116686, 40.6154794 ], [ 14.4117022, 40.6154808 ], [ 14.4117406, 40.6154866 ], [ 14.4117765, 40.615495 ], [ 14.4118177, 40.6155083 ], [ 14.4118581, 40.6155261 ], [ 14.4119206, 40.6155651 ], [ 14.4119823, 40.6156066 ], [ 14.4125429, 40.6160524 ], [ 14.4126463, 40.6161392 ], [ 14.4127215, 40.6162126 ], [ 14.4127871, 40.6162899 ], [ 14.4128558, 40.6163814 ], [ 14.4129594, 40.6165303 ], [ 14.4130602, 40.6166815 ], [ 14.4130844, 40.616706 ], [ 14.4131311, 40.6167485 ], [ 14.4131593, 40.6167698 ], [ 14.4132182, 40.616806 ], [ 14.4132744, 40.6168286 ], [ 14.4133274, 40.6168353 ], [ 14.4133692, 40.6168258 ] ] } },
{ "type": "Feature", "properties": { "name": "Via Nastro d'Argento", "name_manual": "Via Nastro d'Argento", "name_original": "Via Nastro d'Argento", "highway": "tertiary", "status": "unexplored", "description": "unexplored" }, "geometry": { "type": "LineString", "coordinates": [ [ 14.4109296, 40.616802 ], [ 14.4110615, 40.6168602 ] ] } },
{ "type": "Feature", "properties": { "name": "Via Marina di Cassano", "name_manual": "Via Marina di Cassano", "name_original": "Via Marina di Cassano", "highway": "service", "status": "unexplored", "description": "unexplored" }, "geometry": { "type": "LineString", "coordinates": [ [ 14.4019477, 40.6385203 ], [ 14.4019213, 40.6385006 ], [ 14.401742, 40.638343 ], [ 14.4017056, 40.6383109 ], [ 14.4015419, 40.6381878 ], [ 14.4013911, 40.6381018 ], [ 14.4011021, 40.6379827 ], [ 14.40086, 40.6378433 ], [ 14.4007447, 40.6377838 ], [ 14.4006152, 40.6377319 ], [ 14.4004906, 40.6376985 ], [ 14.4001761, 40.6376876 ] ] } },
{ "type": "Feature", "properties": { "name": "via San Martino alla Malacoccola", "name_manual": "via San Martino alla Malacoccola", "name_original": "via San Martino alla Malacoccola", "highway": "service", "status": "unexplored", "description": "unexplored" }, "geometry": { "type": "LineString", "coordinates": [ [ 14.4050312, 40.6105092 ], [ 14.4049869, 40.6104633 ], [ 14.4049509, 40.6104096 ], [ 14.4047846, 40.6102874 ], [ 14.4046755, 40.6102557 ], [ 14.4045771, 40.6101831 ], [ 14.4044597, 40.6100773 ] ] } },
{ "type": "Feature", "properties": { "name": "Via Nastro Azzurro", "name_manual": "Via Nastro Azzurro", "name_original": "Via Nastro Azzurro", "highway": "primary", "status": "unexplored", "description": "unexplored" }, "geometry": { "type": "LineString", "coordinates": [ [ 14.4059765, 40.6109914 ], [ 14.4057474, 40.61087 ], [ 14.4056328, 40.6108051 ] ] } },
{ "type": "Feature", "properties": { "name": "Via Nastro Azzurro", "name_manual": "Via Nastro Azzurro", "name_original": "Via Nastro Azzurro", "highway": "primary", "status": "unexplored", "description": "unexplored" }, "geometry": { "type": "LineString", "coordinates": [ [ 14.4050312, 40.6105092 ], [ 14.405001, 40.6105328 ] ] } },
{ "type": "Feature", "properties": { "name": "Via Nastro Azzurro", "name_manual": "Via Nastro Azzurro", "name_original": "Via Nastro Azzurro", "highway": "primary", "status": "unexplored", "description": "unexplored" }, "geometry": { "type": "LineString", "coordinates": [ [ 14.4080356, 40.6135787 ], [ 14.4080106, 40.6135167 ], [ 14.4079815, 40.6134343 ], [ 14.407959, 40.6133536 ] ] } },
{ "type": "Feature", "properties": { "name": "Via Campitiello", "name_manual": "Via Campitiello", "name_original": "Via Campitiello", "highway": "unclassified", "status": "unexplored", "description": "unexplored" }, "geometry": { "type": "LineString", "coordinates": [ [ 14.3949549, 40.6253219 ], [ 14.3949152, 40.6252316 ], [ 14.3949143, 40.6252295 ], [ 14.3950833, 40.624969 ], [ 14.3952917, 40.6246905 ], [ 14.3953971, 40.6245822 ], [ 14.3954293, 40.6243888 ], [ 14.3955098, 40.6242198 ], [ 14.3955903, 40.6241058 ], [ 14.3957485, 40.6239836 ], [ 14.3960084, 40.6238019 ], [ 14.3961294, 40.623721 ], [ 14.3963029, 40.6235993 ], [ 14.3963493, 40.6235052 ], [ 14.3963914, 40.6233916 ], [ 14.396344, 40.6231632 ], [ 14.3963386, 40.623035 ], [ 14.3964352, 40.6228904 ], [ 14.3967999, 40.6226135 ], [ 14.3968831, 40.6224446 ], [ 14.3969528, 40.6222736 ], [ 14.3970896, 40.6221453 ], [ 14.3971988, 40.6220419 ], [ 14.3972291, 40.621903 ], [ 14.3972291, 40.6218238 ], [ 14.3972256, 40.621787 ] ] } }
]
}
