{
"type": "FeatureCollection",
"name": "waypoints",
"crs": { "type": "name", "properties": { "name": "urn:ogc:def:crs:OGC:1.3:CRS84" } },
"features": [
{ "type": "Feature", "properties": { "id": "e0202ec6", "name": "e0202ec6", "date": "4/26/2026", "time": "21:30:00", "city": "5 Sant'Agnello", "street": "via Monsignor Bonaventura Gargiulo", "picture": "Positions_Images/e0202ec6.Picture.102853.jpg", "description": "ID: e0202ec6\nDate: 4/26/2026\nTime: 21:30:00\nCity: 5 Sant'Agnello\nStreet: via Monsignor Bonaventura Gargiulo\nPicture: Positions_Images/e0202ec6.Picture.102853.jpg" }, "geometry": { "type": "Point", "coordinates": [ 14.399915, 40.62637 ] } },
{ "type": "Feature", "properties": { "id": "ea6bcde4", "name": "ea6bcde4", "date": "4/26/2026", "time": "21:30:00", "city": "5 Sant'Agnello", "street": "via Pozzillo", "picture": "Positions_Images/ea6bcde4.Picture.103951.jpg", "description": "ID: ea6bcde4\nDate: 4/26/2026\nTime: 21:30:00\nCity: 5 Sant'Agnello\nStreet: via Pozzillo\nPicture: Positions_Images/ea6bcde4.Picture.103951.jpg" }, "geometry": { "type": "Point", "coordinates": [ 14.404212, 40.63095 ] } },
{ "type": "Feature", "properties": { "id": "1985f6d3", "name": "1985f6d3", "date": "4/26/2026", "time": "21:30:00", "city": "5 Sant'Agnello", "street": "via Tordara", "picture": "Positions_Images/1985f6d3.Picture.104052.jpg", "description": "ID: 1985f6d3\nDate: 4/26/2026\nTime: 21:30:00\nCity: 5 Sant'Agnello\nStreet: via Tordara\nPicture: Positions_Images/1985f6d3.Picture.104052.jpg" }, "geometry": { "type": "Point", "coordinates": [ 14.402066, 40.624101 ] } },
{ "type": "Feature", "properties": { "id": "6e3c7336", "name": "6e3c7336", "date": "4/26/2026", "time": "21:30:00", "city": "5 Sant'Agnello", "street": "Stazione Sant'Agnello", "picture": "Positions_Images/6e3c7336.Picture.104351.jpg", "description": "ID: 6e3c7336\nDate: 4/26/2026\nTime: 21:30:00\nCity: 5 Sant'Agnello\nStreet: Stazione Sant'Agnello\nPicture: Positions_Images/6e3c7336.Picture.104351.jpg" }, "geometry": { "type": "Point", "coordinates": [ 14.398127, 40.630869 ] } },
{ "type": "Feature", "properties": { "id": "d2e704ed", "name": "d2e704ed", "date": "4/27/2026", "time": "13:27:29", "city": "5 Sant'Agnello", "street": "via Lepantie", "picture": "Positions_Images/d2e704ed.Picture.112742.jpg", "description": "ID: d2e704ed\nDate: 4/27/2026\nTime: 13:27:29\nCity: 5 Sant'Agnello\nStreet: via Lepantie\nPicture: Positions_Images/d2e704ed.Picture.112742.jpg" }, "geometry": { "type": "Point", "coordinates": [ 14.408882, 40.613522 ] } },
{ "type": "Feature", "properties": { "id": "3d1f9dce", "name": "3d1f9dce", "date": "4/27/2026", "time": "13:38:18", "city": "5 Sant'Agnello", "street": "via Passarano", "picture": "Positions_Images/3d1f9dce.Picture.113835.jpg", "description": "ID: 3d1f9dce\nDate: 4/27/2026\nTime: 13:38:18\nCity: 5 Sant'Agnello\nStreet: via Passarano\nPicture: Positions_Images/3d1f9dce.Picture.113835.jpg" }, "geometry": { "type": "Point", "coordinates": [ 14.405712, 40.612925 ] } },
{ "type": "Feature", "properties": { "id": "1e052c3e", "name": "1e052c3e", "date": "4/26/2026", "time": "21:30:00", "city": "5 Sant'Agnello", "street": "vico primo Cappuccini", "picture": "Positions_Images/1e052c3e.Picture.133758.jpg", "description": "ID: 1e052c3e\nDate: 4/26/2026\nTime: 21:30:00\nCity: 5 Sant'Agnello\nStreet: vico primo Cappuccini\nPicture: Positions_Images/1e052c3e.Picture.133758.jpg" }, "geometry": { "type": "Point", "coordinates": [ 14.392761, 40.633051 ] } },
{ "type": "Feature", "properties": { "id": "ba9c0b33", "name": "ba9c0b33", "date": "4/27/2026", "time": "20:24:55", "city": "5 Sant'Agnello", "street": "via Cepano", "picture": "Positions_Images/ba9c0b33.Picture.182511.jpg", "description": "ID: ba9c0b33\nDate: 4/27/2026\nTime: 20:24:55\nCity: 5 Sant'Agnello\nStreet: via Cepano\nPicture: Positions_Images/ba9c0b33.Picture.182511.jpg" }, "geometry": { "type": "Point", "coordinates": [ 14.411034, 40.61675 ] } }
]
}
