{
"type": "FeatureCollection",
"name": "strade_explored",
"crs": { "type": "name", "properties": { "name": "urn:ogc:def:crs:OGC:1.3:CRS84" } },
"features": [
{ "type": "Feature", "properties": { "name": "Via Bagnulo", "name_manual": "Via Bagnulo", "name_original": "Via Bagnulo", "highway": "unclassified", "status": "explored", "description": "explored" }, "geometry": { "type": "LineString", "coordinates": [ [ 14.4134838, 40.6333829 ], [ 14.4134515, 40.6334224 ], [ 14.4134359, 40.6334363 ], [ 14.4129484, 40.6340455 ], [ 14.412938, 40.6340589 ], [ 14.412317, 40.6348433 ] ] } },
{ "type": "Feature", "properties": { "name": "Via Artemano", "name_manual": "Via Artemano", "name_original": "Via Artemano", "highway": "residential", "status": "explored", "description": "explored" }, "geometry": { "type": "LineString", "coordinates": [ [ 14.4215944, 40.6215941 ], [ 14.4217344, 40.6215291 ], [ 14.4219145, 40.6214307 ], [ 14.4220162, 40.6212941 ], [ 14.4224644, 40.6209608 ], [ 14.422499, 40.6209246 ], [ 14.4225403, 40.6208814 ], [ 14.4228063, 40.6206879 ], [ 14.4232569, 40.6204029 ], [ 14.4236788, 40.6201307 ], [ 14.4242162, 40.6198693 ], [ 14.4243061, 40.6198231 ], [ 14.4244212, 40.6197449 ], [ 14.4245163, 40.6196599 ], [ 14.4247443, 40.6194741 ], [ 14.4248128, 40.6194303 ], [ 14.4251774, 40.6192924 ], [ 14.4252424, 40.6192475 ], [ 14.4254134, 40.6191249 ], [ 14.4255368, 40.6190541 ], [ 14.4256047, 40.619013 ], [ 14.4256704, 40.6189682 ], [ 14.425716, 40.6189 ], [ 14.4257911, 40.6188022 ], [ 14.4258578, 40.6187045 ], [ 14.4260411, 40.6184652 ] ] } },
{ "type": "Feature", "properties": { "name": "Via Bagnulo", "name_manual": "Via Bagnulo", "name_original": "Via Bagnulo", "highway": "unclassified", "status": "explored", "description": "explored" }, "geometry": { "type": "LineString", "coordinates": [ [ 14.412177, 40.6350288 ], [ 14.4119275, 40.635325 ], [ 14.4116914, 40.6356049 ], [ 14.4116188, 40.635686 ] ] } },
{ "type": "Feature", "properties": { "name": "Via Bagnulo", "name_manual": "Via Bagnulo", "name_original": "Via Bagnulo", "highway": "unclassified", "status": "explored", "description": "explored" }, "geometry": { "type": "LineString", "coordinates": [ [ 14.4100277, 40.6374667 ], [ 14.4098917, 40.637624 ], [ 14.4097873, 40.6377607 ], [ 14.40959, 40.6379711 ], [ 14.4095027, 40.6380514 ], [ 14.409213, 40.6383791 ], [ 14.4091085, 40.6385389 ], [ 14.4090508, 40.6386264 ], [ 14.4088711, 40.6388808 ], [ 14.4086672, 40.6391169 ], [ 14.4085414, 40.6392527 ], [ 14.4083802, 40.639466 ], [ 14.4082032, 40.639697 ], [ 14.407711, 40.6402231 ], [ 14.4073194, 40.6406556 ], [ 14.4072524, 40.640737 ], [ 14.4072282, 40.6407849 ], [ 14.4072236, 40.6407987 ] ] } },
{ "type": "Feature", "properties": { "name": "Via Bagnulo", "name_manual": "Via Bagnulo", "name_original": "Via Bagnulo", "highway": "unclassified", "status": "explored", "description": "explored" }, "geometry": { "type": "LineString", "coordinates": [ [ 14.412317, 40.6348433 ], [ 14.412177, 40.6350288 ] ] } },
{ "type": "Feature", "properties": { "name": "Via Bagnulo", "name_manual": "Via Bagnulo", "name_original": "Via Bagnulo", "highway": "unclassified", "status": "explored", "description": "explored" }, "geometry": { "type": "LineString", "coordinates": [ [ 14.4116188, 40.635686 ], [ 14.4111966, 40.6361656 ], [ 14.4109364, 40.6364984 ], [ 14.4107801, 40.636693 ], [ 14.4105167, 40.6370577 ], [ 14.4104456, 40.6371208 ], [ 14.4103201, 40.6372159 ], [ 14.4102163, 40.6372983 ], [ 14.4100277, 40.6374667 ] ] } },
{ "type": "Feature", "properties": { "name": "Via Artemano", "name_manual": "Via Artemano", "name_original": "Via Artemano", "highway": "footway", "status": "explored", "description": "explored" }, "geometry": { "type": "LineString", "coordinates": [ [ 14.4260411, 40.6184652 ], [ 14.4261344, 40.6184195 ], [ 14.4262739, 40.6183299 ], [ 14.4264093, 40.6182541 ], [ 14.4266361, 40.6181512 ] ] } },
{ "type": "Feature", "properties": { "name": "Via Artemano", "name_manual": "Via Artemano", "name_original": "Via Artemano", "highway": "residential", "status": "explored", "description": "explored" }, "geometry": { "type": "LineString", "coordinates": [ [ 14.4266361, 40.6181512 ], [ 14.4267103, 40.6181175 ], [ 14.4269498, 40.6180204 ], [ 14.4271365, 40.6179399 ], [ 14.4272824, 40.6178663 ], [ 14.4278108, 40.6175825 ], [ 14.427826, 40.6175424 ], [ 14.4278225, 40.6175098 ] ] } }
]
}
