{
"type": "FeatureCollection",
"name": "waypoints",
"crs": { "type": "name", "properties": { "name": "urn:ogc:def:crs:OGC:1.3:CRS84" } },
"features": [
{ "type": "Feature", "properties": { "id": "e30eb451", "name": "e30eb451", "date": "4/29/2026", "time": "9:38:12", "city": "2 Piano", "street": "test", "picture": "Positions_Images/e30eb451.Picture.073833.jpg", "description": "ID: e30eb451\nDate: 4/29/2026\nTime: 9:38:12\nCity: 2 Piano\nStreet: test\nPicture: Positions_Images/e30eb451.Picture.073833.jpg" }, "geometry": { "type": "Point", "coordinates": [ 14.414302, 40.630842 ] } }
]
}
